<?xml version="1.0" encoding="UTF-8"?>
<rss version="2.0">
<channel>
<title>METAR LFOT</title>
<lastBuildDate>2026-06-18 07:35:32 UTC</lastBuildDate>

<item>
<title>LFOT METAR/TAF</title>
<description>🟢 METAR LFOT 180730Z AUTO 10006KT 070V130 CAVOK 26/17 Q1018 NOSIG

🟡 TAF LFOT 180500Z 1806/1906 07004KT CAVOK PROB40 TEMPO 1812/1817 VRB15G35KT 2000 -TSRAGS BKN070CB PROB30 TEMPO 1900/1903 14015G30KT 4000 -TSRAGS BKN100CB</description>
<pubDate>2026-06-18 07:35:32 UTC</pubDate>
</item>

</channel>
</rss>
