<?xml version="1.0" encoding="UTF-8"?>
<rss version="2.0">
<channel>
<title>METAR LFOT</title>
<lastBuildDate>2026-06-18 11:35:35 UTC</lastBuildDate>

<item>
<title>LFOT METAR/TAF</title>
<description>🟢 METAR LFOT 181130Z AUTO 12007KT 070V160 CAVOK 35/16 Q1016 TEMPO VRB15G35KT 2000 -TSRAGS BKN070CB

🟡 TAF LFOT 180500Z 1806/1906 07004KT CAVOK PROB40 TEMPO 1812/1817 VRB15G35KT 2000 -TSRAGS BKN070CB PROB30 TEMPO 1900/1903 14015G30KT 4000 -TSRAGS BKN100CB</description>
<pubDate>2026-06-18 11:35:35 UTC</pubDate>
</item>

</channel>
</rss>
