<?xml version="1.0" encoding="UTF-8"?>
<rss version="2.0">
<channel>
<title>METAR LFOT</title>
<lastBuildDate>2026-04-26 17:06:03 UTC</lastBuildDate>

<item>
<title>LFOT METAR/TAF</title>
<description>🟢 METAR LFOT 261700Z AUTO 05005KT CAVOK 21/08 Q1020 NOSIG

🟡 TAF LFOT 261100Z 2612/2712 06003KT CAVOK</description>
<pubDate>2026-04-26 17:06:03 UTC</pubDate>
</item>

</channel>
</rss>
