<?xml version="1.0" encoding="UTF-8"?>
<rss version="2.0">
<channel>
<title>METAR LFOT</title>
<lastBuildDate>2026-06-19 05:05:33 UTC</lastBuildDate>

<item>
<title>LFOT METAR/TAF</title>
<description>🟢 METAR LFOT 190500Z AUTO 16004KT CAVOK 22/17 Q1014 NOSIG

🟡 TAF LFOT 182300Z 1900/1924 14005KT CAVOK PROB30 TEMPO 1916/1918 27015G30KT 4000 -TSRA SCT100CB</description>
<pubDate>2026-06-19 05:05:33 UTC</pubDate>
</item>

</channel>
</rss>
