<?xml version="1.0" encoding="UTF-8"?>
<rss version="2.0">
<channel>
<title>METAR LFOT</title>
<lastBuildDate>2026-06-09 10:05:29 UTC</lastBuildDate>

<item>
<title>LFOT METAR/TAF</title>
<description>🟢 METAR LFOT 091000Z AUTO 27009KT 220V310 9999 SCT040 SCT046 BKN240 17/07 Q1022 NOSIG

🟡 TAF LFOT 090500Z 0906/1006 26008KT CAVOK PROB40 TEMPO 0915/0919 4000 -SHRA SCT045TCU</description>
<pubDate>2026-06-09 10:05:29 UTC</pubDate>
</item>

</channel>
</rss>
