<?xml version="1.0" encoding="UTF-8"?>
<rss version="2.0">
<channel>
<title>METAR LFOT</title>
<lastBuildDate>2026-04-29 14:05:22 UTC</lastBuildDate>

<item>
<title>LFOT METAR/TAF</title>
<description>🟢 METAR LFOT 291400Z AUTO 09014KT CAVOK 24/12 Q1012 NOSIG

🟡 TAF LFOT 291100Z 2912/3012 09014G25KT CAVOK BECMG 3008/3010 10008KT</description>
<pubDate>2026-04-29 14:05:22 UTC</pubDate>
</item>

</channel>
</rss>
