<?xml version="1.0" encoding="UTF-8"?>
<rss version="2.0">
<channel>
<title>METAR LFOT</title>
<lastBuildDate>2026-06-25 20:28:18 UTC</lastBuildDate>

<item>
<title>LFOT METAR/TAF</title>
<description>🟢 METAR LFOT 252000Z AUTO 09003KT CAVOK 28/22 Q1011 TEMPO VRB15G35KT 4000 -TSRA BKN090CB

🟡 TAF LFOT 251700Z 2518/2618 06009KT CAVOK TEMPO 2518/2602 VRB15G35KT 4000 -TSRA BKN090CB BECMG 2602/2605 22010KT</description>
<pubDate>2026-06-25 20:28:18 UTC</pubDate>
</item>

</channel>
</rss>
