<?xml version="1.0" encoding="UTF-8"?>
<rss version="2.0">
<channel>
<title>METAR LFOT</title>
<lastBuildDate>2026-07-17 17:05:35 UTC</lastBuildDate>

<item>
<title>LFOT METAR/TAF</title>
<description>🟢 METAR LFOT 171700Z AUTO 22015KT 9999 ///CB 24/16 Q1015 TEMPO 31012G25KT 4000 -SHRA

🟡 TAF AMD LFOT 171637Z 1716/1812 29006KT CAVOK TEMPO 1716/1720 VRB12G22KT 4000 -SHRA SCT050 FEW080CB PROB40 TEMPO 1717/1719 -TSRA BKN050 SCT080CB</description>
<pubDate>2026-07-17 17:05:35 UTC</pubDate>
</item>

</channel>
</rss>
