<?xml version="1.0" encoding="UTF-8"?>
<rss version="2.0">
<channel>
<title>METAR LFOT</title>
<lastBuildDate>2026-06-30 12:35:32 UTC</lastBuildDate>

<item>
<title>LFOT METAR/TAF</title>
<description>🟢 METAR LFOT 301230Z AUTO 30004KT 200V010 CAVOK 29/14 Q1021 NOSIG

🟡 TAF LFOT 301100Z 3012/0112 VRB03KT CAVOK BECMG 3019/3021 32008KT</description>
<pubDate>2026-06-30 12:35:32 UTC</pubDate>
</item>

</channel>
</rss>
