<?xml version="1.0" encoding="UTF-8"?>
<rss version="2.0">
<channel>
<title>METAR LFOT</title>
<lastBuildDate>2026-05-27 17:05:30 UTC</lastBuildDate>

<item>
<title>LFOT METAR/TAF</title>
<description>🟢 METAR LFOT 271700Z AUTO 06007KT CAVOK 30/18 Q1021 TEMPO -TSRA FEW090CB

🟡 TAF LFOT 271100Z 2712/2812 07008KT CAVOK PROB30 TEMPO 2716/2720 -TSRA FEW090CB PROB40 TEMPO 2722/2801 VRB15G30KT SCT080CB</description>
<pubDate>2026-05-27 17:05:30 UTC</pubDate>
</item>

</channel>
</rss>
