<?xml version="1.0" encoding="UTF-8"?>
<rss version="2.0">
<channel>
<title>METAR LFOT</title>
<lastBuildDate>2026-06-24 00:07:01 UTC</lastBuildDate>

<item>
<title>LFOT METAR/TAF</title>
<description>🟢 METAR LFOT 240000Z AUTO 12004KT CAVOK 27/15 Q1016 NOSIG

🟡 TAF LFOT 232300Z 2400/2424 VRB04KT CAVOK PROB40 TEMPO 2415/2419 VRB15G35KT 4000 -TSRA SCT090CB</description>
<pubDate>2026-06-24 00:07:01 UTC</pubDate>
</item>

</channel>
</rss>
