<?xml version="1.0" encoding="UTF-8"?>
<rss version="2.0">
<channel>
<title>METAR LFOT</title>
<lastBuildDate>2026-04-30 09:35:30 UTC</lastBuildDate>

<item>
<title>LFOT METAR/TAF</title>
<description>🟢 METAR LFOT 300930Z AUTO 09007KT 050V120 CAVOK 19/09 Q1017 BECMG 19010KT

🟡 TAF LFOT 300500Z 3006/0106 08010KT CAVOK BECMG 3011/3013 19010KT PROB30 TEMPO 3012/3019 -SHRA SCT060TCU</description>
<pubDate>2026-04-30 09:35:30 UTC</pubDate>
</item>

</channel>
</rss>
