<?xml version="1.0" encoding="UTF-8"?>
<rss version="2.0">
<channel>
<title>METAR LFOT</title>
<lastBuildDate>2026-07-20 14:51:51 UTC</lastBuildDate>

<item>
<title>LFOT METAR/TAF</title>
<description>🟢 METAR LFOT 201430Z AUTO 04012KT 360V070 CAVOK 25/05 Q1021 NOSIG

🟡 TAF LFOT 201100Z 2012/2112 04012KT CAVOK</description>
<pubDate>2026-07-20 14:51:51 UTC</pubDate>
</item>

</channel>
</rss>
