<?xml version="1.0" encoding="UTF-8"?>
<rss version="2.0">
<channel>
<title>METAR LFOT</title>
<lastBuildDate>2026-06-15 05:35:35 UTC</lastBuildDate>

<item>
<title>LFOT METAR/TAF</title>
<description>🟢 METAR LFOT 150530Z AUTO 09005KT CAVOK 16/11 Q1015 NOSIG

🟡 TAF LFOT 142300Z 1500/1524 07005KT CAVOK BECMG 1511/1514 22005KT</description>
<pubDate>2026-06-15 05:35:35 UTC</pubDate>
</item>

</channel>
</rss>
