<?xml version="1.0" encoding="UTF-8"?>
<rss version="2.0">
<channel>
<title>METAR LFOT</title>
<lastBuildDate>2026-05-26 16:35:24 UTC</lastBuildDate>

<item>
<title>LFOT METAR/TAF</title>
<description>🟢 METAR LFOT 261630Z AUTO 10003KT 070V130 CAVOK 33/16 Q1023 NOSIG

🟡 TAF LFOT 261100Z 2612/2712 07005KT CAVOK</description>
<pubDate>2026-05-26 16:35:24 UTC</pubDate>
</item>

</channel>
</rss>
