<?xml version="1.0" encoding="UTF-8"?>
<rss version="2.0">
<channel>
<title>METAR LFOT</title>
<lastBuildDate>2026-06-20 23:41:51 UTC</lastBuildDate>

<item>
<title>LFOT METAR/TAF</title>
<description>🟢 METAR LFOT 202330Z AUTO VRB02KT CAVOK 26/18 Q1021 NOSIG

🟡 TAF LFOT 201700Z 2018/2118 21006KT CAVOK BECMG 2018/2021 04005KT</description>
<pubDate>2026-06-20 23:41:51 UTC</pubDate>
</item>

</channel>
</rss>
