<?xml version="1.0" encoding="UTF-8"?>
<rss version="2.0">
<channel>
<title>METAR LFOT</title>
<lastBuildDate>2026-04-26 11:58:25 UTC</lastBuildDate>

<item>
<title>LFOT METAR/TAF</title>
<description>🟢 METAR LFOT 261130Z AUTO 07004KT 010V130 CAVOK 22/04 Q1021 NOSIG

🟡 TAF LFOT 261100Z 2612/2712 06003KT CAVOK</description>
<pubDate>2026-04-26 11:58:25 UTC</pubDate>
</item>

</channel>
</rss>
