<?xml version="1.0" encoding="UTF-8"?>
<rss version="2.0">
<channel>
<title>METAR LFOT</title>
<lastBuildDate>2026-04-29 04:35:29 UTC</lastBuildDate>

<item>
<title>LFOT METAR/TAF</title>
<description>🟢 METAR LFOT 290430Z AUTO 07009KT CAVOK 11/08 Q1013 NOSIG

🟡 TAF LFOT 282330Z 2900/2924 05009KT CAVOK FM290700 08010KT CAVOK TEMPO 2909/2919 10015G25KT</description>
<pubDate>2026-04-29 04:35:29 UTC</pubDate>
</item>

</channel>
</rss>
