<?xml version="1.0" encoding="UTF-8"?>
<rss version="2.0">
<channel>
<title>METAR LFOT</title>
<lastBuildDate>2026-05-15 23:40:58 UTC</lastBuildDate>

<item>
<title>LFOT METAR/TAF</title>
<description>🟢 METAR LFOT 152330Z AUTO 25003KT 9999 SCT049 06/06 Q1010 NOSIG

🟡 TAF LFOT 152300Z 1600/1624 29003KT CAVOK PROB30 TEMPO 1602/1606 4000 BR</description>
<pubDate>2026-05-15 23:40:58 UTC</pubDate>
</item>

</channel>
</rss>
