<?xml version="1.0" encoding="UTF-8"?>
<rss version="2.0">
<channel>
<title>METAR LFOT</title>
<lastBuildDate>2026-06-04 05:35:24 UTC</lastBuildDate>

<item>
<title>LFOT METAR/TAF</title>
<description>🟢 METAR LFOT 040530Z AUTO 23012KT 200V260 9999 BKN012 OVC026 15/13 Q1007 TEMPO 4000 -SHRA BKN013TCU

🟡 TAF LFOT 040500Z 0406/0506 22012KT 9999 BKN020 TEMPO 0406/0416 4000 -SHRA BKN013TCU PROB40 TEMPO 0408/0418 24015G30KT BECMG 0420/0422 26006KT</description>
<pubDate>2026-06-04 05:35:24 UTC</pubDate>
</item>

</channel>
</rss>
