<?xml version="1.0" encoding="UTF-8"?>
<rss version="2.0">
<channel>
<title>METAR LFOT</title>
<lastBuildDate>2026-07-07 08:35:32 UTC</lastBuildDate>

<item>
<title>LFOT METAR/TAF</title>
<description>🟢 METAR LFOT 070830Z AUTO 25009KT 220V290 CAVOK 31/08 Q1019 NOSIG

🟡 TAF LFOT 070500Z 0706/0806 VRB03KT CAVOK BECMG 0708/0710 27010KT</description>
<pubDate>2026-07-07 08:35:32 UTC</pubDate>
</item>

</channel>
</rss>
