<?xml version="1.0" encoding="UTF-8"?>
<rss version="2.0">
<channel>
<title>METAR LFOT</title>
<lastBuildDate>2026-07-07 04:18:29 UTC</lastBuildDate>

<item>
<title>LFOT METAR/TAF</title>
<description>🟢 METAR LFOT 070400Z AUTO VRB02KT CAVOK 17/10 Q1018 NOSIG

🟡 TAF LFOT 062300Z 0700/0724 VRB03KT CAVOK BECMG 0708/0710 27010KT</description>
<pubDate>2026-07-07 04:18:29 UTC</pubDate>
</item>

</channel>
</rss>
