<?xml version="1.0" encoding="UTF-8"?>
<rss version="2.0">
<channel>
<title>METAR LFOT</title>
<lastBuildDate>2026-05-30 17:46:46 UTC</lastBuildDate>

<item>
<title>LFOT METAR/TAF</title>
<description>🟢 METAR LFOT 301730Z AUTO 25007KT 9999 ///CB 29/17 Q1017 TEMPO VRB15G40KT 2500 TSRAGR

🟡 TAF LFOT 301100Z 3012/3112 VRB03KT CAVOK PROB40 TEMPO 3016/3021 VRB15G40KT 4000 -TSRA BKN080CB PROB30 TEMPO 3017/3020 2500 TSRAGR BECMG 3023/3101 30006KT</description>
<pubDate>2026-05-30 17:46:46 UTC</pubDate>
</item>

</channel>
</rss>
