<?xml version="1.0" encoding="UTF-8"?>
<rss version="2.0">
<channel>
<title>METAR LFOT</title>
<lastBuildDate>2026-06-18 16:05:38 UTC</lastBuildDate>

<item>
<title>LFOT METAR/TAF</title>
<description>🟢 METAR LFOT 181600Z AUTO 14006KT 120V180 9999 ///CB 27/16 Q1015 TEMPO 27015G25KT 4500 -TSRA

🟡 TAF LFOT 181100Z 1812/1912 15008KT CAVOK PROB40 TEMPO 1813/1818 27015G25KT 4500 -TSRA FEW090CB SCT100TCU PROB30 TEMPO 1813/1816 26020G35KT 2500 -TSRAGS BKN090CB PROB30 TEMPO 1900/1904 25015G25KT 4000 -TSRA SCT100CB</description>
<pubDate>2026-06-18 16:05:38 UTC</pubDate>
</item>

</channel>
</rss>
