<?xml version="1.0" encoding="UTF-8"?>
<rss version="2.0">
<channel>
<title>METAR LFOT</title>
<lastBuildDate>2026-06-07 13:00:58 UTC</lastBuildDate>

<item>
<title>LFOT METAR/TAF</title>
<description>🟢 METAR LFOT 071230Z AUTO 10005KT 030V140 CAVOK 20/09 Q1024 BECMG FEW030TCU

🟡 TAF LFOT 071100Z 0712/0812 VRB03KT 9999 FEW030TCU BECMG 0806/0808 28010KT PROB30 TEMPO 0806/0809 -SHRA FEW050TCU</description>
<pubDate>2026-06-07 13:00:58 UTC</pubDate>
</item>

</channel>
</rss>
