<?xml version="1.0" encoding="UTF-8"?>
<rss version="2.0">
<channel>
<title>METAR LFOT</title>
<lastBuildDate>2026-05-23 06:35:23 UTC</lastBuildDate>

<item>
<title>LFOT METAR/TAF</title>
<description>🟢 METAR LFOT 230630Z AUTO 08004KT CAVOK 19/15 Q1026 NOSIG

🟡 TAF LFOT 230500Z 2306/2406 07004KT CAVOK</description>
<pubDate>2026-05-23 06:35:23 UTC</pubDate>
</item>

</channel>
</rss>
