<?xml version="1.0" encoding="UTF-8"?>
<rss version="2.0">
<channel>
<title>METAR LFOT</title>
<lastBuildDate>2026-07-03 18:35:30 UTC</lastBuildDate>

<item>
<title>LFOT METAR/TAF</title>
<description>🟢 METAR LFOT 031830Z AUTO 34006KT 320V030 CAVOK 28/09 Q1026 NOSIG

🟡 TAF LFOT 031700Z 0318/0418 36008KT CAVOK</description>
<pubDate>2026-07-03 18:35:30 UTC</pubDate>
</item>

</channel>
</rss>
