<?xml version="1.0" encoding="UTF-8"?>
<rss version="2.0">
<channel>
<title>METAR LFOT</title>
<lastBuildDate>2026-05-21 07:35:21 UTC</lastBuildDate>

<item>
<title>LFOT METAR/TAF</title>
<description>🟢 METAR LFOT 210730Z AUTO 13005KT CAVOK 18/13 Q1027 NOSIG

🟡 TAF LFOT 210500Z 2106/2206 13005KT CAVOK</description>
<pubDate>2026-05-21 07:35:21 UTC</pubDate>
</item>

</channel>
</rss>
