<?xml version="1.0" encoding="UTF-8"?>
<rss version="2.0">
<channel>
<title>METAR LFOT</title>
<lastBuildDate>2026-07-04 10:05:30 UTC</lastBuildDate>

<item>
<title>LFOT METAR/TAF</title>
<description>🟢 METAR LFOT 041000Z AUTO VRB02KT CAVOK 27/M01 Q1029 NOSIG

🟡 TAF LFOT 040500Z 0406/0506 36005KT CAVOK</description>
<pubDate>2026-07-04 10:05:30 UTC</pubDate>
</item>

</channel>
</rss>
