<?xml version="1.0" encoding="UTF-8"?>
<rss version="2.0">
<channel>
<title>METAR LFOT</title>
<lastBuildDate>2026-06-16 05:05:35 UTC</lastBuildDate>

<item>
<title>LFOT METAR/TAF</title>
<description>🟢 METAR LFOT 160500Z AUTO 23007KT 210V270 CAVOK 19/12 Q1015 NOSIG

🟡 TAF LFOT 152300Z 1600/1624 VRB03KT CAVOK TEMPO 1610/1618 27010KT</description>
<pubDate>2026-06-16 05:05:35 UTC</pubDate>
</item>

</channel>
</rss>
