<?xml version="1.0" encoding="UTF-8"?>
<rss version="2.0">
<channel>
<title>METAR LFOT</title>
<lastBuildDate>2026-07-19 08:35:21 UTC</lastBuildDate>

<item>
<title>LFOT METAR/TAF</title>
<description>🟢 METAR LFOT 190830Z AUTO 04011KT 360V070 CAVOK 19/10 Q1021 NOSIG

🟡 TAF LFOT 190500Z 1906/2006 04010KT CAVOK PROB40 TEMPO 1907/1917 04010G20KT</description>
<pubDate>2026-07-19 08:35:21 UTC</pubDate>
</item>

</channel>
</rss>
