<?xml version="1.0" encoding="UTF-8"?>
<rss version="2.0">
<channel>
<title>METAR LFOT</title>
<lastBuildDate>2026-05-06 05:05:21 UTC</lastBuildDate>

<item>
<title>LFOT METAR/TAF</title>
<description>🟢 METAR LFOT 060500Z AUTO 36004KT 320V030 6000 OVC005 11/10 Q1008 TEMPO 4000 -SHRA BKN012TCU

🟡 TAF LFOT 052300Z 0600/0624 33005KT 9999 SCT012 SCT050 TEMPO 0600/0613 4000 -SHRA BKN012TCU PROB40 TEMPO 0600/0609 BKN004</description>
<pubDate>2026-05-06 05:05:21 UTC</pubDate>
</item>

</channel>
</rss>
