<?xml version="1.0" encoding="UTF-8"?>
<rss version="2.0">
<channel>
<title>METAR LFOT</title>
<lastBuildDate>2026-06-16 04:05:31 UTC</lastBuildDate>

<item>
<title>LFOT METAR/TAF</title>
<description>🟢 METAR LFOT 160400Z AUTO 25004KT CAVOK 17/12 Q1014 NOSIG

🟡 TAF LFOT 152300Z 1600/1624 VRB03KT CAVOK TEMPO 1610/1618 27010KT</description>
<pubDate>2026-06-16 04:05:31 UTC</pubDate>
</item>

</channel>
</rss>
