<?xml version="1.0" encoding="UTF-8"?>
<rss version="2.0">
<channel>
<title>METAR LFOT</title>
<lastBuildDate>2026-05-21 22:38:08 UTC</lastBuildDate>

<item>
<title>LFOT METAR/TAF</title>
<description>🟢 METAR LFOT 212230Z AUTO 06004KT CAVOK 16/12 Q1025 NOSIG

🟡 TAF LFOT 211700Z 2118/2218 10006KT CAVOK</description>
<pubDate>2026-05-21 22:38:08 UTC</pubDate>
</item>

</channel>
</rss>
