<?xml version="1.0" encoding="UTF-8"?>
<rss version="2.0">
<channel>
<title>METAR LFOT</title>
<lastBuildDate>2026-07-21 07:35:36 UTC</lastBuildDate>

<item>
<title>LFOT METAR/TAF</title>
<description>🟢 METAR LFOT 210730Z AUTO 05009KT 010V080 CAVOK 19/09 Q1024 NOSIG

🟡 TAF LFOT 210500Z 2106/2206 04012KT CAVOK</description>
<pubDate>2026-07-21 07:35:36 UTC</pubDate>
</item>

</channel>
</rss>
