<?xml version="1.0" encoding="UTF-8"?>
<rss version="2.0">
<channel>
<title>METAR LFOT</title>
<lastBuildDate>2026-04-25 19:58:57 UTC</lastBuildDate>

<item>
<title>LFOT METAR/TAF</title>
<description>🟢 METAR LFOT 251930Z AUTO 01005KT 340V040 CAVOK 19/06 Q1019 NOSIG

🟡 TAF LFOT 251700Z 2518/2618 04006KT CAVOK</description>
<pubDate>2026-04-25 19:58:57 UTC</pubDate>
</item>

</channel>
</rss>
