<?xml version="1.0" encoding="UTF-8"?>
<rss version="2.0">
<channel>
<title>METAR LFOT</title>
<lastBuildDate>2026-07-09 08:35:40 UTC</lastBuildDate>

<item>
<title>LFOT METAR/TAF</title>
<description>🟢 METAR LFOT 090830Z AUTO 07009KT 050V120 CAVOK 30/15 Q1017 NOSIG

🟡 TAF LFOT 090500Z 0906/1006 06007KT CAVOK</description>
<pubDate>2026-07-09 08:35:40 UTC</pubDate>
</item>

</channel>
</rss>
