<?xml version="1.0" encoding="UTF-8"?>
<rss version="2.0">
<channel>
<title>METAR LFOT</title>
<lastBuildDate>2026-07-08 07:05:33 UTC</lastBuildDate>

<item>
<title>LFOT METAR/TAF</title>
<description>🟢 METAR LFOT 080700Z AUTO 05005KT 020V080 CAVOK 25/09 Q1019 NOSIG

🟡 TAF LFOT 080500Z 0806/0906 02005KT CAVOK</description>
<pubDate>2026-07-08 07:05:33 UTC</pubDate>
</item>

</channel>
</rss>
