<?xml version="1.0" encoding="UTF-8"?>
<rss version="2.0">
<channel>
<title>METAR LFOT</title>
<lastBuildDate>2026-06-02 00:08:13 UTC</lastBuildDate>

<item>
<title>LFOT METAR/TAF</title>
<description>🟢 METAR LFOT 020000Z AUTO 26004KT CAVOK 17/13 Q1012 NOSIG

🟡 TAF LFOT 012300Z 0200/0224 28005KT CAVOK TEMPO 0204/0208 22015G25KT TSRA BKN014CB PROB40 TEMPO 0210/0221 26015G30KT 4000 -TSRAGS SCT030CB</description>
<pubDate>2026-06-02 00:08:13 UTC</pubDate>
</item>

</channel>
</rss>
