<?xml version="1.0" encoding="UTF-8"?>
<rss version="2.0">
<channel>
<title>METAR LFOT</title>
<lastBuildDate>2026-07-19 21:28:48 UTC</lastBuildDate>

<item>
<title>LFOT METAR/TAF</title>
<description>🟢 METAR LFOT 192100Z AUTO 03006KT 350V070 CAVOK 20/07 Q1021 NOSIG

🟡 TAF LFOT 191700Z 1918/2018 04010KT CAVOK</description>
<pubDate>2026-07-19 21:28:48 UTC</pubDate>
</item>

</channel>
</rss>
