<?xml version="1.0" encoding="UTF-8"?>
<rss version="2.0">
<channel>
<title>METAR LFOT</title>
<lastBuildDate>2026-05-05 18:05:31 UTC</lastBuildDate>

<item>
<title>LFOT METAR/TAF</title>
<description>🟢 METAR LFOT 051800Z AUTO 33004KT 310V010 9999 FEW010 OVC058 13/12 Q1008 TEMPO 4000 -SHRA BKN012CB

🟡 TAF LFOT 051700Z 0518/0618 33006KT 9999 SCT012 SCT050 TEMPO 0518/0614 4000 -SHRA BKN012TCU PROB30 TEMPO 0518/0523 -TSRA BKN012CB PROB40 TEMPO 0518/0609 BKN006</description>
<pubDate>2026-05-05 18:05:31 UTC</pubDate>
</item>

</channel>
</rss>
