<?xml version="1.0" encoding="UTF-8"?>
<rss version="2.0">
<channel>
<title>METAR LFOT</title>
<lastBuildDate>2026-06-06 18:35:23 UTC</lastBuildDate>

<item>
<title>LFOT METAR/TAF</title>
<description>🟢 METAR LFOT 061830Z AUTO 26010KT 220V290 CAVOK 18/08 Q1019 NOSIG

🟡 TAF LFOT 061700Z 0618/0718 25010G20KT CAVOK BECMG 0619/0622 25008KT BECMG 0703/0706 VRB03KT</description>
<pubDate>2026-06-06 18:35:23 UTC</pubDate>
</item>

</channel>
</rss>
