<?xml version="1.0" encoding="UTF-8"?>
<rss version="2.0">
<channel>
<title>METAR LFOT</title>
<lastBuildDate>2026-05-07 15:35:24 UTC</lastBuildDate>

<item>
<title>LFOT METAR/TAF</title>
<description>🟢 METAR LFOT 071530Z AUTO 06008KT 030V090 CAVOK 18/08 Q1013 NOSIG

🟡 TAF LFOT 071100Z 0712/0812 07005KT 9999 SCT040</description>
<pubDate>2026-05-07 15:35:24 UTC</pubDate>
</item>

</channel>
</rss>
