<?xml version="1.0" encoding="UTF-8"?>
<rss version="2.0">
<channel>
<title>METAR LFOT</title>
<lastBuildDate>2026-06-16 14:35:40 UTC</lastBuildDate>

<item>
<title>LFOT METAR/TAF</title>
<description>🟢 METAR LFOT 161430Z AUTO 26007KT 220V310 9999 FEW040 OVC140 27/16 Q1017 NOSIG

🟡 TAF LFOT 161100Z 1612/1712 28012KT CAVOK BECMG 1618/1620 35006KT</description>
<pubDate>2026-06-16 14:35:40 UTC</pubDate>
</item>

</channel>
</rss>
