<?xml version="1.0" encoding="UTF-8"?>
<rss version="2.0">
<channel>
<title>METAR LFOT</title>
<lastBuildDate>2026-06-13 17:59:44 UTC</lastBuildDate>

<item>
<title>LFOT METAR/TAF</title>
<description>🟢 METAR LFOT 131730Z AUTO 32006KT 290V360 CAVOK 29/12 Q1022 NOSIG

🟡 TAF LFOT 131700Z 1318/1418 34005KT CAVOK</description>
<pubDate>2026-06-13 17:59:44 UTC</pubDate>
</item>

</channel>
</rss>
