<?xml version="1.0" encoding="UTF-8"?>
<rss version="2.0">
<channel>
<title>METAR LFOT</title>
<lastBuildDate>2026-07-12 00:11:49 UTC</lastBuildDate>

<item>
<title>LFOT METAR/TAF</title>
<description>🟢 METAR LFOT 120000Z AUTO 05010KT CAVOK 27/10 Q1015 NOSIG

🟡 TAF LFOT 112300Z 1200/1224 05010KT CAVOK TEMPO 1222/1224 07015G25KT</description>
<pubDate>2026-07-12 00:11:49 UTC</pubDate>
</item>

</channel>
</rss>
