<?xml version="1.0" encoding="UTF-8"?>
<rss version="2.0">
<channel>
<title>METAR LFOT</title>
<lastBuildDate>2026-06-26 11:05:30 UTC</lastBuildDate>

<item>
<title>LFOT METAR/TAF</title>
<description>🟢 METAR LFOT 261100Z AUTO 28006KT 230V340 CAVOK 31/19 Q1017 NOSIG

🟡 TAF LFOT 260500Z 2606/2706 33008KT CAVOK PROB40 TEMPO 2607/2610 4000 -TSRA FEW090CB PROB30 TEMPO 2619/2623 05012G30KT 4000 -TSRA FEW090CB</description>
<pubDate>2026-06-26 11:05:30 UTC</pubDate>
</item>

</channel>
</rss>
