<?xml version="1.0" encoding="UTF-8"?>
<rss version="2.0">
<channel>
<title>METAR LFOT</title>
<lastBuildDate>2026-06-14 05:11:28 UTC</lastBuildDate>

<item>
<title>LFOT METAR/TAF</title>
<description>🟢 METAR LFOT 140400Z AUTO 06004KT CAVOK 14/12 Q1020 NOSIG

🟡 TAF LFOT 132300Z 1400/1424 33005KT CAVOK</description>
<pubDate>2026-06-14 05:11:28 UTC</pubDate>
</item>

</channel>
</rss>
