<?xml version="1.0" encoding="UTF-8"?>
<rss version="2.0">
<channel>
<title>METAR LFOT</title>
<lastBuildDate>2026-06-22 05:05:36 UTC</lastBuildDate>

<item>
<title>LFOT METAR/TAF</title>
<description>🟢 METAR LFOT 220500Z AUTO 08007KT CAVOK 25/17 Q1021 NOSIG

🟡 TAF LFOT 212300Z 2200/2224 06008KT CAVOK</description>
<pubDate>2026-06-22 05:05:36 UTC</pubDate>
</item>

</channel>
</rss>
