<?xml version="1.0" encoding="UTF-8"?>
<rss version="2.0">
<channel>
<title>METAR LFOT</title>
<lastBuildDate>2026-04-26 21:56:01 UTC</lastBuildDate>

<item>
<title>LFOT METAR/TAF</title>
<description>🟢 METAR LFOT 262130Z AUTO VRB03KT CAVOK 14/05 Q1021 NOSIG

🟡 TAF LFOT 261700Z 2618/2718 03005KT CAVOK</description>
<pubDate>2026-04-26 21:56:01 UTC</pubDate>
</item>

</channel>
</rss>
