<?xml version="1.0" encoding="UTF-8"?>
<rss version="2.0">
<channel>
<title>METAR LFOT</title>
<lastBuildDate>2026-07-22 15:03:21 UTC</lastBuildDate>

<item>
<title>LFOT METAR/TAF</title>
<description>🟢 METAR LFOT 221430Z AUTO 05010KT 360V100 CAVOK 28/10 Q1022 NOSIG

🟡 TAF LFOT 221100Z 2212/2312 04008KT CAVOK</description>
<pubDate>2026-07-22 15:03:21 UTC</pubDate>
</item>

</channel>
</rss>
