<?xml version="1.0" encoding="UTF-8"?>
<rss version="2.0">
<channel>
<title>METAR LFOT</title>
<lastBuildDate>2026-04-25 04:05:21 UTC</lastBuildDate>

<item>
<title>LFOT METAR/TAF</title>
<description>🟢 METAR LFOT 250400Z AUTO 05003KT 010V080 CAVOK 08/03 Q1018 NOSIG

🟡 TAF LFOT 242300Z 2500/2524 05007KT CAVOK</description>
<pubDate>2026-04-25 04:05:21 UTC</pubDate>
</item>

</channel>
</rss>
