<?xml version="1.0" encoding="UTF-8"?>
<rss version="2.0">
<channel>
<title>METAR LFOT</title>
<lastBuildDate>2026-06-30 07:05:31 UTC</lastBuildDate>

<item>
<title>LFOT METAR/TAF</title>
<description>🟢 METAR LFOT 300700Z AUTO 06007KT CAVOK 20/12 Q1023 NOSIG

🟡 TAF LFOT 300500Z 3006/0106 07006KT CAVOK BECMG 3009/3012 VRB04KT BECMG 3019/3021 26012KT</description>
<pubDate>2026-06-30 07:05:31 UTC</pubDate>
</item>

</channel>
</rss>
