<?xml version="1.0" encoding="UTF-8"?>
<rss version="2.0">
<channel>
<title>METAR LFOT</title>
<lastBuildDate>2026-07-18 17:09:40 UTC</lastBuildDate>

<item>
<title>LFOT METAR/TAF</title>
<description>🟢 METAR LFOT 181700Z AUTO 34006KT 300V010 CAVOK 30/10 Q1015 NOSIG

🟡 TAF LFOT 181100Z 1812/1912 35004KT CAVOK BECMG 1821/1824 03010KT</description>
<pubDate>2026-07-18 17:09:40 UTC</pubDate>
</item>

</channel>
</rss>
