<?xml version="1.0" encoding="UTF-8"?>
<rss version="2.0">
<channel>
<title>METAR LFOT</title>
<lastBuildDate>2026-05-06 16:05:40 UTC</lastBuildDate>

<item>
<title>LFOT METAR/TAF</title>
<description>🟢 METAR LFOT 061600Z AUTO 01005KT 330V070 9999 SCT040 BKN047 OVC086 15/07 Q1011 NOSIG

🟡 TAF LFOT 061100Z 0612/0712 02007KT 9999 BKN018 OVC050 PROB30 TEMPO 0612/0613 4000 -RA BKN012 PROB40 TEMPO 0704/0707 4000 BR BECMG 0707/0709 08003KT</description>
<pubDate>2026-05-06 16:05:40 UTC</pubDate>
</item>

</channel>
</rss>
