<?xml version="1.0" encoding="UTF-8"?>
<rss version="2.0">
<channel>
<title>METAR LFOT</title>
<lastBuildDate>2026-07-23 18:02:09 UTC</lastBuildDate>

<item>
<title>LFOT METAR/TAF</title>
<description>🟢 METAR LFOT 231730Z AUTO 04009KT 360V080 CAVOK 27/10 Q1019 NOSIG

🟡 TAF LFOT 231700Z 2318/2418 04010KT CAVOK</description>
<pubDate>2026-07-23 18:02:09 UTC</pubDate>
</item>

</channel>
</rss>
