<?xml version="1.0" encoding="UTF-8"?>
<rss version="2.0">
<channel>
<title>METAR LFOT</title>
<lastBuildDate>2026-04-26 06:31:03 UTC</lastBuildDate>

<item>
<title>LFOT METAR/TAF</title>
<description>🟢 METAR LFOT 260600Z AUTO 05006KT 020V080 CAVOK 10/04 Q1021 NOSIG

🟡 TAF LFOT 260500Z 2606/2706 05008KT CAVOK</description>
<pubDate>2026-04-26 06:31:03 UTC</pubDate>
</item>

</channel>
</rss>
