<?xml version="1.0" encoding="UTF-8"?>
<rss version="2.0">
<channel>
<title>METAR LFOT</title>
<lastBuildDate>2026-06-29 14:05:34 UTC</lastBuildDate>

<item>
<title>LFOT METAR/TAF</title>
<description>🟢 METAR LFOT 291400Z AUTO VRB03KT CAVOK 26/14 Q1025 NOSIG

🟡 TAF LFOT 291100Z 2912/3012 36006KT CAVOK</description>
<pubDate>2026-06-29 14:05:34 UTC</pubDate>
</item>

</channel>
</rss>
