<?xml version="1.0" encoding="UTF-8"?>
<rss version="2.0">
<channel>
<title>METAR LFOT</title>
<lastBuildDate>2026-05-07 16:23:45 UTC</lastBuildDate>

<item>
<title>LFOT METAR/TAF</title>
<description>🟢 METAR LFOT 071600Z AUTO 08007KT 040V110 9999 FEW049 OVC082 17/08 Q1013 NOSIG

🟡 TAF LFOT 071100Z 0712/0812 07005KT 9999 SCT040</description>
<pubDate>2026-05-07 16:23:45 UTC</pubDate>
</item>

</channel>
</rss>
