<?xml version="1.0" encoding="UTF-8"?>
<rss version="2.0">
<channel>
<title>METAR LFOT</title>
<lastBuildDate>2026-07-09 09:40:35 UTC</lastBuildDate>

<item>
<title>LFOT METAR/TAF</title>
<description>🟢 METAR LFOT 090930Z AUTO 08007KT 040V140 CAVOK 31/16 Q1016 NOSIG

🟡 TAF LFOT 090500Z 0906/1006 06007KT CAVOK</description>
<pubDate>2026-07-09 09:40:35 UTC</pubDate>
</item>

</channel>
</rss>
