<?xml version="1.0" encoding="UTF-8"?>
<rss version="2.0">
<channel>
<title>METAR LFOT</title>
<lastBuildDate>2026-06-07 20:12:27 UTC</lastBuildDate>

<item>
<title>LFOT METAR/TAF</title>
<description>🟢 METAR LFOT 072000Z AUTO VRB01KT CAVOK 19/11 Q1020 NOSIG

🟡 TAF LFOT 071700Z 0718/0818 VRB04KT CAVOK BECMG 0805/0807 28010KT PROB30 TEMPO 0807/0809 -SHRA FEW050TCU PROB40 TEMPO 0816/0818 27015G25KT 4000 -SHRA BKN040TCU</description>
<pubDate>2026-06-07 20:12:27 UTC</pubDate>
</item>

</channel>
</rss>
