<?xml version="1.0" encoding="UTF-8"?>
<rss version="2.0">
<channel>
<title>METAR LFOT</title>
<lastBuildDate>2026-05-29 13:05:24 UTC</lastBuildDate>

<item>
<title>LFOT METAR/TAF</title>
<description>🟢 METAR LFOT 291300Z AUTO 14005KT 100V190 CAVOK 33/13 Q1022 NOSIG

🟡 TAF LFOT 291100Z 2912/3012 10005KT CAVOK</description>
<pubDate>2026-05-29 13:05:24 UTC</pubDate>
</item>

</channel>
</rss>
