<?xml version="1.0" encoding="UTF-8"?>
<rss version="2.0">
<channel>
<title>METAR LFOT</title>
<lastBuildDate>2026-07-20 15:35:45 UTC</lastBuildDate>

<item>
<title>LFOT METAR/TAF</title>
<description>🟢 METAR LFOT 201530Z AUTO 06012KT 010V090 CAVOK 26/04 Q1021 NOSIG

🟡 TAF LFOT 201100Z 2012/2112 04012KT CAVOK</description>
<pubDate>2026-07-20 15:35:45 UTC</pubDate>
</item>

</channel>
</rss>
