<?xml version="1.0" encoding="UTF-8"?>
<rss version="2.0">
<channel>
<title>METAR LFOT</title>
<lastBuildDate>2026-07-23 21:45:14 UTC</lastBuildDate>

<item>
<title>LFOT METAR/TAF</title>
<description>🟢 METAR LFOT 232130Z AUTO 04005KT 360V080 CAVOK 20/10 Q1020 NOSIG

🟡 TAF LFOT 231700Z 2318/2418 04010KT CAVOK</description>
<pubDate>2026-07-23 21:45:14 UTC</pubDate>
</item>

</channel>
</rss>
