<?xml version="1.0" encoding="UTF-8"?>
<rss version="2.0">
<channel>
<title>METAR LFOT</title>
<lastBuildDate>2026-05-12 18:05:25 UTC</lastBuildDate>

<item>
<title>LFOT METAR/TAF</title>
<description>🟢 METAR LFOT 121800Z AUTO 31004KT 270V340 CAVOK 15/07 Q1014 NOSIG

🟡 TAF LFOT 121700Z 1218/1318 25005KT CAVOK TEMPO 1312/1318 26015G30KT TEMPO 1315/1318 4000 -SHRA SCT030TCU</description>
<pubDate>2026-05-12 18:05:25 UTC</pubDate>
</item>

</channel>
</rss>
