<?xml version="1.0" encoding="UTF-8"?>
<rss version="2.0">
<channel>
<title>METAR LFOT</title>
<lastBuildDate>2026-06-16 04:35:34 UTC</lastBuildDate>

<item>
<title>LFOT METAR/TAF</title>
<description>🟢 METAR LFOT 160430Z AUTO 24007KT CAVOK 19/13 Q1014 NOSIG

🟡 TAF LFOT 152300Z 1600/1624 VRB03KT CAVOK TEMPO 1610/1618 27010KT</description>
<pubDate>2026-06-16 04:35:34 UTC</pubDate>
</item>

</channel>
</rss>
