<?xml version="1.0" encoding="UTF-8"?>
<rss version="2.0">
<channel>
<title>METAR LFOT</title>
<lastBuildDate>2026-05-13 06:05:28 UTC</lastBuildDate>

<item>
<title>LFOT METAR/TAF</title>
<description>🟢 METAR LFOT 130600Z AUTO 26007KT 220V290 9999 BKN043 10/08 Q1013 NOSIG

🟡 TAF LFOT 130500Z 1306/1406 27008KT 9999 BKN040 TEMPO 1315/1318 27015G30KT 4000 SHRA BKN030TCU TEMPO 1318/1320 27012G25KT 4000 SHRA BKN030TCU</description>
<pubDate>2026-05-13 06:05:28 UTC</pubDate>
</item>

</channel>
</rss>
