<?xml version="1.0" encoding="UTF-8"?>
<rss version="2.0">
<channel>
<title>METAR LFOT</title>
<lastBuildDate>2026-05-19 17:35:22 UTC</lastBuildDate>

<item>
<title>LFOT METAR/TAF</title>
<description>🟢 METAR LFOT 191730Z AUTO 22012KT 180V240 9999 BKN038 BKN044 BKN052 18/12 Q1017 TEMPO FEW020TCU

🟡 TAF LFOT 191100Z 1912/2012 20010KT 9999 BKN018 PROB40 TEMPO 1912/1915 BKN014 PROB30 TEMPO 1915/1920 20010G25KT -SHRA FEW020TCU PROB30 TEMPO 1920/2002 BKN012</description>
<pubDate>2026-05-19 17:35:22 UTC</pubDate>
</item>

</channel>
</rss>
