<?xml version="1.0" encoding="UTF-8"?>
<rss version="2.0">
<channel>
<title>METAR LFOT</title>
<lastBuildDate>2026-06-22 08:35:37 UTC</lastBuildDate>

<item>
<title>LFOT METAR/TAF</title>
<description>🟢 METAR LFOT 220830Z AUTO 08008KT CAVOK 33/17 Q1021 NOSIG

🟡 TAF LFOT 220500Z 2206/2306 08008KT CAVOK</description>
<pubDate>2026-06-22 08:35:37 UTC</pubDate>
</item>

</channel>
</rss>
