<?xml version="1.0" encoding="UTF-8"?>
<rss version="2.0">
<channel>
<title>METAR LFOT</title>
<lastBuildDate>2026-04-25 23:57:35 UTC</lastBuildDate>

<item>
<title>LFOT METAR/TAF</title>
<description>🟢 METAR LFOT 252330Z AUTO 06008KT CAVOK 13/05 Q1020 NOSIG

🟡 TAF LFOT 252300Z 2600/2624 05008KT CAVOK</description>
<pubDate>2026-04-25 23:57:35 UTC</pubDate>
</item>

</channel>
</rss>
