<?xml version="1.0" encoding="UTF-8"?>
<rss version="2.0">
<channel>
<title>METAR LFOT</title>
<lastBuildDate>2026-07-21 00:12:55 UTC</lastBuildDate>

<item>
<title>LFOT METAR/TAF</title>
<description>🟢 METAR LFOT 210000Z AUTO 04007KT 360V080 CAVOK 18/07 Q1023 NOSIG

🟡 TAF LFOT 202300Z 2100/2124 05010KT CAVOK</description>
<pubDate>2026-07-21 00:12:55 UTC</pubDate>
</item>

</channel>
</rss>
