<?xml version="1.0" encoding="UTF-8"?>
<rss version="2.0">
<channel>
<title>METAR LFOT</title>
<lastBuildDate>2026-06-25 17:05:33 UTC</lastBuildDate>

<item>
<title>LFOT METAR/TAF</title>
<description>🟢 METAR LFOT 251700Z AUTO 10007KT 080V150 9999 ///CB 39/16 Q1010 TEMPO VRB15G35KT 4000 -TSRA

🟡 TAF AMD LFOT 251617Z 2516/2612 10010KT CAVOK PROB40 TEMPO 2516/2602 VRB15G35KT 4000 -TSRA BKN090CB BECMG 2602/2605 22010KT PROB40 TEMPO 2516/2518 2500 -TSRAGR BKN060CB</description>
<pubDate>2026-06-25 17:05:33 UTC</pubDate>
</item>

</channel>
</rss>
