<?xml version="1.0" encoding="UTF-8"?>
<rss version="2.0">
<channel>
<title>METAR LFOT</title>
<lastBuildDate>2026-07-15 05:05:35 UTC</lastBuildDate>

<item>
<title>LFOT METAR/TAF</title>
<description>🟢 METAR LFOT 150500Z AUTO 06006KT CAVOK 24/15 Q1016 NOSIG

🟡 TAF LFOT 142300Z 1500/1524 03004KT CAVOK TEMPO 1509/1518 FEW100TCU PROB40 TEMPO 1513/1519 VRB10G25KT -SHRA SCT090CB BKN100TCU PROB30 TEMPO 1515/1518 VRB15G30KT 4500 -TSRA</description>
<pubDate>2026-07-15 05:05:35 UTC</pubDate>
</item>

</channel>
</rss>
