<?xml version="1.0" encoding="UTF-8"?>
<rss version="2.0">
<channel>
<title>METAR LFOT</title>
<lastBuildDate>2026-07-13 23:25:01 UTC</lastBuildDate>

<item>
<title>LFOT METAR/TAF</title>
<description>🟢 METAR LFOT 132300Z AUTO 24004KT CAVOK 28/17 Q1014 NOSIG

🟡 TAF LFOT 132300Z 1400/1424 24005KT CAVOK</description>
<pubDate>2026-07-13 23:25:01 UTC</pubDate>
</item>

</channel>
</rss>
