<?xml version="1.0" encoding="UTF-8"?>
<rss version="2.0">
<channel>
<title>METAR LFOT</title>
<lastBuildDate>2026-05-23 05:04:09 UTC</lastBuildDate>

<item>
<title>LFOT METAR/TAF</title>
<description>🟢 METAR LFOT 230430Z AUTO 06003KT CAVOK 15/12 Q1025 NOSIG

🟡 TAF LFOT 222300Z 2300/2324 06006KT CAVOK</description>
<pubDate>2026-05-23 05:04:09 UTC</pubDate>
</item>

</channel>
</rss>
