<?xml version="1.0" encoding="UTF-8"?>
<rss version="2.0">
<channel>
<title>METAR LFOT</title>
<lastBuildDate>2026-04-23 14:42:10 UTC</lastBuildDate>

<item>
<title>LFOT METAR/TAF</title>
<description>🟢 METAR LFOT 231430Z AUTO 09013KT CAVOK 22/04 Q1021 NOSIG

🟡 TAF LFOT 231100Z 2312/2412 08012KT CAVOK</description>
<pubDate>2026-04-23 14:42:10 UTC</pubDate>
</item>

</channel>
</rss>
