<?xml version="1.0" encoding="UTF-8"?>
<rss version="2.0">
<channel>
<title>METAR LFOT</title>
<lastBuildDate>2026-05-13 04:05:23 UTC</lastBuildDate>

<item>
<title>LFOT METAR/TAF</title>
<description>🟢 METAR LFOT 130400Z AUTO 26005KT 9999 BKN048 09/08 Q1013 NOSIG

🟡 TAF LFOT 122300Z 1300/1324 28005KT CAVOK TEMPO 1315/1320 27015G30KT 4000 SHRA BKN020TCU</description>
<pubDate>2026-05-13 04:05:23 UTC</pubDate>
</item>

</channel>
</rss>
