<?xml version="1.0" encoding="UTF-8"?>
<rss version="2.0">
<channel>
<title>METAR LFOT</title>
<lastBuildDate>2026-06-09 19:29:56 UTC</lastBuildDate>

<item>
<title>LFOT METAR/TAF</title>
<description>🟢 METAR LFOT 091900Z AUTO 31007KT 280V350 9999 FEW046 SCT092 17/10 Q1019 TEMPO 4000 -SHRA SCT045TCU

🟡 TAF LFOT 091700Z 0918/1018 28008KT 9999 BKN040 PROB30 TEMPO 0918/0920 4000 -SHRA SCT045TCU</description>
<pubDate>2026-06-09 19:29:56 UTC</pubDate>
</item>

</channel>
</rss>
