<?xml version="1.0" encoding="UTF-8"?>
<rss version="2.0">
<channel>
<title>METAR LFOT</title>
<lastBuildDate>2026-05-17 07:45:52 UTC</lastBuildDate>

<item>
<title>LFOT METAR/TAF</title>
<description>🟢 METAR LFOT 170730Z AUTO 21006KT 180V240 9999 4300 OVC006 12/11 Q1014 TEMPO 4000 -SHRA SCT025CB

🟡 TAF LFOT 170500Z 1706/1806 22006KT 9999 BKN012 PROB40 TEMPO 1706/1708 4000 -RA BKN007 BECMG 1709/1710 BKN020 PROB40 TEMPO 1709/1802 4000 -SHRA SCT025CB PROB30 TEMPO 1712/1715 20015G25KT 2500 -TSRA BKN020CB</description>
<pubDate>2026-05-17 07:45:52 UTC</pubDate>
</item>

</channel>
</rss>
