<?xml version="1.0" encoding="UTF-8"?>
<rss version="2.0">
<channel>
<title>METAR LFOT</title>
<lastBuildDate>2026-07-10 21:29:58 UTC</lastBuildDate>

<item>
<title>LFOT METAR/TAF</title>
<description>🟢 METAR LFOT 102100Z AUTO 05008KT 010V080 CAVOK 31/10 Q1011 NOSIG

🟡 TAF LFOT 101700Z 1018/1118 04008KT CAVOK PROB30 TEMPO 1023/1101 VRB15G30KT 3000 -TSRA FEW100CB BECMG 1100/1102 VRB03KT PROB40 TEMPO 1105/1111 BKN100TCU PROB30 TEMPO 1106/1110 3000 -TSRA SCT100CB BECMG 1110/1112 08005KT</description>
<pubDate>2026-07-10 21:29:58 UTC</pubDate>
</item>

</channel>
</rss>
