<?xml version="1.0" encoding="UTF-8"?>
<rss version="2.0">
<channel>
<title>METAR LFOT</title>
<lastBuildDate>2026-05-05 08:35:21 UTC</lastBuildDate>

<item>
<title>LFOT METAR/TAF</title>
<description>🟢 METAR LFOT 050830Z AUTO 32007KT 9999 RA FEW006/// OVC068/// ///CB 12/12 Q1008 TEMPO 2000 RA BKN009 SCT012CB BECMG 25012KT

🟡 TAF AMD LFOT 050630Z 0506/0606 25012KT 8000 BKN030 PROB40 TEMPO 0506/0510 4000 -RA OVC004 PROB30 TEMPO 0506/0511 2000 RA BKN009 SCT012CB TEMPO 0511/0521 4500 -SHRA BKN015TCU PROB30 TEMPO 0514/0518 25015G30KT 2000 -TSRA BKN015CB BECMG 0600/0603 -RA OVC006</description>
<pubDate>2026-05-05 08:35:21 UTC</pubDate>
</item>

</channel>
</rss>
