<?xml version="1.0" encoding="UTF-8"?>
<rss version="2.0">
<channel>
<title>METAR LFOT</title>
<lastBuildDate>2026-04-24 08:40:24 UTC</lastBuildDate>

<item>
<title>LFOT METAR/TAF</title>
<description>🟢 METAR LFOT 240830Z AUTO 07006KT 030V090 CAVOK 15/06 Q1020 NOSIG

🟡 TAF LFOT 240500Z 2406/2506 06008KT CAVOK</description>
<pubDate>2026-04-24 08:40:24 UTC</pubDate>
</item>

</channel>
</rss>
