<?xml version="1.0" encoding="UTF-8"?>
<rss version="2.0">
<channel>
<title>METAR LFOT</title>
<lastBuildDate>2026-06-22 15:35:27 UTC</lastBuildDate>

<item>
<title>LFOT METAR/TAF</title>
<description>🟢 METAR LFOT 221530Z AUTO 08005KT 020V160 CAVOK 40/15 Q1019 NOSIG

🟡 TAF LFOT 221100Z 2212/2312 08009KT CAVOK</description>
<pubDate>2026-06-22 15:35:27 UTC</pubDate>
</item>

</channel>
</rss>
