<?xml version="1.0" encoding="UTF-8"?>
<rss version="2.0">
<channel>
<title>METAR LFOT</title>
<lastBuildDate>2026-06-25 13:34:42 UTC</lastBuildDate>

<item>
<title>LFOT METAR/TAF</title>
<description>🟢 METAR LFOT 251330Z AUTO 11010KT 070V150 CAVOK 39/14 Q1012 TEMPO VRB15G35KT 4000 -TSRA BKN090CB

🟡 TAF LFOT 251100Z 2512/2612 10010KT CAVOK PROB40 TEMPO 2514/2602 VRB15G35KT 4000 -TSRA BKN090CB BECMG 2602/2605 22010KT</description>
<pubDate>2026-06-25 13:34:42 UTC</pubDate>
</item>

</channel>
</rss>
