<?xml version="1.0" encoding="UTF-8"?>
<rss version="2.0">
<channel>
<title>METAR LFOT</title>
<lastBuildDate>2026-07-20 01:04:28 UTC</lastBuildDate>

<item>
<title>LFOT METAR/TAF</title>
<description>🟢 METAR LFOT 200100Z AUTO 04007KT 360V080 CAVOK 17/08 Q1022 NOSIG

🟡 TAF LFOT 192300Z 2000/2024 04010KT CAVOK PROB40 TEMPO 2010/2018 04010G20KT</description>
<pubDate>2026-07-20 01:04:28 UTC</pubDate>
</item>

</channel>
</rss>
