<?xml version="1.0" encoding="UTF-8"?>
<rss version="2.0">
<channel>
<title>METAR LFOT</title>
<lastBuildDate>2026-05-07 18:35:29 UTC</lastBuildDate>

<item>
<title>LFOT METAR/TAF</title>
<description>🟢 METAR LFOT 071830Z AUTO 06005KT CAVOK 15/10 Q1013 NOSIG

🟡 TAF LFOT 071700Z 0718/0818 06006KT CAVOK PROB30 TEMPO 0801/0805 -SHRA SCT050TCU</description>
<pubDate>2026-05-07 18:35:29 UTC</pubDate>
</item>

</channel>
</rss>
