<?xml version="1.0" encoding="UTF-8"?>
<rss version="2.0">
<channel>
<title>METAR LFOT</title>
<lastBuildDate>2026-06-09 07:35:26 UTC</lastBuildDate>

<item>
<title>LFOT METAR/TAF</title>
<description>🟢 METAR LFOT 090730Z AUTO 28006KT 230V320 CAVOK 14/07 Q1022 NOSIG

🟡 TAF LFOT 090500Z 0906/1006 26008KT CAVOK PROB40 TEMPO 0915/0919 4000 -SHRA SCT045TCU</description>
<pubDate>2026-06-09 07:35:26 UTC</pubDate>
</item>

</channel>
</rss>
