<?xml version="1.0" encoding="UTF-8"?>
<rss version="2.0">
<channel>
<title>METAR LFOT</title>
<lastBuildDate>2026-05-23 09:24:20 UTC</lastBuildDate>

<item>
<title>LFOT METAR/TAF</title>
<description>🟢 METAR LFOT 230900Z AUTO 06004KT 030V090 CAVOK 26/16 Q1027 NOSIG

🟡 TAF LFOT 230500Z 2306/2406 07004KT CAVOK</description>
<pubDate>2026-05-23 09:24:20 UTC</pubDate>
</item>

</channel>
</rss>
