<?xml version="1.0" encoding="UTF-8"?>
<rss version="2.0">
<channel>
<title>METAR LFOT</title>
<lastBuildDate>2026-05-09 11:05:22 UTC</lastBuildDate>

<item>
<title>LFOT METAR/TAF</title>
<description>🟢 METAR LFOT 091100Z AUTO 09005KT 040V140 CAVOK 21/13 Q1012 NOSIG

🟡 TAF LFOT 090500Z 0906/1006 06008KT CAVOK PROB40 TEMPO 0922/1006 4000 SHRA BKN060TCU PROB30 TEMPO 1001/1004 2500 -TSRA SCT050CB</description>
<pubDate>2026-05-09 11:05:22 UTC</pubDate>
</item>

</channel>
</rss>
