<?xml version="1.0" encoding="UTF-8"?>
<rss version="2.0">
<channel>
<title>METAR LFOT</title>
<lastBuildDate>2026-06-15 18:12:49 UTC</lastBuildDate>

<item>
<title>LFOT METAR/TAF</title>
<description>🟢 METAR LFOT 151800Z AUTO 09007KT 060V120 CAVOK 30/08 Q1013 TEMPO SCT070TCU

🟡 TAF LFOT 151700Z 1518/1618 VRB03KT CAVOK PROB30 TEMPO 1518/1520 SCT070TCU BECMG 1604/1606 22007KT</description>
<pubDate>2026-06-15 18:12:49 UTC</pubDate>
</item>

</channel>
</rss>
