<?xml version="1.0" encoding="UTF-8"?>
<rss version="2.0">
<channel>
<title>METAR LFOT</title>
<lastBuildDate>2026-06-14 23:40:21 UTC</lastBuildDate>

<item>
<title>LFOT METAR/TAF</title>
<description>🟢 METAR LFOT 142330Z AUTO 06002KT CAVOK 18/11 Q1017 NOSIG

🟡 TAF LFOT 142300Z 1500/1524 07005KT CAVOK BECMG 1511/1514 22005KT</description>
<pubDate>2026-06-14 23:40:21 UTC</pubDate>
</item>

</channel>
</rss>
