<?xml version="1.0" encoding="UTF-8"?>
<rss version="2.0">
<channel>
<title>METAR LFOT</title>
<lastBuildDate>2026-05-24 11:38:16 UTC</lastBuildDate>

<item>
<title>LFOT METAR/TAF</title>
<description>🟢 METAR LFOT 241130Z AUTO 05009KT 360V080 CAVOK 29/18 Q1028 NOSIG

🟡 TAF LFOT 240500Z 2406/2506 06008KT CAVOK</description>
<pubDate>2026-05-24 11:38:16 UTC</pubDate>
</item>

</channel>
</rss>
