<?xml version="1.0" encoding="UTF-8"?>
<rss version="2.0">
<channel>
<title>METAR LFOT</title>
<lastBuildDate>2026-07-22 20:18:06 UTC</lastBuildDate>

<item>
<title>LFOT METAR/TAF</title>
<description>🟢 METAR LFOT 222000Z AUTO 05006KT 360V070 CAVOK 23/10 Q1021 NOSIG

🟡 TAF LFOT 221700Z 2218/2318 04010KT CAVOK</description>
<pubDate>2026-07-22 20:18:06 UTC</pubDate>
</item>

</channel>
</rss>
