<?xml version="1.0" encoding="UTF-8"?>
<rss version="2.0">
<channel>
<title>METAR LFOT</title>
<lastBuildDate>2026-06-07 01:51:30 UTC</lastBuildDate>

<item>
<title>LFOT METAR/TAF</title>
<description>🟢 METAR LFOT 070130Z AUTO 25005KT 9999 FEW034 11/08 Q1023 NOSIG

🟡 TAF LFOT 062300Z 0700/0724 24006KT CAVOK</description>
<pubDate>2026-06-07 01:51:30 UTC</pubDate>
</item>

</channel>
</rss>
