<?xml version="1.0" encoding="UTF-8"?>
<rss version="2.0">
<channel>
<title>METAR LFOT</title>
<lastBuildDate>2026-06-26 01:53:04 UTC</lastBuildDate>

<item>
<title>LFOT METAR/TAF</title>
<description>🟢 METAR LFOT 260130Z AUTO 30003KT 270V340 CAVOK 25/18 Q1013 NOSIG

🟡 TAF LFOT 252300Z 2600/2624 VRB04KT CAVOK PROB30 TEMPO 2618/2622 4000 -TSRA FEW090CB</description>
<pubDate>2026-06-26 01:53:04 UTC</pubDate>
</item>

</channel>
</rss>
