<?xml version="1.0" encoding="UTF-8"?>
<rss version="2.0">
<channel>
<title>METAR LFOT</title>
<lastBuildDate>2026-05-14 07:05:22 UTC</lastBuildDate>

<item>
<title>LFOT METAR/TAF</title>
<description>🟢 METAR LFOT 140030Z AUTO 25006KT CAVOK 07/07 Q1007 NOSIG

🟡 TAF LFOT 132300Z 1400/1424 27008KT 9999 SCT040 PROB40 TEMPO 1410/1416 4000 SHRA BKN020CB PROB30 TEMPO 1413/1417 2000 TSRA BKN020CB</description>
<pubDate>2026-05-14 07:05:22 UTC</pubDate>
</item>

</channel>
</rss>
