<?xml version="1.0" encoding="UTF-8"?>
<rss version="2.0">
<channel>
<title>METAR LFOT</title>
<lastBuildDate>2026-06-06 23:31:12 UTC</lastBuildDate>

<item>
<title>LFOT METAR/TAF</title>
<description>🟢 METAR LFOT 062300Z AUTO 22005KT CAVOK 12/08 Q1022 NOSIG

🟡 TAF LFOT 062300Z 0700/0724 24006KT CAVOK</description>
<pubDate>2026-06-06 23:31:12 UTC</pubDate>
</item>

</channel>
</rss>
