<?xml version="1.0" encoding="UTF-8"?>
<rss version="2.0">
<channel>
<title>METAR LFOT</title>
<lastBuildDate>2026-06-23 09:05:34 UTC</lastBuildDate>

<item>
<title>LFOT METAR/TAF</title>
<description>🟢 METAR LFOT 230900Z AUTO 13006KT 100V160 CAVOK 34/19 Q1018 NOSIG

🟡 TAF LFOT 230500Z 2306/2406 07005KT CAVOK</description>
<pubDate>2026-06-23 09:05:34 UTC</pubDate>
</item>

</channel>
</rss>
