<?xml version="1.0" encoding="UTF-8"?>
<rss version="2.0">
<channel>
<title>METAR LFOT</title>
<lastBuildDate>2026-04-29 17:10:55 UTC</lastBuildDate>

<item>
<title>LFOT METAR/TAF</title>
<description>🟢 METAR LFOT 291700Z AUTO 08012KT CAVOK 23/12 Q1011 NOSIG

🟡 TAF LFOT 291100Z 2912/3012 09014G25KT CAVOK BECMG 3008/3010 10008KT</description>
<pubDate>2026-04-29 17:10:55 UTC</pubDate>
</item>

</channel>
</rss>
