<?xml version="1.0" encoding="UTF-8"?>
<rss version="2.0">
<channel>
<title>METAR LFOT</title>
<lastBuildDate>2026-05-11 08:35:23 UTC</lastBuildDate>

<item>
<title>LFOT METAR/TAF</title>
<description>🟢 METAR LFOT 110830Z AUTO 36007KT 320V040 9999 -RA BKN010 OVC015 11/10 Q1009 NOSIG

🟡 TAF LFOT 110500Z 1106/1206 23005KT 6000 -RA BKN006 TEMPO 1106/1109 4000 -RADZ BKN003 BECMG 1107/1110 01007KT 9999 NSW BKN012 BECMG 1111/1114 SCT030</description>
<pubDate>2026-05-11 08:35:23 UTC</pubDate>
</item>

</channel>
</rss>
