<?xml version="1.0" encoding="UTF-8"?>
<rss version="2.0">
<channel>
<title>METAR LFOT</title>
<lastBuildDate>2026-07-14 17:05:36 UTC</lastBuildDate>

<item>
<title>LFOT METAR/TAF</title>
<description>🟢 METAR LFOT 141700Z AUTO 33004KT 270V050 CAVOK 35/13 Q1015 NOSIG

🟡 TAF LFOT 141100Z 1412/1512 25008KT CAVOK PROB30 TEMPO 1508/1511 VRB10G20KT FEW140TCU</description>
<pubDate>2026-07-14 17:05:36 UTC</pubDate>
</item>

</channel>
</rss>
