<?xml version="1.0" encoding="UTF-8"?>
<rss version="2.0">
<channel>
<title>METAR LFOT</title>
<lastBuildDate>2026-07-22 21:31:22 UTC</lastBuildDate>

<item>
<title>LFOT METAR/TAF</title>
<description>🟢 METAR LFOT 222100Z AUTO 04004KT 010V070 CAVOK 22/10 Q1021 NOSIG

🟡 TAF LFOT 221700Z 2218/2318 04010KT CAVOK</description>
<pubDate>2026-07-22 21:31:22 UTC</pubDate>
</item>

</channel>
</rss>
