<?xml version="1.0" encoding="UTF-8"?>
<rss version="2.0">
<channel>
<title>METAR LFOT</title>
<lastBuildDate>2026-06-16 08:05:44 UTC</lastBuildDate>

<item>
<title>LFOT METAR/TAF</title>
<description>🟢 METAR LFOT 160800Z AUTO 24007KT 210V280 9999 BKN012 BKN180 20/16 Q1016 BECMG NSC

🟡 TAF LFOT 160500Z 1606/1706 27005KT CAVOK</description>
<pubDate>2026-06-16 08:05:44 UTC</pubDate>
</item>

</channel>
</rss>
