<?xml version="1.0" encoding="UTF-8"?>
<rss version="2.0">
<channel>
<title>METAR LFOT</title>
<lastBuildDate>2026-07-08 17:35:36 UTC</lastBuildDate>

<item>
<title>LFOT METAR/TAF</title>
<description>🟢 METAR LFOT 081730Z AUTO 33006KT 290V030 CAVOK 35/07 Q1017 NOSIG

🟡 TAF LFOT 081700Z 0818/0918 36006KT CAVOK BECMG 0900/0902 05008KT</description>
<pubDate>2026-07-08 17:35:36 UTC</pubDate>
</item>

</channel>
</rss>
