<?xml version="1.0" encoding="UTF-8"?>
<rss version="2.0">
<channel>
<title>METAR LFOT</title>
<lastBuildDate>2026-05-16 07:35:19 UTC</lastBuildDate>

<item>
<title>LFOT METAR/TAF</title>
<description>🟢 METAR LFOT 160730Z AUTO 29006KT CAVOK 10/07 Q1012 NOSIG

🟡 TAF LFOT 160500Z 1606/1706 29003KT CAVOK PROB40 TEMPO 1702/1706 4000 SHRA BKN025CB PROB30 TEMPO 1704/1706 BKN008</description>
<pubDate>2026-05-16 07:35:19 UTC</pubDate>
</item>

</channel>
</rss>
