<?xml version="1.0" encoding="UTF-8"?>
<rss version="2.0">
<channel>
<title>METAR LFOT</title>
<lastBuildDate>2026-07-24 09:28:02 UTC</lastBuildDate>

<item>
<title>LFOT METAR/TAF</title>
<description>🟢 METAR LFOT 240900Z AUTO 07013KT 040V100 CAVOK 24/11 Q1017 NOSIG

🟡 TAF LFOT 240500Z 2406/2506 06008KT CAVOK PROB30 TEMPO 2505/2506 FEW150TCU</description>
<pubDate>2026-07-24 09:28:02 UTC</pubDate>
</item>

</channel>
</rss>
