<?xml version="1.0" encoding="UTF-8"?>
<rss version="2.0">
<channel>
<title>METAR LFOT</title>
<lastBuildDate>2026-06-24 18:35:37 UTC</lastBuildDate>

<item>
<title>LFOT METAR/TAF</title>
<description>🟢 METAR LFOT 241830Z AUTO 35004KT 320V030 9999 ///TCU 39/15 Q1013 TEMPO 4000 -TSRA FEW090CB

🟡 TAF LFOT 241700Z 2418/2518 VRB04KT CAVOK PROB40 TEMPO 2418/2503 VRB10G25KT 4000 -TSRA FEW090CB BECMG 2422/2424 08005KT PROB30 TEMPO 2513/2518 VRB15G30KT 4000 -TSRA FEW090CB</description>
<pubDate>2026-06-24 18:35:37 UTC</pubDate>
</item>

</channel>
</rss>
