<?xml version="1.0" encoding="UTF-8"?>
<rss version="2.0">
<channel>
<title>METAR LFOT</title>
<lastBuildDate>2026-05-29 14:05:34 UTC</lastBuildDate>

<item>
<title>LFOT METAR/TAF</title>
<description>🟢 METAR LFOT 291400Z AUTO 07005KT 360V090 CAVOK 32/14 Q1022 NOSIG

🟡 TAF LFOT 291100Z 2912/3012 10005KT CAVOK</description>
<pubDate>2026-05-29 14:05:34 UTC</pubDate>
</item>

</channel>
</rss>
