<?xml version="1.0" encoding="UTF-8"?>
<rss version="2.0">
<channel>
<title>METAR LFOT</title>
<lastBuildDate>2026-06-02 08:05:30 UTC</lastBuildDate>

<item>
<title>LFOT METAR/TAF</title>
<description>🟢 METAR LFOT 020800Z AUTO 21010KT 180V240 9999 BKN008 BKN015 BKN037 16/15 Q1010 BECMG BKN012

🟡 TAF AMD LFOT 020725Z 0207/0306 22009KT 8000 BKN012 TEMPO 0207/0208 22015G25KT TSRA BKN014CB PROB40 TEMPO 0210/0221 26015G30KT 4000 -TSRAGS SCT030CB</description>
<pubDate>2026-06-02 08:05:30 UTC</pubDate>
</item>

</channel>
</rss>
