<?xml version="1.0" encoding="UTF-8"?>
<rss version="2.0">
<channel>
<title>METAR LFOT</title>
<lastBuildDate>2026-06-27 15:35:58 UTC</lastBuildDate>

<item>
<title>LFOT METAR/TAF</title>
<description>🟢 METAR LFOT 271530Z AUTO 21006KT 150V270 CAVOK 34/18 Q1015 TEMPO VRB15G40KT 2000 TSGRRA BKN070CB

🟡 TAF LFOT 271100Z 2712/2812 32008KT CAVOK PROB40 TEMPO 2714/2717 VRB15G40KT 2000 TSGRRA BKN070CB BECMG 2717/2719 VRB03KT BECMG 2801/2803 28005KT PROB30 TEMPO 2807/2812 4000 -TSRA SCT100CB</description>
<pubDate>2026-06-27 15:35:58 UTC</pubDate>
</item>

</channel>
</rss>
