<?xml version="1.0" encoding="UTF-8"?>
<rss version="2.0">
<channel>
<title>METAR LFOT</title>
<lastBuildDate>2026-07-09 14:10:25 UTC</lastBuildDate>

<item>
<title>LFOT METAR/TAF</title>
<description>🟢 METAR LFOT 091400Z AUTO 06008KT 010V100 CAVOK 34/12 Q1014 NOSIG

🟡 TAF LFOT 091100Z 0912/1012 07010KT CAVOK</description>
<pubDate>2026-07-09 14:10:25 UTC</pubDate>
</item>

</channel>
</rss>
