<?xml version="1.0" encoding="UTF-8"?>
<rss version="2.0">
<channel>
<title>METAR LFOT</title>
<lastBuildDate>2026-06-29 06:35:34 UTC</lastBuildDate>

<item>
<title>LFOT METAR/TAF</title>
<description>🟢 METAR LFOT 290630Z AUTO 02005KT 340V070 9999 // OVC032 18/12 Q1027

🟡 TAF LFOT 290500Z 2906/3006 36006KT CAVOK</description>
<pubDate>2026-06-29 06:35:34 UTC</pubDate>
</item>

</channel>
</rss>
