<?xml version="1.0" encoding="UTF-8"?>
<rss version="2.0">
<channel>
<title>METAR LFOT</title>
<lastBuildDate>2026-05-06 10:35:21 UTC</lastBuildDate>

<item>
<title>LFOT METAR/TAF</title>
<description>🟢 METAR LFOT 061030Z AUTO 36006KT 310V040 9999 BKN013 OVC050 12/10 Q1011 BECMG SCT030

🟡 TAF AMD LFOT 061003Z 0610/0706 02007KT 9999 BKN012 BKN018 OVC050 BECMG 0611/0613 SCT030 PROB30 TEMPO 0617/0620 BKN030TCU PROB30 0702/0706 3000 BR</description>
<pubDate>2026-05-06 10:35:21 UTC</pubDate>
</item>

</channel>
</rss>
