<?xml version="1.0" encoding="UTF-8"?>
<rss version="2.0">
<channel>
<title>METAR LFOT</title>
<lastBuildDate>2026-07-21 06:17:27 UTC</lastBuildDate>

<item>
<title>LFOT METAR/TAF</title>
<description>🟢 METAR LFOT 210600Z AUTO 05010KT 010V070 CAVOK 16/09 Q1024 NOSIG

🟡 TAF LFOT 210500Z 2106/2206 04012KT CAVOK</description>
<pubDate>2026-07-21 06:17:27 UTC</pubDate>
</item>

</channel>
</rss>
