<?xml version="1.0" encoding="UTF-8"?>
<rss version="2.0">
<channel>
<title>METAR LFOT</title>
<lastBuildDate>2026-07-17 12:35:34 UTC</lastBuildDate>

<item>
<title>LFOT METAR/TAF</title>
<description>🟢 METAR LFOT 171230Z AUTO 27006KT 220V320 CAVOK 29/14 Q1015 NOSIG

🟡 TAF LFOT 171100Z 1712/1812 29006KT CAVOK PROB40 TEMPO 1717/1720 4000 -SHRA SCT050 FEW080CB PROB30 TEMPO 1717/1719 31012G25KT -TSRA BKN050 SCT080CB</description>
<pubDate>2026-07-17 12:35:34 UTC</pubDate>
</item>

</channel>
</rss>
