<?xml version="1.0" encoding="UTF-8"?>
<rss version="2.0">
<channel>
<title>METAR LFOT</title>
<lastBuildDate>2026-05-06 09:12:58 UTC</lastBuildDate>

<item>
<title>LFOT METAR/TAF</title>
<description>🟢 METAR LFOT 060900Z AUTO 01005KT 300V050 3600 -RA BR BKN006 BKN025 OVC030 11/10 Q1010 TEMPO BKN011 BECMG 6000 NSW

🟡 TAF LFOT 060500Z 0606/0706 01006KT 6000 OVC005 TEMPO 0606/0610 4000 -RA BKN011 BECMG 0611/0613 SCT030 PROB30 TEMPO 0617/0620 BKN030TCU PROB30 0702/0706 3000 BR</description>
<pubDate>2026-05-06 09:12:58 UTC</pubDate>
</item>

</channel>
</rss>
