<?xml version="1.0" encoding="UTF-8"?>
<rss version="2.0">
<channel>
<title>METAR LFOT</title>
<lastBuildDate>2026-05-02 18:35:20 UTC</lastBuildDate>

<item>
<title>LFOT METAR/TAF</title>
<description>🟢 METAR LFOT 021830Z AUTO 15003KT 120V200 9999 FEW046 SCT130 BKN160 16/14 Q1013 TEMPO SHRA FEW060TCU

🟡 TAF LFOT 021700Z 0218/0318 18008KT 9999 FEW030 BKN070 PROB30 TEMPO 0218/0220 SHRA FEW060TCU TEMPO 0221/0306 4000 RA BKN015 PROB40 TEMPO 0301/0309 BKN006 TEMPO 0309/0318 SHRA BKN015 SCT025CB PROB40 TEMPO 0312/0317 25012G23KT 3000 TSRA</description>
<pubDate>2026-05-02 18:35:20 UTC</pubDate>
</item>

</channel>
</rss>
