<?xml version="1.0" encoding="UTF-8"?>
<rss version="2.0">
<channel>
<title>METAR LFOT</title>
<lastBuildDate>2026-05-26 01:27:35 UTC</lastBuildDate>

<item>
<title>LFOT METAR/TAF</title>
<description>🟢 METAR LFOT 260100Z AUTO 07005KT CAVOK 19/16 Q1027 NOSIG

🟡 TAF LFOT 252300Z 2600/2624 08005KT CAVOK</description>
<pubDate>2026-05-26 01:27:35 UTC</pubDate>
</item>

</channel>
</rss>
