<?xml version="1.0" encoding="UTF-8"?>
<rss version="2.0">
<channel>
<title>METAR LFOT</title>
<lastBuildDate>2026-07-03 11:06:47 UTC</lastBuildDate>

<item>
<title>LFOT METAR/TAF</title>
<description>🟢 METAR LFOT 031100Z AUTO 04007KT 330V090 9999 FEW046 26/13 Q1028 NOSIG

🟡 TAF LFOT 030500Z 0306/0406 01005KT CAVOK</description>
<pubDate>2026-07-03 11:06:47 UTC</pubDate>
</item>

</channel>
</rss>
