<?xml version="1.0" encoding="UTF-8"?>
<rss version="2.0">
<channel>
<title>METAR LFOT</title>
<lastBuildDate>2026-04-25 18:05:21 UTC</lastBuildDate>

<item>
<title>LFOT METAR/TAF</title>
<description>🟢 METAR LFOT 251800Z AUTO 01003KT 320V050 CAVOK 21/05 Q1018 NOSIG

🟡 TAF LFOT 251700Z 2518/2618 04006KT CAVOK</description>
<pubDate>2026-04-25 18:05:21 UTC</pubDate>
</item>

</channel>
</rss>
