<?xml version="1.0" encoding="UTF-8"?>
<rss version="2.0">
<channel>
<title>METAR LFOT</title>
<lastBuildDate>2026-05-19 11:05:25 UTC</lastBuildDate>

<item>
<title>LFOT METAR/TAF</title>
<description>🟢 METAR LFOT 191100Z AUTO 19010KT 150V220 9999 -RADZ BKN015/// BKN023/// OVC037/// ///TCU 14/12 Q1017 TEMPO 22015G25KT BKN014

🟡 TAF LFOT 190500Z 1906/2006 18008KT CAVOK TEMPO 1906/1920 -RA PROB40 TEMPO 1906/1915 BKN014 PROB30 TEMPO 1906/1911 4500 -RADZ BKN009 TEMPO 1912/1918 22015G25KT</description>
<pubDate>2026-05-19 11:05:25 UTC</pubDate>
</item>

</channel>
</rss>
