<?xml version="1.0" encoding="UTF-8"?>
<rss version="2.0">
<channel>
<title>METAR LFOT</title>
<lastBuildDate>2026-07-16 21:30:24 UTC</lastBuildDate>

<item>
<title>LFOT METAR/TAF</title>
<description>🟢 METAR LFOT 162030Z AUTO 31008KT CAVOK 25/16 Q1013 NOSIG

🟡 TAF LFOT 161700Z 1618/1718 VRB05KT CAVOK PROB40 TEMPO 1618/1621 VRB15G35KT 3000 -TSRA SCT080CB BECMG 1707/1709 28008KT</description>
<pubDate>2026-07-16 21:30:24 UTC</pubDate>
</item>

</channel>
</rss>
