<?xml version="1.0" encoding="UTF-8"?>
<rss version="2.0">
<channel>
<title>METAR LFOT</title>
<lastBuildDate>2026-07-01 17:35:36 UTC</lastBuildDate>

<item>
<title>LFOT METAR/TAF</title>
<description>🟢 METAR LFOT 011730Z AUTO 32007KT 290V040 9999 SCT049 24/12 Q1025 NOSIG

🟡 TAF LFOT 011100Z 0112/0212 31010KT CAVOK TEMPO 0114/0118 32012G22KT</description>
<pubDate>2026-07-01 17:35:36 UTC</pubDate>
</item>

</channel>
</rss>
