<?xml version="1.0" encoding="UTF-8"?>
<rss version="2.0">
<channel>
<title>METAR LFOT</title>
<lastBuildDate>2026-06-02 05:35:24 UTC</lastBuildDate>

<item>
<title>LFOT METAR/TAF</title>
<description>🟢 METAR LFOT 020530Z AUTO 21009KT 170V230 9999 FEW033 OVC110 16/14 Q1010 TEMPO 22015G25KT TSRA BKN014CB

🟡 TAF LFOT 012300Z 0200/0224 28005KT CAVOK TEMPO 0204/0208 22015G25KT TSRA BKN014CB PROB40 TEMPO 0210/0221 26015G30KT 4000 -TSRAGS SCT030CB</description>
<pubDate>2026-06-02 05:35:24 UTC</pubDate>
</item>

</channel>
</rss>
