<?xml version="1.0" encoding="UTF-8"?>
<rss version="2.0">
<channel>
<title>METAR LFOT</title>
<lastBuildDate>2026-06-08 06:05:26 UTC</lastBuildDate>

<item>
<title>LFOT METAR/TAF</title>
<description>🟢 METAR LFOT 080600Z AUTO 24005KT 220V280 CAVOK 16/12 Q1017 NOSIG

🟡 TAF LFOT 080500Z 0806/0906 VRB04KT CAVOK BECMG 0806/0809 27010KT PROB40 TEMPO 0817/0821 27010G20KT -SHRA BKN040TCU PROB30 TEMPO 0818/0820 30015G30KT 3500 SHRA BKN015 SCT035CB</description>
<pubDate>2026-06-08 06:05:26 UTC</pubDate>
</item>

</channel>
</rss>
