<?xml version="1.0" encoding="UTF-8"?>
<rss version="2.0">
<channel>
<title>METAR LFOT</title>
<lastBuildDate>2026-04-23 15:40:26 UTC</lastBuildDate>

<item>
<title>LFOT METAR/TAF</title>
<description>🟢 METAR LFOT 231530Z AUTO 07012KT 040V100 CAVOK 22/05 Q1020 NOSIG

🟡 TAF LFOT 231100Z 2312/2412 08012KT CAVOK</description>
<pubDate>2026-04-23 15:40:26 UTC</pubDate>
</item>

</channel>
</rss>
