<?xml version="1.0" encoding="UTF-8"?>
<rss version="2.0">
<channel>
<title>METAR LFOT</title>
<description>Briefing météo LFOT</description>

<item>
<title>METAR LFOT</title>
<description>LFOT<br><br>
🟢 METAR LFOT 171230Z AUTO 14004KT 090V200 CAVOK 21/09 Q1021 NOSIG<br><br>
🟡 TAF LFOT 171100Z 1712/1812 13004KT CAVOK
</description>
</item>

</channel>
</rss>
