<?xml version="1.0" encoding="UTF-8"?>
<rss version="2.0">
<channel>
<title>METAR LFOT</title>
<lastBuildDate>2026-06-01 00:05:06 UTC</lastBuildDate>

<item>
<title>LFOT METAR/TAF</title>
<description>🟢 METAR LFOT 312330Z AUTO 27004KT 250V310 9999 FEW038/// 17/14 Q1020 NOSIG

🟡 TAF LFOT 312300Z 0100/0124 27004KT 9999 FEW038</description>
<pubDate>2026-06-01 00:05:06 UTC</pubDate>
</item>

</channel>
</rss>
