<?xml version="1.0" encoding="UTF-8"?>
<rss version="2.0">
<channel>
<title>METAR LFOT</title>
<lastBuildDate>2026-06-13 19:44:12 UTC</lastBuildDate>

<item>
<title>LFOT METAR/TAF</title>
<description>🟢 METAR LFOT 131930Z AUTO VRB03KT CAVOK 25/14 Q1021 NOSIG

🟡 TAF LFOT 131700Z 1318/1418 34005KT CAVOK</description>
<pubDate>2026-06-13 19:44:12 UTC</pubDate>
</item>

</channel>
</rss>
