<?xml version="1.0" encoding="UTF-8"?>
<rss version="2.0">
<channel>
<title>METAR LFOT</title>
<lastBuildDate>2026-05-25 15:35:24 UTC</lastBuildDate>

<item>
<title>LFOT METAR/TAF</title>
<description>🟢 METAR LFOT 251530Z AUTO 07009KT CAVOK 32/18 Q1027 NOSIG

🟡 TAF LFOT 251100Z 2512/2612 07008KT CAVOK</description>
<pubDate>2026-05-25 15:35:24 UTC</pubDate>
</item>

</channel>
</rss>
