<?xml version="1.0" encoding="UTF-8"?>
<rss version="2.0">
<channel>
<title>METAR LFOT</title>
<lastBuildDate>2026-05-26 06:05:23 UTC</lastBuildDate>

<item>
<title>LFOT METAR/TAF</title>
<description>🟢 METAR LFOT 260530Z AUTO 07005KT CAVOK 20/16 Q1026 NOSIG

🟡 TAF LFOT 260500Z 2606/2706 07005KT CAVOK</description>
<pubDate>2026-05-26 06:05:23 UTC</pubDate>
</item>

</channel>
</rss>
