<?xml version="1.0" encoding="UTF-8"?>
<rss version="2.0">
<channel>
<title>METAR LFOT</title>
<lastBuildDate>2026-05-04 14:05:29 UTC</lastBuildDate>

<item>
<title>LFOT METAR/TAF</title>
<description>🟢 METAR LFOT 041400Z AUTO 30005KT 8000 +RA FEW006/// SCT048/// OVC058/// ///TCU 14/13 Q1011 TEMPO 4000 SHRA BKN008CB

🟡 TAF LFOT 041100Z 0412/0512 VRB03KT 9999 BKN020 TEMPO 0412/0419 4000 SHRA BKN012TCU PROB40 TEMPO 0412/0415 2500 TSRA BKN008CB TEMPO 0501/0509 4000 -RA BKN004 TEMPO 0509/0512 4000 RA BKN006</description>
<pubDate>2026-05-04 14:05:29 UTC</pubDate>
</item>

</channel>
</rss>
