<?xml version="1.0" encoding="UTF-8"?>
<rss version="2.0">
<channel>
<title>METAR LFOT</title>
<lastBuildDate>2026-07-09 07:10:37 UTC</lastBuildDate>

<item>
<title>LFOT METAR/TAF</title>
<description>🟢 METAR LFOT 090700Z AUTO 08007KT 050V110 CAVOK 27/16 Q1017 NOSIG

🟡 TAF LFOT 090500Z 0906/1006 06007KT CAVOK</description>
<pubDate>2026-07-09 07:10:37 UTC</pubDate>
</item>

</channel>
</rss>
