<?xml version="1.0" encoding="UTF-8"?>
<rss version="2.0">
<channel>
<title>METAR LFOT</title>
<lastBuildDate>2026-05-28 21:31:57 UTC</lastBuildDate>

<item>
<title>LFOT METAR/TAF</title>
<description>🟢 METAR LFOT 282100Z AUTO 07005KT CAVOK 23/17 Q1022 NOSIG

🟡 TAF LFOT 281700Z 2818/2918 VRB04KT CAVOK</description>
<pubDate>2026-05-28 21:31:57 UTC</pubDate>
</item>

</channel>
</rss>
