<?xml version="1.0" encoding="UTF-8"?>
<rss version="2.0">
<channel>
<title>METAR LFOT</title>
<lastBuildDate>2026-06-25 07:05:38 UTC</lastBuildDate>

<item>
<title>LFOT METAR/TAF</title>
<description>🟢 METAR LFOT 250700Z AUTO 09006KT CAVOK 30/16 Q1014 NOSIG

🟡 TAF LFOT 250500Z 2506/2606 08008KT CAVOK PROB30 TEMPO 2513/2518 VRB15G30KT 4000 -TSRA FEW090CB</description>
<pubDate>2026-06-25 07:05:38 UTC</pubDate>
</item>

</channel>
</rss>
