<?xml version="1.0" encoding="UTF-8"?>
<rss version="2.0">
<channel>
<title>METAR LFOT</title>
<lastBuildDate>2026-04-26 14:33:03 UTC</lastBuildDate>

<item>
<title>LFOT METAR/TAF</title>
<description>🟢 METAR LFOT 261400Z AUTO 06005KT 350V090 CAVOK 23/03 Q1021 NOSIG

🟡 TAF LFOT 261100Z 2612/2712 06003KT CAVOK</description>
<pubDate>2026-04-26 14:33:03 UTC</pubDate>
</item>

</channel>
</rss>
