<?xml version="1.0" encoding="UTF-8"?>
<rss version="2.0">
<channel>
<title>METAR LFOT</title>
<lastBuildDate>2026-06-24 19:13:55 UTC</lastBuildDate>

<item>
<title>LFOT METAR/TAF</title>
<description>🟢 METAR LFOT 241900Z AUTO 01007KT 320V040 9999 VCTS ///CB 38/16 Q1014 TEMPO 4000 -TSRA

🟡 TAF LFOT 241700Z 2418/2518 VRB04KT CAVOK PROB40 TEMPO 2418/2503 VRB10G25KT 4000 -TSRA FEW090CB BECMG 2422/2424 08005KT PROB30 TEMPO 2513/2518 VRB15G30KT 4000 -TSRA FEW090CB</description>
<pubDate>2026-06-24 19:13:55 UTC</pubDate>
</item>

</channel>
</rss>
