<?xml version="1.0" encoding="UTF-8"?>
<rss version="2.0">
<channel>
<title>METAR LFOT</title>
<lastBuildDate>2026-06-27 06:35:29 UTC</lastBuildDate>

<item>
<title>LFOT METAR/TAF</title>
<description>🟢 METAR LFOT 270630Z AUTO 05005KT 360V080 CAVOK 24/14 Q1016 NOSIG

🟡 TAF LFOT 270500Z 2706/2806 35010KT CAVOK BECMG 2708/2710 28008KT PROB40 TEMPO 2714/2717 28018G30KT 4000 -TSGSRA SCT090CB PROB30 TEMPO 2803/2806 26015G25KT 4000 -TSRA SCT090CB</description>
<pubDate>2026-06-27 06:35:29 UTC</pubDate>
</item>

</channel>
</rss>
