<?xml version="1.0" encoding="UTF-8"?>
<rss version="2.0">
<channel>
<title>METAR LFOT</title>
<lastBuildDate>2026-06-08 18:35:29 UTC</lastBuildDate>

<item>
<title>LFOT METAR/TAF</title>
<description>🟢 METAR LFOT 081830Z AUTO 28005KT 250V310 9999 BKN043 OVC050 19/12 Q1017 TEMPO 30015G25KT 4000 -SHRA BKN030TCU

🟡 TAF LFOT 081700Z 0818/0918 28012KT 9999 BKN045 TEMPO 0818/0822 30015G25KT 4000 -SHRA BKN030TCU BECMG 0902/0905 28006KT</description>
<pubDate>2026-06-08 18:35:29 UTC</pubDate>
</item>

</channel>
</rss>
