<?xml version="1.0" encoding="UTF-8"?>
<rss version="2.0">
<channel>
<title>METAR LFOT</title>
<lastBuildDate>2026-06-06 09:05:22 UTC</lastBuildDate>

<item>
<title>LFOT METAR/TAF</title>
<description>🟢 METAR LFOT 060900Z AUTO 22014KT 190V250 9999 BKN028 BKN036 BKN043 18/12 Q1013 TEMPO 4000 SHRA BKN025TCU

🟡 TAF LFOT 060500Z 0606/0706 19008KT CAVOK PROB40 TEMPO 0606/0609 -SHRA SCT070TCU PROB40 TEMPO 0609/0611 24014G25KT 4000 SHRA BKN025TCU BECMG 0611/0613 25010KT PROB40 TEMPO 0611/0616 24015G30KT BECMG 0703/0706 VRB03KT</description>
<pubDate>2026-06-06 09:05:22 UTC</pubDate>
</item>

</channel>
</rss>
