<?xml version="1.0" encoding="UTF-8"?>
<rss version="2.0">
<channel>
<title>METAR LFOT</title>
<lastBuildDate>2026-07-17 22:11:33 UTC</lastBuildDate>

<item>
<title>LFOT METAR/TAF</title>
<description>🟢 METAR LFOT 172200Z AUTO 32005KT 280V350 CAVOK 22/16 Q1017 NOSIG

🟡 TAF LFOT 171700Z 1718/1818 25008KT CAVOK PROB30 TEMPO 1718/1720 -TSRA FEW090CB SCT100TCU</description>
<pubDate>2026-07-17 22:11:33 UTC</pubDate>
</item>

</channel>
</rss>
