<?xml version="1.0" encoding="UTF-8"?>
<rss version="2.0">
<channel>
<title>METAR LFOT</title>
<lastBuildDate>2026-05-25 23:33:06 UTC</lastBuildDate>

<item>
<title>LFOT METAR/TAF</title>
<description>🟢 METAR LFOT 252300Z AUTO 07007KT CAVOK 22/18 Q1027 NOSIG

🟡 TAF LFOT 251700Z 2518/2618 06008KT CAVOK</description>
<pubDate>2026-05-25 23:33:06 UTC</pubDate>
</item>

</channel>
</rss>
