<?xml version="1.0" encoding="UTF-8"?>
<rss version="2.0">
<channel>
<title>METAR LFOT</title>
<lastBuildDate>2026-07-10 05:35:32 UTC</lastBuildDate>

<item>
<title>LFOT METAR/TAF</title>
<description>🟢 METAR LFOT 100530Z AUTO 05007KT 020V090 CAVOK 23/13 Q1013 NOSIG

🟡 TAF LFOT 092300Z 1000/1024 05010KT CAVOK BECMG 1022/1024 19008KT</description>
<pubDate>2026-07-10 05:35:32 UTC</pubDate>
</item>

</channel>
</rss>
