<?xml version="1.0" encoding="UTF-8"?>
<rss version="2.0">
<channel>
<title>METAR LFOT</title>
<lastBuildDate>2026-07-15 16:05:32 UTC</lastBuildDate>

<item>
<title>LFOT METAR/TAF</title>
<description>🟢 METAR LFOT 151600Z AUTO 05010KT 360V080 9999 ///CB 33/14 Q1014 TEMPO 04015G40KT 3000 -TSRAGR

🟡 TAF AMD LFOT 151453Z 1514/1612 04012KT CAVOK TEMPO 1515/1519 04015G30KT -TSRA SCT080CB PROB40 TEMPO 1516/1519 04015G40KT 3000 -TSRAGR BKN060CB BECMG 1519/1521 VRB04KT PROB40 1520/1606 4000 BR PROB30 TEMPO 1610/1612 VRB10G25KT -TSRA SCT100CB</description>
<pubDate>2026-07-15 16:05:32 UTC</pubDate>
</item>

</channel>
</rss>
