<?xml version="1.0" encoding="UTF-8"?>
<rss version="2.0">
<channel>
<title>METAR LFOT</title>
<lastBuildDate>2026-05-27 05:35:23 UTC</lastBuildDate>

<item>
<title>LFOT METAR/TAF</title>
<description>🟢 METAR LFOT 270530Z AUTO 07009KT CAVOK 20/15 Q1023 NOSIG

🟡 TAF LFOT 270500Z 2706/2806 07006KT CAVOK PROB30 TEMPO 2715/2718 VRB10G30KT 4000 -TSRA FEW080CB</description>
<pubDate>2026-05-27 05:35:23 UTC</pubDate>
</item>

</channel>
</rss>
