<?xml version="1.0" encoding="UTF-8"?>
<rss version="2.0">
<channel>
<title>METAR LFOT</title>
<lastBuildDate>2026-05-24 08:08:06 UTC</lastBuildDate>

<item>
<title>LFOT METAR/TAF</title>
<description>🟢 METAR LFOT 240730Z AUTO 07008KT CAVOK 22/17 Q1028 NOSIG

🟡 TAF LFOT 240500Z 2406/2506 06008KT CAVOK</description>
<pubDate>2026-05-24 08:08:06 UTC</pubDate>
</item>

</channel>
</rss>
