<?xml version="1.0" encoding="UTF-8"?>
<rss version="2.0">
<channel>
<title>METAR LFOT</title>
<lastBuildDate>2026-05-26 15:05:28 UTC</lastBuildDate>

<item>
<title>LFOT METAR/TAF</title>
<description>🟢 METAR LFOT 261430Z AUTO 08006KT 050V170 CAVOK 33/18 Q1024 NOSIG

🟡 TAF LFOT 261100Z 2612/2712 07005KT CAVOK</description>
<pubDate>2026-05-26 15:05:28 UTC</pubDate>
</item>

</channel>
</rss>
