<?xml version="1.0" encoding="UTF-8"?>
<rss version="2.0">
<channel>
<title>METAR LFOT</title>
<lastBuildDate>2026-05-29 05:35:20 UTC</lastBuildDate>

<item>
<title>LFOT METAR/TAF</title>
<description>🟢 METAR LFOT 290530Z AUTO 09005KT CAVOK 19/16 Q1022 NOSIG

🟡 TAF LFOT 282300Z 2900/2924 09005KT CAVOK</description>
<pubDate>2026-05-29 05:35:20 UTC</pubDate>
</item>

</channel>
</rss>
