<?xml version="1.0" encoding="UTF-8"?>
<rss version="2.0">
<channel>
<title>METAR LFOT</title>
<lastBuildDate>2026-06-15 10:35:36 UTC</lastBuildDate>

<item>
<title>LFOT METAR/TAF</title>
<description>🟢 METAR LFOT 151030Z AUTO 10005KT 360V160 CAVOK 28/12 Q1015 NOSIG

🟡 TAF LFOT 150500Z 1506/1606 07005KT CAVOK BECMG 1511/1514 22005KT</description>
<pubDate>2026-06-15 10:35:36 UTC</pubDate>
</item>

</channel>
</rss>
