<?xml version="1.0" encoding="UTF-8"?>
<rss version="2.0">
<channel>
<title>METAR LFOT</title>
<lastBuildDate>2026-04-23 11:10:23 UTC</lastBuildDate>

<item>
<title>LFOT METAR/TAF</title>
<description>🟢 METAR LFOT 231100Z AUTO 07012KT CAVOK 19/05 Q1022 NOSIG

🟡 TAF LFOT 230500Z 2306/2406 07011KT CAVOK</description>
<pubDate>2026-04-23 11:10:23 UTC</pubDate>
</item>

</channel>
</rss>
