<?xml version="1.0" encoding="UTF-8"?>
<rss version="2.0">
<channel>
<title>METAR LFOT</title>
<lastBuildDate>2026-04-30 05:05:21 UTC</lastBuildDate>

<item>
<title>LFOT METAR/TAF</title>
<description>🟢 METAR LFOT 300500Z AUTO 07009KT CAVOK 11/06 Q1015 NOSIG

🟡 TAF LFOT 291700Z 2918/3018 09012KT CAVOK BECMG 3011/3013 15010KT BECMG 3013/3015 21008KT</description>
<pubDate>2026-04-30 05:05:21 UTC</pubDate>
</item>

</channel>
</rss>
