<?xml version="1.0" encoding="UTF-8"?>
<rss version="2.0">
<channel>
<title>METAR LFOT</title>
<lastBuildDate>2026-06-01 20:42:06 UTC</lastBuildDate>

<item>
<title>LFOT METAR/TAF</title>
<description>🟢 METAR LFOT 012030Z AUTO 26005KT CAVOK 21/13 Q1013 NOSIG

🟡 TAF LFOT 011700Z 0118/0218 28006KT CAVOK BECMG 0204/0207 26010KT TEMPO 0206/0209 2000 TSRA SCT005 BKN020CB PROB30 TEMPO 0209/0214 4000 -TSRA FEW040CB PROB40 TEMPO 0214/0218 26015G30KT 3000 -TSRA SCT030CB</description>
<pubDate>2026-06-01 20:42:06 UTC</pubDate>
</item>

</channel>
</rss>
