<?xml version="1.0" encoding="UTF-8"?>
<rss version="2.0">
<channel>
<title>METAR LFOT</title>
<lastBuildDate>2026-07-02 17:10:09 UTC</lastBuildDate>

<item>
<title>LFOT METAR/TAF</title>
<description>🟢 METAR LFOT 021630Z AUTO 31011KT 280V340 CAVOK 26/15 Q1025 NOSIG

🟡 TAF LFOT 021100Z 0212/0312 31010KT CAVOK PROB40 TEMPO 0215/0219 33012G25KT BECMG 0303/0306 01005KT</description>
<pubDate>2026-07-02 17:10:09 UTC</pubDate>
</item>

</channel>
</rss>
