<?xml version="1.0" encoding="UTF-8"?>
<rss version="2.0">
<channel>
<title>METAR LFOT</title>
<lastBuildDate>2026-06-11 15:05:30 UTC</lastBuildDate>

<item>
<title>LFOT METAR/TAF</title>
<description>🟢 METAR LFOT 111500Z AUTO 27008KT 230V320 CAVOK 22/09 Q1025 NOSIG

🟡 TAF LFOT 111100Z 1112/1212 28010KT CAVOK PROB40 1205/1210 BKN009 PROB30 TEMPO 1205/1208 4000 BR BKN002</description>
<pubDate>2026-06-11 15:05:30 UTC</pubDate>
</item>

</channel>
</rss>
