<?xml version="1.0" encoding="UTF-8"?>
<rss version="2.0">
<channel>
<title>METAR LFOT</title>
<lastBuildDate>2026-05-12 05:05:21 UTC</lastBuildDate>

<item>
<title>LFOT METAR/TAF</title>
<description>🟢 METAR LFOT 120500Z AUTO VRB02KT 9999 FEW026 BKN066 08/07 Q1017 NOSIG

🟡 TAF LFOT 112300Z 1200/1224 33004KT CAVOK PROB30 TEMPO 1209/1212 -SHRA BKN025</description>
<pubDate>2026-05-12 05:05:21 UTC</pubDate>
</item>

</channel>
</rss>
