<?xml version="1.0" encoding="UTF-8"?>
<rss version="2.0">
<channel>
<title>METAR LFOT</title>
<lastBuildDate>2026-06-19 18:05:32 UTC</lastBuildDate>

<item>
<title>LFOT METAR/TAF</title>
<description>🟢 METAR LFOT 191800Z AUTO 25012KT 210V290 CAVOK 34/15 Q1013 TEMPO VRB15G30KT 4000 -TSRA SCT080CB

🟡 TAF LFOT 191700Z 1918/2018 21008KT CAVOK PROB30 TEMPO 2007/2010 SCT100TCU</description>
<pubDate>2026-06-19 18:05:32 UTC</pubDate>
</item>

</channel>
</rss>
