<?xml version="1.0" encoding="UTF-8"?>
<rss version="2.0">
<channel>
<title>METAR LFOT</title>
<lastBuildDate>2026-07-20 08:35:33 UTC</lastBuildDate>

<item>
<title>LFOT METAR/TAF</title>
<description>🟢 METAR LFOT 200830Z AUTO 05010KT 010V070 CAVOK 20/09 Q1023 NOSIG

🟡 TAF LFOT 200500Z 2006/2106 04010KT CAVOK TEMPO 2010/2018 04010G20KT</description>
<pubDate>2026-07-20 08:35:33 UTC</pubDate>
</item>

</channel>
</rss>
