<?xml version="1.0" encoding="UTF-8"?>
<rss version="2.0">
<channel>
<title>METAR LFOT</title>
<lastBuildDate>2026-07-05 14:02:23 UTC</lastBuildDate>

<item>
<title>LFOT METAR/TAF</title>
<description>🟢 METAR LFOT 051330Z AUTO 34005KT 270V050 CAVOK 31/12 Q1024 NOSIG

🟡 TAF LFOT 051100Z 0512/0612 33006KT CAVOK</description>
<pubDate>2026-07-05 14:02:23 UTC</pubDate>
</item>

</channel>
</rss>
