<?xml version="1.0" encoding="UTF-8"?>
<rss version="2.0">
<channel>
<title>METAR LFOT</title>
<lastBuildDate>2026-06-14 15:18:58 UTC</lastBuildDate>

<item>
<title>LFOT METAR/TAF</title>
<description>🟢 METAR LFOT 141500Z AUTO 34004KT 290V070 CAVOK 30/08 Q1017 NOSIG

🟡 TAF LFOT 141100Z 1412/1512 03005KT CAVOK</description>
<pubDate>2026-06-14 15:18:58 UTC</pubDate>
</item>

</channel>
</rss>
