<?xml version="1.0" encoding="UTF-8"?>
<rss version="2.0">
<channel>
<title>METAR LFOT</title>
<lastBuildDate>2026-06-17 11:35:36 UTC</lastBuildDate>

<item>
<title>LFOT METAR/TAF</title>
<description>🟢 METAR LFOT 171130Z AUTO 14004KT 080V200 CAVOK 29/15 Q1020 NOSIG

🟡 TAF LFOT 170500Z 1706/1806 VRB03KT CAVOK BECMG 1722/1724 04005KT</description>
<pubDate>2026-06-17 11:35:36 UTC</pubDate>
</item>

</channel>
</rss>
