<?xml version="1.0" encoding="UTF-8"?>
<rss version="2.0">
<channel>
<title>METAR LFOT</title>
<lastBuildDate>2026-06-03 12:05:30 UTC</lastBuildDate>

<item>
<title>LFOT METAR/TAF</title>
<description>🟢 METAR LFOT 031130Z AUTO 22015KT 9999 BKN036 OVC042 20/12 Q1013 TEMPO 22015G25KT

🟡 TAF LFOT 031100Z 0312/0412 22012KT 9999 BKN025 PROB40 TEMPO 0312/0321 22015G25KT PROB40 TEMPO 0315/0321 4000 -RADZ BKN012 PROB30 TEMPO 0317/0320 2500 -DZ BKN006 TEMPO 0405/0412 25015G25KT 4000 -SHRA PROB40 TEMPO 0405/0407 BKN012TCU</description>
<pubDate>2026-06-03 12:05:30 UTC</pubDate>
</item>

</channel>
</rss>
