<?xml version="1.0" encoding="UTF-8"?>
<rss version="2.0">
<channel>
<title>METAR LFOT</title>
<lastBuildDate>2026-04-23 06:24:49 UTC</lastBuildDate>

<item>
<title>LFOT METAR/TAF</title>
<description>🟢 METAR LFOT 230600Z AUTO 06010KT CAVOK 08/02 Q1022 NOSIG

🟡 TAF LFOT 230500Z 2306/2406 07011KT CAVOK</description>
<pubDate>2026-04-23 06:24:49 UTC</pubDate>
</item>

</channel>
</rss>
