<?xml version="1.0" encoding="UTF-8"?>
<rss version="2.0">
<channel>
<title>METAR LFOT</title>
<lastBuildDate>2026-06-29 15:35:33 UTC</lastBuildDate>

<item>
<title>LFOT METAR/TAF</title>
<description>🟢 METAR LFOT 291530Z AUTO VRB03KT CAVOK 27/14 Q1024 NOSIG

🟡 TAF LFOT 291100Z 2912/3012 36006KT CAVOK</description>
<pubDate>2026-06-29 15:35:33 UTC</pubDate>
</item>

</channel>
</rss>
