<?xml version="1.0" encoding="UTF-8"?>
<rss version="2.0">
<channel>
<title>METAR LFOT</title>
<lastBuildDate>2026-05-28 10:35:32 UTC</lastBuildDate>

<item>
<title>LFOT METAR/TAF</title>
<description>🟢 METAR LFOT 281030Z AUTO VRB03KT CAVOK 31/17 Q1022 NOSIG

🟡 TAF LFOT 280500Z 2806/2906 VRB04KT CAVOK</description>
<pubDate>2026-05-28 10:35:32 UTC</pubDate>
</item>

</channel>
</rss>
