<?xml version="1.0" encoding="UTF-8"?>
<rss version="2.0">
<channel>
<title>METAR LFOT</title>
<lastBuildDate>2026-07-19 15:40:55 UTC</lastBuildDate>

<item>
<title>LFOT METAR/TAF</title>
<description>🟢 METAR LFOT 191530Z AUTO 05009KT 340V080 CAVOK 26/07 Q1019 NOSIG

🟡 TAF LFOT 191100Z 1912/2012 04010KT CAVOK PROB40 TEMPO 1912/1917 04010G20KT PROB40 TEMPO 2010/2012 04010G20KT</description>
<pubDate>2026-07-19 15:40:55 UTC</pubDate>
</item>

</channel>
</rss>
