<?xml version="1.0" encoding="UTF-8"?>
<rss version="2.0">
<channel>
<title>METAR LFOT</title>
<lastBuildDate>2026-07-04 17:38:46 UTC</lastBuildDate>

<item>
<title>LFOT METAR/TAF</title>
<description>🟢 METAR LFOT 041730Z AUTO 33007KT 300V030 CAVOK 31/08 Q1026 NOSIG

🟡 TAF LFOT 041100Z 0412/0512 36006KT CAVOK</description>
<pubDate>2026-07-04 17:38:46 UTC</pubDate>
</item>

</channel>
</rss>
