<?xml version="1.0" encoding="UTF-8"?>
<rss version="2.0">
<channel>
<title>METAR LFOT</title>
<lastBuildDate>2026-04-24 04:40:25 UTC</lastBuildDate>

<item>
<title>LFOT METAR/TAF</title>
<description>🟢 METAR LFOT 240430Z AUTO 07008KT CAVOK 08/02 Q1020 NOSIG

🟡 TAF LFOT 232300Z 2400/2424 06010KT CAVOK</description>
<pubDate>2026-04-24 04:40:25 UTC</pubDate>
</item>

</channel>
</rss>
