<?xml version="1.0" encoding="UTF-8"?>
<rss version="2.0">
<channel>
<title>METAR LFOT</title>
<lastBuildDate>2026-05-08 04:35:27 UTC</lastBuildDate>

<item>
<title>LFOT METAR/TAF</title>
<description>🟢 METAR LFOT 080430Z AUTO 07005KT CAVOK 08/07 Q1013 NOSIG

🟡 TAF LFOT 072300Z 0800/0824 08006KT CAVOK PROB30 TEMPO 0801/0805 -SHRA SCT050TCU</description>
<pubDate>2026-05-08 04:35:27 UTC</pubDate>
</item>

</channel>
</rss>
