<?xml version="1.0" encoding="UTF-8"?>
<rss version="2.0">
<channel>
<title>METAR LFOT</title>
<lastBuildDate>2026-07-02 18:46:53 UTC</lastBuildDate>

<item>
<title>LFOT METAR/TAF</title>
<description>🟢 METAR LFOT 021830Z AUTO 31007KT 280V340 CAVOK 25/16 Q1025 NOSIG

🟡 TAF LFOT 021700Z 0218/0318 33012KT CAVOK BECMG 0305/0308 04006KT</description>
<pubDate>2026-07-02 18:46:53 UTC</pubDate>
</item>

</channel>
</rss>
