<?xml version="1.0" encoding="UTF-8"?>
<rss version="2.0">
<channel>
<title>METAR LFOT</title>
<lastBuildDate>2026-05-18 05:05:20 UTC</lastBuildDate>

<item>
<title>LFOT METAR/TAF</title>
<description>🟢 METAR LFOT 180500Z AUTO VRB03KT 9999 BKN029 OVC034 09/09 Q1015 NOSIG

🟡 TAF LFOT 172300Z 1800/1824 28005KT CAVOK PROB40 TEMPO 1800/1804 4000 -SHRA SCT030TCU PROB40 TEMPO 1810/1818 4000 -SHRA SCT025TCU</description>
<pubDate>2026-05-18 05:05:20 UTC</pubDate>
</item>

</channel>
</rss>
