<?xml version="1.0" encoding="UTF-8"?>
<rss version="2.0">
<channel>
<title>METAR LFOT</title>
<lastBuildDate>2026-06-04 10:35:03 UTC</lastBuildDate>

<item>
<title>LFOT METAR/TAF</title>
<description>🟢 METAR LFOT 041030Z AUTO 24013KT 9999 SCT030/// BKN037/// BKN064/// ///TCU 18/12 Q1008 TEMPO 24015G30KT 4000 -SHRA BKN013TCU

🟡 TAF LFOT 040500Z 0406/0506 22012KT 9999 BKN020 TEMPO 0406/0416 4000 -SHRA BKN013TCU PROB40 TEMPO 0408/0418 24015G30KT BECMG 0420/0422 26006KT</description>
<pubDate>2026-06-04 10:35:03 UTC</pubDate>
</item>

</channel>
</rss>
