<?xml version="1.0" encoding="UTF-8"?>
<rss version="2.0">
<channel>
<title>METAR LFOT</title>
<lastBuildDate>2026-05-15 18:35:24 UTC</lastBuildDate>

<item>
<title>LFOT METAR/TAF</title>
<description>🟢 METAR LFOT 151830Z AUTO 26004KT 230V290 CAVOK 10/07 Q1009 TEMPO 4000 -SHRA BKN030TCU

🟡 TAF LFOT 151700Z 1518/1618 26004KT 9999 FEW040 TEMPO 1518/1522 4000 -SHRA BKN030TCU PROB30 TEMPO 1602/1606 4000 BR PROB30 TEMPO 1612/1615 -SHRA</description>
<pubDate>2026-05-15 18:35:24 UTC</pubDate>
</item>

</channel>
</rss>
