<?xml version="1.0" encoding="UTF-8"?>
<rss version="2.0">
<channel>
<title>METAR LFOT</title>
<lastBuildDate>2026-06-29 08:05:37 UTC</lastBuildDate>

<item>
<title>LFOT METAR/TAF</title>
<description>🟢 METAR LFOT 290800Z AUTO 31005KT 250V350 9999 BKN034 20/12 Q1027 NOSIG

🟡 TAF LFOT 290500Z 2906/3006 36006KT CAVOK</description>
<pubDate>2026-06-29 08:05:37 UTC</pubDate>
</item>

</channel>
</rss>
