<?xml version="1.0" encoding="UTF-8"?>
<rss version="2.0">
<channel>
<title>METAR LFOT</title>
<lastBuildDate>2026-04-23 13:40:28 UTC</lastBuildDate>

<item>
<title>LFOT METAR/TAF</title>
<description>🟢 METAR LFOT 231330Z AUTO 08012KT 050V120 CAVOK 22/04 Q1022 NOSIG

🟡 TAF LFOT 231100Z 2312/2412 08012KT CAVOK</description>
<pubDate>2026-04-23 13:40:28 UTC</pubDate>
</item>

</channel>
</rss>
