<?xml version="1.0" encoding="UTF-8"?>
<rss version="2.0">
<channel>
<title>METAR LFOT</title>
<lastBuildDate>2026-04-25 21:55:31 UTC</lastBuildDate>

<item>
<title>LFOT METAR/TAF</title>
<description>🟢 METAR LFOT 252130Z AUTO 06006KT CAVOK 13/06 Q1020 NOSIG

🟡 TAF LFOT 251700Z 2518/2618 04006KT CAVOK</description>
<pubDate>2026-04-25 21:55:31 UTC</pubDate>
</item>

</channel>
</rss>
