<?xml version="1.0" encoding="UTF-8"?>
<rss version="2.0">
<channel>
<title>METAR LFOT</title>
<lastBuildDate>2026-05-02 17:33:40 UTC</lastBuildDate>

<item>
<title>LFOT METAR/TAF</title>
<description>🟢 METAR LFOT 021700Z AUTO 13007KT 100V160 9999 FEW047 SCT098 BKN150 16/15 Q1014 NOSIG

🟡 TAF LFOT 021700Z 0218/0318 18008KT 9999 FEW030 BKN070 PROB30 TEMPO 0218/0220 SHRA FEW060TCU TEMPO 0221/0306 4000 RA BKN015 PROB40 TEMPO 0301/0309 BKN006 TEMPO 0309/0318 SHRA BKN015 SCT025CB PROB40 TEMPO 0312/0317 25012G23KT 3000 TSRA</description>
<pubDate>2026-05-02 17:33:40 UTC</pubDate>
</item>

</channel>
</rss>
