<?xml version="1.0" encoding="UTF-8"?>
<rss version="2.0">
<channel>
<title>METAR LFOT</title>
<lastBuildDate>2026-05-18 18:35:28 UTC</lastBuildDate>

<item>
<title>LFOT METAR/TAF</title>
<description>🟢 METAR LFOT 181830Z AUTO 24004KT 160V270 CAVOK 14/09 Q1016 NOSIG

🟡 TAF LFOT 181700Z 1818/1918 25005KT 9999 SCT040 PROB30 TEMPO 1903/1906 4000 -RA BKN012 BECMG 1907/1909 19010KT TEMPO 1907/1914 BKN012 PROB40 TEMPO 1909/1912 4000 -RA TEMPO 1914/1918 22012G25KT -SHRA</description>
<pubDate>2026-05-18 18:35:28 UTC</pubDate>
</item>

</channel>
</rss>
