<?xml version="1.0" encoding="UTF-8"?>
<rss version="2.0">
<channel>
<title>METAR LFOT</title>
<lastBuildDate>2026-07-11 18:05:34 UTC</lastBuildDate>

<item>
<title>LFOT METAR/TAF</title>
<description>🟢 METAR LFOT 111800Z AUTO 08005KT 030V120 CAVOK 36/12 Q1013 NOSIG

🟡 TAF LFOT 111700Z 1118/1218 06006KT CAVOK PROB30 TEMPO 1120/1122 4000 -SHRA SCT100CB</description>
<pubDate>2026-07-11 18:05:34 UTC</pubDate>
</item>

</channel>
</rss>
