<?xml version="1.0" encoding="UTF-8"?>
<rss version="2.0">
<channel>
<title>METAR LFOT</title>
<lastBuildDate>2026-05-23 23:36:35 UTC</lastBuildDate>

<item>
<title>LFOT METAR/TAF</title>
<description>🟢 METAR LFOT 232300Z AUTO 06005KT CAVOK 18/15 Q1027 NOSIG

🟡 TAF LFOT 232300Z 2400/2424 05005KT CAVOK</description>
<pubDate>2026-05-23 23:36:35 UTC</pubDate>
</item>

</channel>
</rss>
