<?xml version="1.0" encoding="UTF-8"?>
<rss version="2.0">
<channel>
<title>METAR LFOT</title>
<lastBuildDate>2026-06-06 06:35:24 UTC</lastBuildDate>

<item>
<title>LFOT METAR/TAF</title>
<description>🟢 METAR LFOT 060630Z AUTO 20007KT 160V230 9999 ///TCU 15/10 Q1013 NOSIG

🟡 TAF LFOT 060500Z 0606/0706 19008KT CAVOK PROB40 TEMPO 0606/0609 -SHRA SCT070TCU PROB40 TEMPO 0609/0611 24014G25KT 4000 SHRA BKN025TCU BECMG 0611/0613 25010KT PROB40 TEMPO 0611/0616 24015G30KT BECMG 0703/0706 VRB03KT</description>
<pubDate>2026-06-06 06:35:24 UTC</pubDate>
</item>

</channel>
</rss>
