<?xml version="1.0" encoding="UTF-8"?>
<rss version="2.0">
<channel>
<title>METAR LFOT</title>
<lastBuildDate>2026-05-10 22:31:59 UTC</lastBuildDate>

<item>
<title>LFOT METAR/TAF</title>
<description>🟢 METAR LFOT 102200Z AUTO 21003KT 9999 BKN007 BKN078 OVC092 12/12 Q1007 BECMG NSC

🟡 TAF AMD LFOT 102155Z 1021/1118 20005KT 9999 BKN006 TEMPO 1100/1108 4000 -RA BECMG 1107/1109 01007KT BKN012 BECMG 1111/1114 SCT030</description>
<pubDate>2026-05-10 22:31:59 UTC</pubDate>
</item>

</channel>
</rss>
