<?xml version="1.0" encoding="UTF-8"?>
<rss version="2.0">
<channel>
<title>METAR LFOT</title>
<lastBuildDate>2026-06-12 17:35:34 UTC</lastBuildDate>

<item>
<title>LFOT METAR/TAF</title>
<description>🟢 METAR LFOT 121730Z AUTO 28008KT 250V320 CAVOK 27/15 Q1026 NOSIG

🟡 TAF LFOT 121100Z 1212/1312 27008KT CAVOK PROB30 TEMPO 1305/1307 4000 BR BKN005</description>
<pubDate>2026-06-12 17:35:34 UTC</pubDate>
</item>

</channel>
</rss>
