<?xml version="1.0" encoding="UTF-8"?>
<rss version="2.0">
<channel>
<title>METAR LFOT</title>
<lastBuildDate>2026-07-04 11:05:35 UTC</lastBuildDate>

<item>
<title>LFOT METAR/TAF</title>
<description>🟢 METAR LFOT 041100Z AUTO 34004KT 280V060 CAVOK 28/M00 Q1029 NOSIG

🟡 TAF LFOT 040500Z 0406/0506 36005KT CAVOK</description>
<pubDate>2026-07-04 11:05:35 UTC</pubDate>
</item>

</channel>
</rss>
