<?xml version="1.0" encoding="UTF-8"?>
<rss version="2.0">
<channel>
<title>METAR LFOT</title>
<lastBuildDate>2026-07-02 04:35:32 UTC</lastBuildDate>

<item>
<title>LFOT METAR/TAF</title>
<description>🟢 METAR LFOT 020430Z AUTO 30003KT CAVOK 14/12 Q1026 NOSIG

🟡 TAF LFOT 012300Z 0200/0224 33008KT CAVOK TEMPO 0212/0219 31010G20KT</description>
<pubDate>2026-07-02 04:35:32 UTC</pubDate>
</item>

</channel>
</rss>
