<?xml version="1.0" encoding="UTF-8"?>
<rss version="2.0">
<channel>
<title>METAR LFOT</title>
<lastBuildDate>2026-05-10 14:39:38 UTC</lastBuildDate>

<item>
<title>LFOT METAR/TAF</title>
<description>🟢 METAR LFOT 101430Z AUTO 08008KT 9999 BKN037/// BKN044/// OVC056/// ///CB 19/13 Q1007 TEMPO 3000 -TSRA

🟡 TAF LFOT 101100Z 1012/1112 09005KT CAVOK TEMPO 1012/1020 -SHRA BKN020TCU PROB30 TEMPO 1016/1019 3000 -TSRA SCT015 BKN030CB BECMG 1022/1024 20005KT 4500 -RA BKN009 BECMG 1106/1108 01007KT 9999 NSW BKN012 BECMG 1110/1112 CAVOK</description>
<pubDate>2026-05-10 14:39:38 UTC</pubDate>
</item>

</channel>
</rss>
