<?xml version="1.0" encoding="UTF-8"?>
<rss version="2.0">
<channel>
<title>METAR LFOT</title>
<lastBuildDate>2026-06-11 00:01:55 UTC</lastBuildDate>

<item>
<title>LFOT METAR/TAF</title>
<description>🟢 METAR LFOT 102330Z AUTO 32003KT 300V360 9999 FEW037 12/08 Q1024 NOSIG

🟡 TAF LFOT 102300Z 1100/1124 30005KT CAVOK</description>
<pubDate>2026-06-11 00:01:55 UTC</pubDate>
</item>

</channel>
</rss>
