<?xml version="1.0" encoding="UTF-8"?>
<rss version="2.0">
<channel>
<title>METAR LFOT</title>
<lastBuildDate>2026-04-25 05:05:19 UTC</lastBuildDate>

<item>
<title>LFOT METAR/TAF</title>
<description>🟢 METAR LFOT 250500Z AUTO VRB01KT CAVOK 07/02 Q1018 NOSIG

🟡 TAF LFOT 242300Z 2500/2524 05007KT CAVOK</description>
<pubDate>2026-04-25 05:05:19 UTC</pubDate>
</item>

</channel>
</rss>
