<?xml version="1.0" encoding="UTF-8"?>
<rss version="2.0">
<channel>
<title>METAR LFOT</title>
<lastBuildDate>2026-06-23 21:55:09 UTC</lastBuildDate>

<item>
<title>LFOT METAR/TAF</title>
<description>🟢 METAR LFOT 232130Z AUTO 12003KT CAVOK 30/15 Q1016 TEMPO VRB15G30KT 4000 -TSRA SCT090CB

🟡 TAF LFOT 231700Z 2318/2418 09005KT CAVOK PROB30 TEMPO 2320/2323 VRB15G30KT 4000 -TSRA SCT090CB PROB30 TEMPO 2416/2418 VRB15G30KT 4000 -TSRA SCT090CB</description>
<pubDate>2026-06-23 21:55:09 UTC</pubDate>
</item>

</channel>
</rss>
