<?xml version="1.0" encoding="UTF-8"?>
<rss version="2.0">
<channel>
<title>METAR LFOT</title>
<lastBuildDate>2026-06-16 15:05:38 UTC</lastBuildDate>

<item>
<title>LFOT METAR/TAF</title>
<description>🟢 METAR LFOT 161500Z AUTO 21007KT 170V260 9999 FEW042 OVC130 27/17 Q1017 NOSIG

🟡 TAF LFOT 161100Z 1612/1712 28012KT CAVOK BECMG 1618/1620 35006KT</description>
<pubDate>2026-06-16 15:05:38 UTC</pubDate>
</item>

</channel>
</rss>
