<?xml version="1.0" encoding="UTF-8"?>
<rss version="2.0">
<channel>
<title>METAR LFOT</title>
<lastBuildDate>2026-04-27 18:05:22 UTC</lastBuildDate>

<item>
<title>LFOT METAR/TAF</title>
<description>🟢 METAR LFOT 271800Z AUTO 01007KT 320V040 CAVOK 20/06 Q1018 NOSIG

🟡 TAF LFOT 271700Z 2718/2818 01006KT CAVOK</description>
<pubDate>2026-04-27 18:05:22 UTC</pubDate>
</item>

</channel>
</rss>
