<?xml version="1.0" encoding="UTF-8"?>
<rss version="2.0">
<channel>
<title>METAR LFOT</title>
<lastBuildDate>2026-07-19 18:34:16 UTC</lastBuildDate>

<item>
<title>LFOT METAR/TAF</title>
<description>🟢 METAR LFOT 191830Z AUTO 02009KT 350V070 CAVOK 24/06 Q1020 NOSIG

🟡 TAF LFOT 191700Z 1918/2018 04010KT CAVOK</description>
<pubDate>2026-07-19 18:34:16 UTC</pubDate>
</item>

</channel>
</rss>
