<?xml version="1.0" encoding="UTF-8"?>
<rss version="2.0">
<channel>
<title>METAR LFOT</title>
<lastBuildDate>2026-07-13 00:06:29 UTC</lastBuildDate>

<item>
<title>LFOT METAR/TAF</title>
<description>🟢 METAR LFOT 130000Z AUTO 06012KT CAVOK 28/08 Q1012 NOSIG

🟡 TAF LFOT 122300Z 1300/1324 08012KT CAVOK PROB30 TEMPO 1310/1313 33015G25KT -TSRA SCT100CB BECMG 1312/1314 03010KT</description>
<pubDate>2026-07-13 00:06:29 UTC</pubDate>
</item>

</channel>
</rss>
