<?xml version="1.0" encoding="UTF-8"?>
<rss version="2.0">
<channel>
<title>METAR LFOT</title>
<lastBuildDate>2026-06-05 16:05:27 UTC</lastBuildDate>

<item>
<title>LFOT METAR/TAF</title>
<description>🟢 METAR LFOT 051600Z AUTO 17005KT 130V210 CAVOK 20/07 Q1015 NOSIG

🟡 TAF LFOT 051100Z 0512/0612 25008KT CAVOK BECMG 0517/0519 VRB03KT BECMG 0603/0605 18012KT TEMPO 0605/0612 -SHRA BKN025TCU BECMG 0608/0610 21012G25KT BECMG 0610/0612 27012G25KT</description>
<pubDate>2026-06-05 16:05:27 UTC</pubDate>
</item>

</channel>
</rss>
