<?xml version="1.0" encoding="UTF-8"?>
<rss version="2.0">
<channel>
<title>METAR LFOT</title>
<lastBuildDate>2026-07-01 18:05:31 UTC</lastBuildDate>

<item>
<title>LFOT METAR/TAF</title>
<description>🟢 METAR LFOT 011800Z AUTO 33007KT 280V360 9999 FEW049 23/12 Q1025 NOSIG

🟡 TAF LFOT 011700Z 0118/0218 32010KT CAVOK TEMPO 0213/0218 33015G25KT</description>
<pubDate>2026-07-01 18:05:31 UTC</pubDate>
</item>

</channel>
</rss>
