<?xml version="1.0" encoding="UTF-8"?>
<rss version="2.0">
<channel>
<title>METAR LFOT</title>
<lastBuildDate>2026-06-26 08:05:34 UTC</lastBuildDate>

<item>
<title>LFOT METAR/TAF</title>
<description>🟢 METAR LFOT 260800Z AUTO 30005KT 240V350 9999 ///CB 31/16 Q1016 TEMPO 4000 -TSRA

🟡 TAF LFOT 260500Z 2606/2706 33008KT CAVOK PROB40 TEMPO 2607/2610 4000 -TSRA FEW090CB PROB30 TEMPO 2619/2623 05012G30KT 4000 -TSRA FEW090CB</description>
<pubDate>2026-06-26 08:05:34 UTC</pubDate>
</item>

</channel>
</rss>
