<?xml version="1.0" encoding="UTF-8"?>
<rss version="2.0">
<channel>
<title>METAR LFOT</title>
<lastBuildDate>2026-05-30 22:10:09 UTC</lastBuildDate>

<item>
<title>LFOT METAR/TAF</title>
<description>🟢 METAR LFOT 302200Z AUTO 27003KT 9999 NCD 20/18 Q1018 NOSIG

🟡 TAF LFOT 301700Z 3018/3118 VRB05KT CAVOK PROB40 TEMPO 3018/3021 VRB15G40KT 4000 -TSRA BKN080CB PROB30 TEMPO 3018/3020 2500 TSRAGR BECMG 3023/3101 30006KT</description>
<pubDate>2026-05-30 22:10:09 UTC</pubDate>
</item>

</channel>
</rss>
