<?xml version="1.0" encoding="UTF-8"?>
<rss version="2.0">
<channel>
<title>METAR LFOT</title>
<lastBuildDate>2026-07-11 12:35:36 UTC</lastBuildDate>

<item>
<title>LFOT METAR/TAF</title>
<description>🟢 METAR LFOT 111230Z AUTO 06003KT 360V110 CAVOK 31/16 Q1015 TEMPO 4000 -SHRA SCT100CB

🟡 TAF LFOT 111100Z 1112/1212 23005KT CAVOK PROB30 TEMPO 1112/1114 4000 -SHRA SCT100CB PROB30 TEMPO 1116/1120 VRB15G30KT 4000 -TSRA SCT100CB BECMG 1120/1122 04008KT</description>
<pubDate>2026-07-11 12:35:36 UTC</pubDate>
</item>

</channel>
</rss>
