<?xml version="1.0" encoding="UTF-8"?>
<rss version="2.0">
<channel>
<title>METAR LFOT</title>
<lastBuildDate>2026-06-29 07:35:30 UTC</lastBuildDate>

<item>
<title>LFOT METAR/TAF</title>
<description>🟢 METAR LFOT 290730Z AUTO 33004KT 290V030 9999 BKN031 BKN040 19/12 Q1027 NOSIG

🟡 TAF LFOT 290500Z 2906/3006 36006KT CAVOK</description>
<pubDate>2026-06-29 07:35:30 UTC</pubDate>
</item>

</channel>
</rss>
