<?xml version="1.0" encoding="UTF-8"?>
<rss version="2.0">
<channel>
<title>METAR LFOT</title>
<lastBuildDate>2026-06-06 16:05:25 UTC</lastBuildDate>

<item>
<title>LFOT METAR/TAF</title>
<description>🟢 METAR LFOT 061600Z AUTO 25011KT 230V300 CAVOK 20/08 Q1017 NOSIG

🟡 TAF LFOT 061100Z 0612/0712 25010KT CAVOK PROB40 TEMPO 0612/0616 24015G30KT BECMG 0703/0706 VRB03KT</description>
<pubDate>2026-06-06 16:05:25 UTC</pubDate>
</item>

</channel>
</rss>
