<?xml version="1.0" encoding="UTF-8"?>
<rss version="2.0">
<channel>
<title>METAR LFOT</title>
<lastBuildDate>2026-06-24 12:35:38 UTC</lastBuildDate>

<item>
<title>LFOT METAR/TAF</title>
<description>🟢 METAR LFOT 241230Z AUTO VRB04KT CAVOK 40/13 Q1016 NOSIG

🟡 TAF LFOT 241100Z 2412/2512 17005KT CAVOK PROB30 TEMPO 2417/2503 VRB10G30KT 4000 -TSRA FEW090CB BECMG 2422/2424 08005KT</description>
<pubDate>2026-06-24 12:35:38 UTC</pubDate>
</item>

</channel>
</rss>
