<?xml version="1.0" encoding="UTF-8"?>
<rss version="2.0">
<channel>
<title>METAR LFOT</title>
<lastBuildDate>2026-07-18 21:02:59 UTC</lastBuildDate>

<item>
<title>LFOT METAR/TAF</title>
<description>🟢 METAR LFOT 182030Z AUTO 34004KT CAVOK 25/11 Q1016 NOSIG

🟡 TAF LFOT 181700Z 1818/1918 34005KT CAVOK BECMG 1820/1823 03010KT</description>
<pubDate>2026-07-18 21:02:59 UTC</pubDate>
</item>

</channel>
</rss>
