<?xml version="1.0" encoding="UTF-8"?>
<rss version="2.0">
<channel>
<title>METAR LFOT</title>
<lastBuildDate>2026-06-15 14:05:38 UTC</lastBuildDate>

<item>
<title>LFOT METAR/TAF</title>
<description>🟢 METAR LFOT 151400Z AUTO 27004KT 210V320 CAVOK 31/06 Q1014 TEMPO BKN100TCU

🟡 TAF AMD LFOT 151141Z 1512/1612 12005KT CAVOK PROB40 TEMPO 1512/1516 BKN100TCU BECMG 1518/1520 VRB03KT BECMG 1602/1604 28008KT</description>
<pubDate>2026-06-15 14:05:38 UTC</pubDate>
</item>

</channel>
</rss>
