<?xml version="1.0" encoding="UTF-8"?>
<rss version="2.0">
<channel>
<title>METAR LFOT</title>
<lastBuildDate>2026-05-30 01:31:28 UTC</lastBuildDate>

<item>
<title>LFOT METAR/TAF</title>
<description>🟢 METAR LFOT 300100Z AUTO 09003KT CAVOK 20/16 Q1020 NOSIG

🟡 TAF LFOT 292300Z 3000/3024 07006KT CAVOK TEMPO 3016/3020 VRB25G40KT 4000 SHRA BKN080TCU PROB40 TEMPO 3016/3020 1500 TSRA BKN070CB</description>
<pubDate>2026-05-30 01:31:28 UTC</pubDate>
</item>

</channel>
</rss>
