<?xml version="1.0" encoding="UTF-8"?>
<rss version="2.0">
<channel>
<title>METAR LFOT</title>
<lastBuildDate>2026-06-22 04:35:36 UTC</lastBuildDate>

<item>
<title>LFOT METAR/TAF</title>
<description>🟢 METAR LFOT 220430Z AUTO 07007KT CAVOK 24/17 Q1021 NOSIG

🟡 TAF LFOT 212300Z 2200/2224 06008KT CAVOK</description>
<pubDate>2026-06-22 04:35:36 UTC</pubDate>
</item>

</channel>
</rss>
