<?xml version="1.0" encoding="UTF-8"?>
<rss version="2.0">
<channel>
<title>METAR LFOT</title>
<lastBuildDate>2026-06-23 12:05:38 UTC</lastBuildDate>

<item>
<title>LFOT METAR/TAF</title>
<description>🟢 METAR LFOT 231200Z AUTO 14005KT 050V210 CAVOK 39/17 Q1018 NOSIG

🟡 TAF LFOT 231100Z 2312/2412 11006KT CAVOK PROB30 TEMPO 2318/2321 VRB15G30KT FEW090CB</description>
<pubDate>2026-06-23 12:05:38 UTC</pubDate>
</item>

</channel>
</rss>
