<?xml version="1.0" encoding="UTF-8"?>
<rss version="2.0">
<channel>
<title>METAR LFOT</title>
<lastBuildDate>2026-07-02 23:46:01 UTC</lastBuildDate>

<item>
<title>LFOT METAR/TAF</title>
<description>🟢 METAR LFOT 022330Z AUTO 32005KT 300V360 CAVOK 19/15 Q1027 NOSIG

🟡 TAF LFOT 022300Z 0300/0324 33005KT CAVOK</description>
<pubDate>2026-07-02 23:46:01 UTC</pubDate>
</item>

</channel>
</rss>
