<?xml version="1.0" encoding="UTF-8"?>
<rss version="2.0">
<channel>
<title>METAR LFOT</title>
<lastBuildDate>2026-06-24 14:05:36 UTC</lastBuildDate>

<item>
<title>LFOT METAR/TAF</title>
<description>🟢 METAR LFOT 241400Z AUTO VRB03KT CAVOK 41/15 Q1015 NOSIG

🟡 TAF LFOT 241100Z 2412/2512 17005KT CAVOK PROB30 TEMPO 2417/2503 VRB10G30KT 4000 -TSRA FEW090CB BECMG 2422/2424 08005KT</description>
<pubDate>2026-06-24 14:05:36 UTC</pubDate>
</item>

</channel>
</rss>
