<?xml version="1.0" encoding="UTF-8"?>
<rss version="2.0">
<channel>
<title>METAR LFOT</title>
<lastBuildDate>2026-05-30 19:59:06 UTC</lastBuildDate>

<item>
<title>LFOT METAR/TAF</title>
<description>🟢 METAR LFOT 301930Z AUTO 27007KT 240V310 9999 -RA ///CB 23/18 Q1018 TEMPO VRB15G40KT 4000 -TSRA BECMG NSC

🟡 TAF LFOT 301700Z 3018/3118 VRB05KT CAVOK PROB40 TEMPO 3018/3021 VRB15G40KT 4000 -TSRA BKN080CB PROB30 TEMPO 3018/3020 2500 TSRAGR BECMG 3023/3101 30006KT</description>
<pubDate>2026-05-30 19:59:06 UTC</pubDate>
</item>

</channel>
</rss>
