<?xml version="1.0" encoding="UTF-8"?>
<rss version="2.0">
<channel>
<title>METAR LFOT</title>
<lastBuildDate>2026-05-29 15:35:35 UTC</lastBuildDate>

<item>
<title>LFOT METAR/TAF</title>
<description>🟢 METAR LFOT 291530Z AUTO 08005KT 040V110 CAVOK 32/16 Q1021 NOSIG

🟡 TAF LFOT 291100Z 2912/3012 10005KT CAVOK</description>
<pubDate>2026-05-29 15:35:35 UTC</pubDate>
</item>

</channel>
</rss>
