<?xml version="1.0" encoding="UTF-8"?>
<rss version="2.0">
<channel>
<title>METAR LFOT</title>
<lastBuildDate>2026-06-29 05:35:31 UTC</lastBuildDate>

<item>
<title>LFOT METAR/TAF</title>
<description>🟢 METAR LFOT 290530Z AUTO 02005KT 330V060 9999 BKN028 OVC042 17/13 Q1026 NOSIG

🟡 TAF LFOT 282300Z 2900/2924 30007KT CAVOK</description>
<pubDate>2026-06-29 05:35:31 UTC</pubDate>
</item>

</channel>
</rss>
