<?xml version="1.0" encoding="UTF-8"?>
<rss version="2.0">
<channel>
<title>METAR LFOT</title>
<lastBuildDate>2026-06-24 16:05:35 UTC</lastBuildDate>

<item>
<title>LFOT METAR/TAF</title>
<description>🟢 METAR LFOT 241600Z AUTO 35005KT 290V030 CAVOK 41/13 Q1014 TEMPO 4000 -TSRA FEW090CB

🟡 TAF LFOT 241100Z 2412/2512 17005KT CAVOK PROB30 TEMPO 2417/2503 VRB10G30KT 4000 -TSRA FEW090CB BECMG 2422/2424 08005KT</description>
<pubDate>2026-06-24 16:05:35 UTC</pubDate>
</item>

</channel>
</rss>
