<?xml version="1.0" encoding="UTF-8"?>
<rss version="2.0">
<channel>
<title>METAR LFOT</title>
<lastBuildDate>2026-07-14 15:05:38 UTC</lastBuildDate>

<item>
<title>LFOT METAR/TAF</title>
<description>🟢 METAR LFOT 141500Z AUTO 28005KT 210V360 CAVOK 35/12 Q1015 NOSIG

🟡 TAF LFOT 141100Z 1412/1512 25008KT CAVOK PROB30 TEMPO 1508/1511 VRB10G20KT FEW140TCU</description>
<pubDate>2026-07-14 15:05:38 UTC</pubDate>
</item>

</channel>
</rss>
