<?xml version="1.0" encoding="UTF-8"?>
<rss version="2.0">
<channel>
<title>METAR LFOT</title>
<lastBuildDate>2026-06-13 16:35:31 UTC</lastBuildDate>

<item>
<title>LFOT METAR/TAF</title>
<description>🟢 METAR LFOT 131630Z AUTO 33006KT 260V020 CAVOK 30/13 Q1022 NOSIG

🟡 TAF LFOT 131100Z 1312/1412 31005KT CAVOK</description>
<pubDate>2026-06-13 16:35:31 UTC</pubDate>
</item>

</channel>
</rss>
