<?xml version="1.0" encoding="UTF-8"?>
<rss version="2.0">
<channel>
<title>METAR LFOT</title>
<lastBuildDate>2026-06-07 16:17:20 UTC</lastBuildDate>

<item>
<title>LFOT METAR/TAF</title>
<description>🟢 METAR LFOT 071600Z AUTO 16003KT 050V200 CAVOK 23/08 Q1022 NOSIG

🟡 TAF AMD LFOT 071440Z 0714/0812 VRB03KT 9999 FEW030 BECMG 0806/0808 28010KT PROB30 TEMPO 0806/0809 -SHRA FEW050TCU</description>
<pubDate>2026-06-07 16:17:20 UTC</pubDate>
</item>

</channel>
</rss>
