<?xml version="1.0" encoding="UTF-8"?>
<rss version="2.0">
<channel>
<title>METAR LFOT</title>
<lastBuildDate>2026-06-14 21:03:11 UTC</lastBuildDate>

<item>
<title>LFOT METAR/TAF</title>
<description>🟢 METAR LFOT 142030Z AUTO 03003KT 360V070 CAVOK 23/11 Q1017 NOSIG

🟡 TAF LFOT 141700Z 1418/1518 03006KT CAVOK</description>
<pubDate>2026-06-14 21:03:11 UTC</pubDate>
</item>

</channel>
</rss>
