<?xml version="1.0" encoding="UTF-8"?>
<rss version="2.0">
<channel>
<title>METAR LFOT</title>
<lastBuildDate>2026-04-25 10:05:20 UTC</lastBuildDate>

<item>
<title>LFOT METAR/TAF</title>
<description>🟢 METAR LFOT 251000Z AUTO VRB03KT CAVOK 19/07 Q1019 NOSIG

🟡 TAF LFOT 250530Z 2506/2606 05006KT CAVOK</description>
<pubDate>2026-04-25 10:05:20 UTC</pubDate>
</item>

</channel>
</rss>
