<?xml version="1.0" encoding="UTF-8"?>
<rss version="2.0">
<channel>
<title>METAR LFOT</title>
<lastBuildDate>2026-05-25 06:05:21 UTC</lastBuildDate>

<item>
<title>LFOT METAR/TAF</title>
<description>🟢 METAR LFOT 250530Z AUTO 07006KT 040V100 CAVOK 20/17 Q1028 NOSIG

🟡 TAF LFOT 250500Z 2506/2606 07008KT CAVOK</description>
<pubDate>2026-05-25 06:05:21 UTC</pubDate>
</item>

</channel>
</rss>
