<?xml version="1.0" encoding="UTF-8"?>
<rss version="2.0">
<channel>
<title>METAR LFOT</title>
<lastBuildDate>2026-07-22 11:28:19 UTC</lastBuildDate>

<item>
<title>LFOT METAR/TAF</title>
<description>🟢 METAR LFOT 221100Z AUTO 04007KT 330V100 CAVOK 25/11 Q1024 NOSIG

🟡 TAF LFOT 220500Z 2206/2306 04010KT CAVOK</description>
<pubDate>2026-07-22 11:28:19 UTC</pubDate>
</item>

</channel>
</rss>
