<?xml version="1.0" encoding="UTF-8"?>
<rss version="2.0">
<channel>
<title>METAR LFOT</title>
<lastBuildDate>2026-05-21 05:05:20 UTC</lastBuildDate>

<item>
<title>LFOT METAR/TAF</title>
<description>🟢 METAR LFOT 210430Z AUTO 09004KT 9000 NSC 11/10 Q1027 TEMPO 4000 BR

🟡 TAF LFOT 202300Z 2100/2124 13004KT CAVOK PROB40 TEMPO 2102/2107 4000 BR</description>
<pubDate>2026-05-21 05:05:20 UTC</pubDate>
</item>

</channel>
</rss>
