<?xml version="1.0" encoding="UTF-8"?>
<rss version="2.0">
<channel>
<title>METAR LFOT</title>
<lastBuildDate>2026-06-04 20:52:03 UTC</lastBuildDate>

<item>
<title>LFOT METAR/TAF</title>
<description>🟢 METAR LFOT 042030Z AUTO 25008KT 220V280 9999 FEW042 15/08 Q1012 NOSIG

🟡 TAF LFOT 041700Z 0418/0518 26015KT CAVOK TEMPO 0418/0419 26015G25KT BECMG 0502/0504 25005KT</description>
<pubDate>2026-06-04 20:52:03 UTC</pubDate>
</item>

</channel>
</rss>
