<?xml version="1.0" encoding="UTF-8"?>
<rss version="2.0">
<channel>
<title>METAR LFOT</title>
<lastBuildDate>2026-07-01 20:21:12 UTC</lastBuildDate>

<item>
<title>LFOT METAR/TAF</title>
<description>🟢 METAR LFOT 012000Z AUTO 32005KT CAVOK 22/12 Q1026 NOSIG

🟡 TAF LFOT 011700Z 0118/0218 32010KT CAVOK TEMPO 0213/0218 33015G25KT</description>
<pubDate>2026-07-01 20:21:12 UTC</pubDate>
</item>

</channel>
</rss>
