<?xml version="1.0" encoding="UTF-8"?>
<rss version="2.0">
<channel>
<title>METAR LFOT</title>
<lastBuildDate>2026-05-29 04:35:22 UTC</lastBuildDate>

<item>
<title>LFOT METAR/TAF</title>
<description>🟢 METAR LFOT 290430Z AUTO 35002KT CAVOK 17/15 Q1021 NOSIG

🟡 TAF LFOT 282300Z 2900/2924 09005KT CAVOK</description>
<pubDate>2026-05-29 04:35:22 UTC</pubDate>
</item>

</channel>
</rss>
