<?xml version="1.0" encoding="UTF-8"?>
<rss version="2.0">
<channel>
<title>METAR LFOT</title>
<lastBuildDate>2026-07-03 01:19:11 UTC</lastBuildDate>

<item>
<title>LFOT METAR/TAF</title>
<description>🟢 METAR LFOT 030100Z AUTO VRB03KT CAVOK 17/15 Q1027 NOSIG

🟡 TAF LFOT 022300Z 0300/0324 33005KT CAVOK</description>
<pubDate>2026-07-03 01:19:11 UTC</pubDate>
</item>

</channel>
</rss>
