<?xml version="1.0" encoding="UTF-8"?>
<rss version="2.0">
<channel>
<title>METAR LFOT</title>
<lastBuildDate>2026-04-27 12:05:25 UTC</lastBuildDate>

<item>
<title>LFOT METAR/TAF</title>
<description>🟢 METAR LFOT 271200Z AUTO 04006KT 360V090 CAVOK 21/07 Q1020 NOSIG

🟡 TAF LFOT 271100Z 2712/2812 04008KT CAVOK</description>
<pubDate>2026-04-27 12:05:25 UTC</pubDate>
</item>

</channel>
</rss>
