<?xml version="1.0" encoding="UTF-8"?>
<rss version="2.0">
<channel>
<title>METAR LFOT</title>
<lastBuildDate>2026-06-21 07:03:01 UTC</lastBuildDate>

<item>
<title>LFOT METAR/TAF</title>
<description>🟢 METAR LFOT 210630Z AUTO 07006KT CAVOK 24/18 Q1022 NOSIG

🟡 TAF LFOT 210500Z 2106/2206 06005KT CAVOK</description>
<pubDate>2026-06-21 07:03:01 UTC</pubDate>
</item>

</channel>
</rss>
