<?xml version="1.0" encoding="UTF-8"?>
<rss version="2.0">
<channel>
<title>METAR LFOT</title>

<item>
<title>LFOT METAR/TAF</title>
<description>🟢 METAR LFOT 212200Z AUTO 06012KT CAVOK 10/03 Q1016 TEMPO 06015G25KT

🟡 TAF LFOT 211700Z 2118/2218 06013KT CAVOK PROB30 TEMPO 2118/2202 06015G25KT
</description>
</item>

</channel>
</rss>