<?xml version="1.0" encoding="UTF-8"?>
<rss version="2.0">
<channel>
<title>METAR LFOT</title>
<lastBuildDate>2026-04-27 19:59:34 UTC</lastBuildDate>

<item>
<title>LFOT METAR/TAF</title>
<description>🟢 METAR LFOT 271930Z AUTO 02007KT CAVOK 16/05 Q1018 NOSIG

🟡 TAF LFOT 271700Z 2718/2818 01006KT CAVOK</description>
<pubDate>2026-04-27 19:59:34 UTC</pubDate>
</item>

</channel>
</rss>
