<?xml version="1.0" encoding="UTF-8"?>
<rss version="2.0">
<channel>
<title>METAR LFOT</title>
<lastBuildDate>2026-06-02 14:05:30 UTC</lastBuildDate>

<item>
<title>LFOT METAR/TAF</title>
<description>🟢 METAR LFOT 021400Z AUTO 28013KT 9999 SCT046 SCT056 BKN074 21/12 Q1010 TEMPO 26015G30KT 4000 -TSRAGS BKN030CB

🟡 TAF LFOT 021100Z 0212/0312 26015KT 9999 BKN030 PROB40 TEMPO 0212/0222 26015G30KT 4000 -TSRAGS BKN030CB</description>
<pubDate>2026-06-02 14:05:30 UTC</pubDate>
</item>

</channel>
</rss>
