<?xml version="1.0" encoding="UTF-8"?>
<rss version="2.0">
<channel>
<title>METAR LFOT</title>
<lastBuildDate>2026-04-28 07:05:22 UTC</lastBuildDate>

<item>
<title>LFOT METAR/TAF</title>
<description>🟢 METAR LFOT 280700Z AUTO 04005KT 360V080 CAVOK 12/06 Q1017 NOSIG

🟡 TAF LFOT 280500Z 2806/2906 03008KT CAVOK PROB30 TEMPO 2820/2823 SCT090TCU</description>
<pubDate>2026-04-28 07:05:22 UTC</pubDate>
</item>

</channel>
</rss>
