<?xml version="1.0" encoding="UTF-8"?>
<rss version="2.0">
<channel>
<title>METAR LFOT</title>
<lastBuildDate>2026-04-23 10:40:25 UTC</lastBuildDate>

<item>
<title>LFOT METAR/TAF</title>
<description>🟢 METAR LFOT 231030Z AUTO 07011KT 040V100 CAVOK 18/04 Q1023 NOSIG

🟡 TAF LFOT 230500Z 2306/2406 07011KT CAVOK</description>
<pubDate>2026-04-23 10:40:25 UTC</pubDate>
</item>

</channel>
</rss>
