<?xml version="1.0" encoding="UTF-8"?>
<rss version="2.0">
<channel>
<title>METAR LFOT</title>
<lastBuildDate>2026-07-21 04:05:30 UTC</lastBuildDate>

<item>
<title>LFOT METAR/TAF</title>
<description>🟢 METAR LFOT 210400Z AUTO 04006KT 360V100 CAVOK 15/08 Q1023 NOSIG

🟡 TAF LFOT 202300Z 2100/2124 05010KT CAVOK</description>
<pubDate>2026-07-21 04:05:30 UTC</pubDate>
</item>

</channel>
</rss>
