<?xml version="1.0" encoding="UTF-8"?>
<rss version="2.0">
<channel>
<title>METAR LFOT</title>
<lastBuildDate>2026-05-28 07:05:23 UTC</lastBuildDate>

<item>
<title>LFOT METAR/TAF</title>
<description>🟢 METAR LFOT 280630Z AUTO VRB03KT CAVOK 22/17 Q1021 NOSIG

🟡 TAF LFOT 280500Z 2806/2906 VRB04KT CAVOK</description>
<pubDate>2026-05-28 07:05:23 UTC</pubDate>
</item>

</channel>
</rss>
