<?xml version="1.0" encoding="UTF-8"?>
<rss version="2.0">
<channel>
<title>METAR LFOT</title>
<lastBuildDate>2026-06-27 18:05:31 UTC</lastBuildDate>

<item>
<title>LFOT METAR/TAF</title>
<description>🟢 METAR LFOT 271800Z AUTO 32010KT 290V360 9999 -TSRA FEW027/// BKN052/// BKN070/// ///CB 25/20 Q1015 BECMG NSW NSC

🟡 TAF LFOT 271700Z 2718/2818 31008KT CAVOK PROB40 TEMPO 2718/2721 VRB15G40KT 2000 TSGRRA BKN070CB PROB30 TEMPO 2802/2806 -SHRA FEW100TCU PROB30 TEMPO 2809/2816 4000 -TSRA SCT100CB</description>
<pubDate>2026-06-27 18:05:31 UTC</pubDate>
</item>

</channel>
</rss>
