<?xml version="1.0" encoding="UTF-8"?>
<rss version="2.0">
<channel>
<title>METAR LFOT</title>
<lastBuildDate>2026-07-11 10:35:31 UTC</lastBuildDate>

<item>
<title>LFOT METAR/TAF</title>
<description>🟢 METAR LFOT 111030Z AUTO VRB04KT CAVOK 31/16 Q1015 TEMPO 4000 -TSRA SCT100CB

🟡 TAF AMD LFOT 110921Z 1109/1206 05003KT CAVOK PROB40 TEMPO 1110/1113 4000 -TSRA SCT100CB PROB30 TEMPO 1116/1120 VRB15G30KT 4000 -TSRA SCT100CB BECMG 1110/1112 11005KT BECMG 1120/1122 04008KT</description>
<pubDate>2026-07-11 10:35:31 UTC</pubDate>
</item>

</channel>
</rss>
