<?xml version="1.0" encoding="UTF-8"?>
<rss version="2.0">
<channel>
<title>METAR LFOT</title>
<lastBuildDate>2026-07-21 10:35:34 UTC</lastBuildDate>

<item>
<title>LFOT METAR/TAF</title>
<description>🟢 METAR LFOT 211030Z AUTO 03010G21KT 350V070 CAVOK 23/07 Q1025 NOSIG

🟡 TAF LFOT 210500Z 2106/2206 04012KT CAVOK</description>
<pubDate>2026-07-21 10:35:34 UTC</pubDate>
</item>

</channel>
</rss>
