<?xml version="1.0" encoding="UTF-8"?>
<rss version="2.0">
<channel>
<title>METAR LFOT</title>
<lastBuildDate>2026-06-16 05:35:40 UTC</lastBuildDate>

<item>
<title>LFOT METAR/TAF</title>
<description>🟢 METAR LFOT 160530Z AUTO 24010KT CAVOK 19/12 Q1015 NOSIG

🟡 TAF LFOT 160500Z 1606/1706 27005KT CAVOK</description>
<pubDate>2026-06-16 05:35:40 UTC</pubDate>
</item>

</channel>
</rss>
