<?xml version="1.0" encoding="UTF-8"?>
<rss version="2.0">
<channel>
<title>METAR LFOT</title>
<lastBuildDate>2026-07-02 11:35:37 UTC</lastBuildDate>

<item>
<title>LFOT METAR/TAF</title>
<description>🟢 METAR LFOT 021130Z AUTO 28009KT 210V340 CAVOK 25/15 Q1026 NOSIG

🟡 TAF LFOT 021100Z 0212/0312 31010KT CAVOK PROB40 TEMPO 0215/0219 33012G25KT BECMG 0303/0306 01005KT</description>
<pubDate>2026-07-02 11:35:37 UTC</pubDate>
</item>

</channel>
</rss>
