<?xml version="1.0" encoding="UTF-8"?>
<rss version="2.0">
<channel>
<title>METAR LFOT</title>
<lastBuildDate>2026-05-31 16:13:17 UTC</lastBuildDate>

<item>
<title>LFOT METAR/TAF</title>
<description>🟢 METAR LFOT 311600Z AUTO 30007KT 270V330 9999 FEW044/// 23/14 Q1020 NOSIG

🟡 TAF LFOT 311100Z 3112/0112 30008KT CAVOK BECMG 0104/0106 VRB03KT</description>
<pubDate>2026-05-31 16:13:17 UTC</pubDate>
</item>

</channel>
</rss>
