<?xml version="1.0" encoding="UTF-8"?>
<rss version="2.0">
<channel>
<title>METAR LFOT</title>
<lastBuildDate>2026-05-27 04:35:21 UTC</lastBuildDate>

<item>
<title>LFOT METAR/TAF</title>
<description>🟢 METAR LFOT 270330Z AUTO 07006KT CAVOK 19/16 Q1022 NOSIG

🟡 TAF LFOT 262300Z 2700/2724 07006KT CAVOK PROB30 TEMPO 2714/2718 VRB10G25KT 4000 -TSRA FEW090CB</description>
<pubDate>2026-05-27 04:35:21 UTC</pubDate>
</item>

</channel>
</rss>
