<?xml version="1.0" encoding="UTF-8"?>
<rss version="2.0">
<channel>
<title>METAR LFOT</title>
<lastBuildDate>2026-06-01 11:35:26 UTC</lastBuildDate>

<item>
<title>LFOT METAR/TAF</title>
<description>🟢 METAR LFOT 011130Z AUTO 25003KT 210V280 9999 FEW036/// 23/14 Q1018 NOSIG

🟡 TAF LFOT 010500Z 0106/0206 VRB03KT CAVOK BECMG 0203/0206 21010KT</description>
<pubDate>2026-06-01 11:35:26 UTC</pubDate>
</item>

</channel>
</rss>
