<?xml version="1.0" encoding="UTF-8"?>
<rss version="2.0">
<channel>
<title>METAR LFOT</title>
<lastBuildDate>2026-06-20 08:35:36 UTC</lastBuildDate>

<item>
<title>LFOT METAR/TAF</title>
<description>🟢 METAR LFOT 200830Z AUTO 18006KT 150V220 CAVOK 27/18 Q1019 TEMPO -TSRA SCT090CB

🟡 TAF LFOT 200500Z 2006/2106 28008KT CAVOK PROB30 TEMPO 2006/2007 SCT100TCU PROB30 TEMPO 2007/2011 VRB10G20KT -TSRA SCT090CB BECMG 2020/2024 07010KT TEMPO 2103/2106 VRB03KT</description>
<pubDate>2026-06-20 08:35:36 UTC</pubDate>
</item>

</channel>
</rss>
