<?xml version="1.0" encoding="UTF-8"?>
<rss version="2.0">
<channel>
<title>METAR LFOT</title>
<lastBuildDate>2026-05-08 17:05:28 UTC</lastBuildDate>

<item>
<title>LFOT METAR/TAF</title>
<description>🟢 METAR LFOT 081630Z AUTO 05008KT 010V080 CAVOK 21/10 Q1012 TEMPO FEW050TCU

🟡 TAF LFOT 081100Z 0812/0912 08010KT CAVOK PROB30 TEMPO 0815/0818 -SHRA FEW050TCU</description>
<pubDate>2026-05-08 17:05:28 UTC</pubDate>
</item>

</channel>
</rss>
