<?xml version="1.0" encoding="UTF-8"?>
<rss version="2.0">
<channel>
<title>METAR LFOT</title>
<lastBuildDate>2026-05-19 05:05:22 UTC</lastBuildDate>

<item>
<title>LFOT METAR/TAF</title>
<description>🟢 METAR LFOT 190500Z AUTO 16004KT 9999 OVC047 11/10 Q1016 TEMPO 4000 BKN012

🟡 TAF LFOT 182300Z 1900/1924 20005KT CAVOK TEMPO 1902/1918 -RA PROB30 TEMPO 1904/1913 4000 BKN012 TEMPO 1912/1918 22012G25KT</description>
<pubDate>2026-05-19 05:05:22 UTC</pubDate>
</item>

</channel>
</rss>
