<?xml version="1.0" encoding="UTF-8"?>
<rss version="2.0">
<channel>
<title>METAR LFOT</title>
<lastBuildDate>2026-05-25 08:05:22 UTC</lastBuildDate>

<item>
<title>LFOT METAR/TAF</title>
<description>🟢 METAR LFOT 250730Z AUTO 06007KT 030V090 CAVOK 23/18 Q1028 NOSIG

🟡 TAF LFOT 250500Z 2506/2606 07008KT CAVOK</description>
<pubDate>2026-05-25 08:05:22 UTC</pubDate>
</item>

</channel>
</rss>
