<?xml version="1.0" encoding="UTF-8"?>
<rss version="2.0">
<channel>
<title>METAR LFOT</title>
<lastBuildDate>2026-05-13 16:05:31 UTC</lastBuildDate>

<item>
<title>LFOT METAR/TAF</title>
<description>🟢 METAR LFOT 131600Z AUTO 26013G23KT 230V290 9999 FEW024 SCT066 OVC078 14/06 Q1008 TEMPO 4000 SHRA BKN020TCU

🟡 TAF LFOT 131100Z 1312/1412 26015KT 9999 BKN030 TEMPO 1315/1318 26015G30KT PROB40 TEMPO 1316/1319 26015G25KT 4000 SHRA BKN020TCU PROB40 TEMPO 1410/1412 4000 SHRA BKN020CB</description>
<pubDate>2026-05-13 16:05:31 UTC</pubDate>
</item>

</channel>
</rss>
