<?xml version="1.0" encoding="UTF-8"?>
<rss version="2.0">
<channel>
<title>METAR LFOT</title>
<lastBuildDate>2026-05-12 08:05:29 UTC</lastBuildDate>

<item>
<title>LFOT METAR/TAF</title>
<description>🟢 METAR LFOT 120800Z AUTO 12003KT 070V160 9999 OVC014 11/08 Q1018 TEMPO BKN025

🟡 TAF AMD LFOT 120742Z 1207/1306 30004KT CAVOK TEMPO 1207/1209 BKN012 PROB30 TEMPO 1209/1212 -SHRA BKN025</description>
<pubDate>2026-05-12 08:05:29 UTC</pubDate>
</item>

</channel>
</rss>
