<?xml version="1.0" encoding="UTF-8"?>
<rss version="2.0">
<channel>
<title>METAR LFOT</title>
<lastBuildDate>2026-04-22 17:17:20 UTC</lastBuildDate>

<item>
<title>LFOT METAR/TAF</title>
<description>🟢 METAR LFOT 221700Z AUTO 06011KT CAVOK 17/06 Q1018 NOSIG

🟡 TAF LFOT 221100Z 2212/2312 07013KT CAVOK TEMPO 2212/2214 07015G25KT</description>
<pubDate>2026-04-22 17:17:20 UTC</pubDate>
</item>

</channel>
</rss>
