<?xml version="1.0" encoding="UTF-8"?>
<rss version="2.0">
<channel>
<title>METAR LFOT</title>
<lastBuildDate>2026-06-04 23:39:30 UTC</lastBuildDate>

<item>
<title>LFOT METAR/TAF</title>
<description>🟢 METAR LFOT 042330Z AUTO 24007KT CAVOK 12/08 Q1014 NOSIG

🟡 TAF LFOT 042300Z 0500/0524 25008KT CAVOK</description>
<pubDate>2026-06-04 23:39:30 UTC</pubDate>
</item>

</channel>
</rss>
