<?xml version="1.0" encoding="UTF-8"?>
<rss version="2.0">
<channel>
<title>METAR LFOT</title>
<lastBuildDate>2026-07-04 23:38:46 UTC</lastBuildDate>

<item>
<title>LFOT METAR/TAF</title>
<description>🟢 METAR LFOT 042330Z AUTO 34005KT CAVOK 21/14 Q1027 NOSIG

🟡 TAF LFOT 041700Z 0418/0518 34007KT CAVOK</description>
<pubDate>2026-07-04 23:38:46 UTC</pubDate>
</item>

</channel>
</rss>
