<?xml version="1.0" encoding="UTF-8"?>
<rss version="2.0">
<channel>
<title>METAR LFOT</title>
<lastBuildDate>2026-06-29 18:35:33 UTC</lastBuildDate>

<item>
<title>LFOT METAR/TAF</title>
<description>🟢 METAR LFOT 291830Z AUTO 35004KT 320V050 CAVOK 27/13 Q1023 NOSIG

🟡 TAF LFOT 291700Z 2918/3018 36006KT CAVOK</description>
<pubDate>2026-06-29 18:35:33 UTC</pubDate>
</item>

</channel>
</rss>
