<?xml version="1.0" encoding="UTF-8"?>
<rss version="2.0">
<channel>
<title>METAR LFOT</title>
<lastBuildDate>2026-05-16 04:35:17 UTC</lastBuildDate>

<item>
<title>LFOT METAR/TAF</title>
<description>🟢 METAR LFOT 160430Z AUTO 27003KT CAVOK 04/04 Q1011 TEMPO 4000 BR

🟡 TAF LFOT 152300Z 1600/1624 29003KT CAVOK PROB30 TEMPO 1602/1606 4000 BR</description>
<pubDate>2026-05-16 04:35:17 UTC</pubDate>
</item>

</channel>
</rss>
