<?xml version="1.0" encoding="UTF-8"?>
<rss version="2.0">
<channel>
<title>METAR LFOT</title>
<lastBuildDate>2026-06-12 18:29:31 UTC</lastBuildDate>

<item>
<title>LFOT METAR/TAF</title>
<description>🟢 METAR LFOT 121800Z AUTO 29007KT 250V320 CAVOK 26/15 Q1026 NOSIG

🟡 TAF LFOT 121700Z 1218/1318 27009KT CAVOK BECMG 1301/1303 VRB03KT PROB30 TEMPO 1304/1305 4000 BR PROB40 TEMPO 1305/1307 BKN008</description>
<pubDate>2026-06-12 18:29:31 UTC</pubDate>
</item>

</channel>
</rss>
