<?xml version="1.0" encoding="UTF-8"?>
<rss version="2.0">
<channel>
<title>METAR LFOT</title>
<lastBuildDate>2026-06-12 13:52:00 UTC</lastBuildDate>

<item>
<title>LFOT METAR/TAF</title>
<description>🟢 METAR LFOT 121330Z AUTO 26008KT 210V300 9999 FEW034 25/15 Q1027 NOSIG

🟡 TAF LFOT 121100Z 1212/1312 27008KT CAVOK PROB30 TEMPO 1305/1307 4000 BR BKN005</description>
<pubDate>2026-06-12 13:52:00 UTC</pubDate>
</item>

</channel>
</rss>
