<?xml version="1.0" encoding="UTF-8"?>
<rss version="2.0">
<channel>
<title>METAR LFOT</title>
<lastBuildDate>2026-06-28 01:36:39 UTC</lastBuildDate>

<item>
<title>LFOT METAR/TAF</title>
<description>🟢 METAR LFOT 280130Z AUTO 29004KT CAVOK 22/18 Q1017 TEMPO FEW090TCU

🟡 TAF LFOT 272300Z 2800/2824 VRB04KT CAVOK PROB30 TEMPO 2802/2805 -SHRA FEW090TCU PROB40 TEMPO 2811/2820 30010KT -SHRA SCT080CB PROB30 TEMPO 2812/2819 4000 -TSRA BECMG 2820/2823 33008KT</description>
<pubDate>2026-06-28 01:36:39 UTC</pubDate>
</item>

</channel>
</rss>
