<?xml version="1.0" encoding="UTF-8"?>
<rss version="2.0">
<channel>
<title>METAR LFOT</title>
<lastBuildDate>2026-05-18 05:35:27 UTC</lastBuildDate>

<item>
<title>LFOT METAR/TAF</title>
<description>🟢 METAR LFOT 180530Z AUTO 21003KT 9999 FEW031 SCT056 BKN070 10/08 Q1015 NOSIG

🟡 TAF LFOT 180500Z 1806/1906 23005KT 9999 BKN029 OVC034 PROB40 TEMPO 1810/1818 4000 -SHRA SCT025TCU PROB40 TEMPO 1902/1906 4000 -RA</description>
<pubDate>2026-05-18 05:35:27 UTC</pubDate>
</item>

</channel>
</rss>
