<?xml version="1.0" encoding="UTF-8"?>
<rss version="2.0">
<channel>
<title>METAR LFOT</title>
<lastBuildDate>2026-07-13 21:26:53 UTC</lastBuildDate>

<item>
<title>LFOT METAR/TAF</title>
<description>🟢 METAR LFOT 132100Z AUTO 22008KT CAVOK 30/17 Q1013 NOSIG

🟡 TAF LFOT 131700Z 1318/1418 20008KT CAVOK PROB30 TEMPO 1318/1319 VRB15G25KT -TSRA FEW090CB</description>
<pubDate>2026-07-13 21:26:53 UTC</pubDate>
</item>

</channel>
</rss>
