<?xml version="1.0" encoding="UTF-8"?>
<rss version="2.0">
<channel>
<title>METAR LFOT</title>
<lastBuildDate>2026-07-14 07:05:35 UTC</lastBuildDate>

<item>
<title>LFOT METAR/TAF</title>
<description>🟢 METAR LFOT 140700Z AUTO 08003KT 030V110 CAVOK 25/16 Q1016 NOSIG

🟡 TAF LFOT 140500Z 1406/1506 25004KT CAVOK</description>
<pubDate>2026-07-14 07:05:35 UTC</pubDate>
</item>

</channel>
</rss>
