<?xml version="1.0" encoding="UTF-8"?>
<rss version="2.0">
<channel>
<title>METAR LFOT</title>
<lastBuildDate>2026-06-18 21:07:41 UTC</lastBuildDate>

<item>
<title>LFOT METAR/TAF</title>
<description>🟢 METAR LFOT 182100Z AUTO 13002KT CAVOK 24/18 Q1014 NOSIG

🟡 TAF AMD LFOT 182007Z 1820/1918 30002KT CAVOK PROB30 TEMPO 1916/1918 27015G30KT 4000 -TSRA SCT100CB</description>
<pubDate>2026-06-18 21:07:41 UTC</pubDate>
</item>

</channel>
</rss>
