<?xml version="1.0" encoding="UTF-8"?>
<rss version="2.0">
<channel>
<title>METAR LFOT</title>
<lastBuildDate>2026-06-07 06:17:26 UTC</lastBuildDate>

<item>
<title>LFOT METAR/TAF</title>
<description>🟢 METAR LFOT 070600Z AUTO VRB03KT CAVOK 13/09 Q1025 NOSIG

🟡 TAF LFOT 070500Z 0706/0806 24006KT CAVOK PROB40 TEMPO 0803/0806 -SHRA SCT055TCU</description>
<pubDate>2026-06-07 06:17:26 UTC</pubDate>
</item>

</channel>
</rss>
