<?xml version="1.0" encoding="UTF-8"?>
<rss version="2.0">
<channel>
<title>METAR LFOT</title>
<lastBuildDate>2026-07-23 16:47:53 UTC</lastBuildDate>

<item>
<title>LFOT METAR/TAF</title>
<description>🟢 METAR LFOT 231630Z AUTO 04009KT 360V080 CAVOK 27/09 Q1019 NOSIG

🟡 TAF LFOT 231100Z 2312/2412 03010KT CAVOK</description>
<pubDate>2026-07-23 16:47:53 UTC</pubDate>
</item>

</channel>
</rss>
