<?xml version="1.0" encoding="UTF-8"?>
<rss version="2.0">
<channel>
<title>METAR LFOT</title>
<lastBuildDate>2026-06-30 04:35:35 UTC</lastBuildDate>

<item>
<title>LFOT METAR/TAF</title>
<description>🟢 METAR LFOT 300430Z AUTO 04005KT 360V090 CAVOK 16/11 Q1023 NOSIG

🟡 TAF indisponible</description>
<pubDate>2026-06-30 04:35:35 UTC</pubDate>
</item>

</channel>
</rss>
