<?xml version="1.0" encoding="UTF-8"?>
<rss version="2.0">
<channel>
<title>METAR LFOT</title>
<lastBuildDate>2026-07-01 09:35:36 UTC</lastBuildDate>

<item>
<title>LFOT METAR/TAF</title>
<description>🟢 METAR LFOT 010930Z AUTO 31009KT 260V360 9999 SCT037 22/12 Q1026 NOSIG

🟡 TAF LFOT 010500Z 0106/0206 34008KT CAVOK</description>
<pubDate>2026-07-01 09:35:36 UTC</pubDate>
</item>

</channel>
</rss>
