<?xml version="1.0" encoding="UTF-8"?>
<rss version="2.0">
<channel>
<title>METAR LFOT</title>
<lastBuildDate>2026-06-17 10:05:33 UTC</lastBuildDate>

<item>
<title>LFOT METAR/TAF</title>
<description>🟢 METAR LFOT 170930Z AUTO VRB03KT CAVOK 27/16 Q1020 NOSIG

🟡 TAF LFOT 170500Z 1706/1806 VRB03KT CAVOK BECMG 1722/1724 04005KT</description>
<pubDate>2026-06-17 10:05:33 UTC</pubDate>
</item>

</channel>
</rss>
