<?xml version="1.0" encoding="UTF-8"?>
<rss version="2.0">
<channel>
<title>METAR LFOT</title>
<lastBuildDate>2026-05-07 07:35:21 UTC</lastBuildDate>

<item>
<title>LFOT METAR/TAF</title>
<description>🟢 METAR LFOT 070730Z AUTO 08005KT 050V120 CAVOK 12/08 Q1015 NOSIG

🟡 TAF LFOT 070500Z 0706/0806 VRB03KT CAVOK</description>
<pubDate>2026-05-07 07:35:21 UTC</pubDate>
</item>

</channel>
</rss>
