<?xml version="1.0" encoding="UTF-8"?>
<rss version="2.0">
<channel>
<title>METAR LFOT</title>
<lastBuildDate>2026-05-03 14:15:21 UTC</lastBuildDate>

<item>
<title>LFOT METAR/TAF</title>
<description>🟢 METAR LFOT 031400Z AUTO 18006KT 9999 -RA FEW033/// SCT068/// BKN080/// ///TCU 15/14 Q1012 TEMPO 2000 TSRAGS BKN030CB

🟡 TAF AMD LFOT 031121Z 0312/0412 20008KT 9999 FEW010 SCT025 TEMPO 0312/0319 4000 TSRA BKN030CB PROB30 TEMPO 0313/0319 2000 TSRAGS PROB40 TEMPO 0402/0406 4000 -SHRA BKN040TCU PROB30 TEMPO 0404/0406 BKN006 BKN030</description>
<pubDate>2026-05-03 14:15:21 UTC</pubDate>
</item>

</channel>
</rss>
