<?xml version="1.0" encoding="UTF-8"?>
<rss version="2.0">
<channel>
<title>METAR LFOT</title>
<lastBuildDate>2026-06-17 12:35:37 UTC</lastBuildDate>

<item>
<title>LFOT METAR/TAF</title>
<description>🟢 METAR LFOT 171200Z AUTO VRB03KT CAVOK 30/14 Q1020 NOSIG

🟡 TAF LFOT 171100Z 1712/1812 VRB03KT CAVOK BECMG 1722/1724 04005KT</description>
<pubDate>2026-06-17 12:35:37 UTC</pubDate>
</item>

</channel>
</rss>
