<?xml version="1.0" encoding="UTF-8"?>
<rss version="2.0">
<channel>
<title>METAR LFOT</title>
<lastBuildDate>2026-07-04 12:40:36 UTC</lastBuildDate>

<item>
<title>LFOT METAR/TAF</title>
<description>🟢 METAR LFOT 041230Z AUTO 36006G16KT 270V070 CAVOK 29/02 Q1028 NOSIG

🟡 TAF LFOT 041100Z 0412/0512 36006KT CAVOK</description>
<pubDate>2026-07-04 12:40:36 UTC</pubDate>
</item>

</channel>
</rss>
