<?xml version="1.0" encoding="UTF-8"?>
<rss version="2.0">
<channel>
<title>METAR LFOT</title>
<lastBuildDate>2026-07-15 12:35:34 UTC</lastBuildDate>

<item>
<title>LFOT METAR/TAF</title>
<description>🟢 METAR LFOT 151230Z AUTO 09009KT 050V110 CAVOK 33/15 Q1016 NOSIG

🟡 TAF LFOT 151100Z 1512/1612 VRB05KT CAVOK BECMG 1515/1517 04012KT TEMPO 1516/1519 04015G30KT -TSRA SCT080CB PROB30 TEMPO 1517/1519 04015G40KT 3000 -TSRAGR BKN060CB BECMG 1519/1521 VRB04KT PROB40 1520/1606 4000 BR PROB30 TEMPO 1610/1612 VRB10G25KT -TSRA SCT100CB</description>
<pubDate>2026-07-15 12:35:34 UTC</pubDate>
</item>

</channel>
</rss>
