<?xml version="1.0" encoding="UTF-8"?>
<rss version="2.0">
<channel>
<title>METAR LFOT</title>
<lastBuildDate>2026-05-15 10:35:27 UTC</lastBuildDate>

<item>
<title>LFOT METAR/TAF</title>
<description>🟢 METAR LFOT 151030Z AUTO 33006KT 300V030 9999 SCT038 BKN058 BKN072 13/04 Q1008 TEMPO 4000 -SHRA BKN030TCU

🟡 TAF LFOT 150500Z 1506/1606 35005KT CAVOK TEMPO 1512/1521 4000 -SHRA BKN030TCU PROB30 TEMPO 1513/1518 VRB15G25KT 2000 -TSRA BKN030CB BECMG 1518/1521 26005KT PROB30 TEMPO 1605/1606 4000 BR</description>
<pubDate>2026-05-15 10:35:27 UTC</pubDate>
</item>

</channel>
</rss>
