<?xml version="1.0" encoding="UTF-8"?>
<rss version="2.0">
<channel>
<title>METAR LFOT</title>
<lastBuildDate>2026-06-10 00:05:43 UTC</lastBuildDate>

<item>
<title>LFOT METAR/TAF</title>
<description>🟢 METAR LFOT 100000Z AUTO 25005KT 220V290 CAVOK 13/09 Q1020 NOSIG

🟡 TAF LFOT 092300Z 1000/1024 30004KT CAVOK BECMG 1012/1014 29014KT</description>
<pubDate>2026-06-10 00:05:43 UTC</pubDate>
</item>

</channel>
</rss>
