<?xml version="1.0" encoding="UTF-8"?>
<rss version="2.0">
<channel>
<title>METAR LFOT</title>
<lastBuildDate>2026-06-21 16:47:09 UTC</lastBuildDate>

<item>
<title>LFOT METAR/TAF</title>
<description>🟢 METAR LFOT 211630Z AUTO 07005KT 360V110 CAVOK 37/15 Q1021 NOSIG

🟡 TAF LFOT 211100Z 2112/2212 09007KT CAVOK</description>
<pubDate>2026-06-21 16:47:09 UTC</pubDate>
</item>

</channel>
</rss>
