<?xml version="1.0" encoding="UTF-8"?>
<rss version="2.0">
<channel>
<title>METAR LFOT</title>
<lastBuildDate>2026-05-22 07:05:23 UTC</lastBuildDate>

<item>
<title>LFOT METAR/TAF</title>
<description>🟢 METAR LFOT 220630Z AUTO 08005KT CAVOK 17/14 Q1026 NOSIG

🟡 TAF LFOT 220500Z 2206/2306 09005KT CAVOK</description>
<pubDate>2026-05-22 07:05:23 UTC</pubDate>
</item>

</channel>
</rss>
