<?xml version="1.0" encoding="UTF-8"?>
<rss version="2.0">
<channel>
<title>METAR LFOT</title>
<lastBuildDate>2026-06-07 14:57:47 UTC</lastBuildDate>

<item>
<title>LFOT METAR/TAF</title>
<description>🟢 METAR LFOT 071430Z AUTO VRB03KT CAVOK 22/09 Q1023 BECMG FEW030TCU

🟡 TAF AMD LFOT 071440Z 0714/0812 VRB03KT 9999 FEW030 BECMG 0806/0808 28010KT PROB30 TEMPO 0806/0809 -SHRA FEW050TCU</description>
<pubDate>2026-06-07 14:57:47 UTC</pubDate>
</item>

</channel>
</rss>
