<?xml version="1.0" encoding="UTF-8"?>
<rss version="2.0">
<channel>
<title>METAR LFOT</title>
<lastBuildDate>2026-06-29 17:55:13 UTC</lastBuildDate>

<item>
<title>LFOT METAR/TAF</title>
<description>🟢 METAR LFOT 291730Z AUTO 33004KT 280V040 CAVOK 28/14 Q1024 NOSIG

🟡 TAF LFOT 291700Z 2918/3018 36006KT CAVOK</description>
<pubDate>2026-06-29 17:55:13 UTC</pubDate>
</item>

</channel>
</rss>
