<?xml version="1.0" encoding="UTF-8"?>
<rss version="2.0">
<channel>
<title>METAR LFOT</title>
<lastBuildDate>2026-06-03 18:05:35 UTC</lastBuildDate>

<item>
<title>LFOT METAR/TAF</title>
<description>🟢 METAR LFOT 031800Z AUTO 22012KT 180V260 6000 -RADZ OVC006 18/17 Q1010 TEMPO 22015G30KT 4000 -RADZ

🟡 TAF LFOT 031700Z 0318/0418 22015KT 9999 BKN020 PROB40 TEMPO 0318/0321 22015G30KT 4000 -RADZ BKN008 PROB30 TEMPO 0403/0406 4000 -RADZ BKN012 TEMPO 0409/0418 25015G30KT 4000 -SHRA BKN030TCU</description>
<pubDate>2026-06-03 18:05:35 UTC</pubDate>
</item>

</channel>
</rss>
