<?xml version="1.0" encoding="UTF-8"?>
<rss version="2.0">
<channel>
<title>METAR LFOT</title>
<lastBuildDate>2026-07-12 21:13:02 UTC</lastBuildDate>

<item>
<title>LFOT METAR/TAF</title>
<description>🟢 METAR LFOT 122100Z AUTO 06012KT CAVOK 31/10 Q1013 NOSIG

🟡 TAF LFOT 121700Z 1218/1318 06010KT CAVOK TEMPO 1221/1305 07012G25KT BECMG 1308/1310 35008KT PROB30 TEMPO 1309/1311 VRB15G25KT -TSRA FEW120CB PROB30 TEMPO 1316/1318 -TSRA FEW100CB</description>
<pubDate>2026-07-12 21:13:02 UTC</pubDate>
</item>

</channel>
</rss>
