<?xml version="1.0" encoding="UTF-8"?>
<rss version="2.0">
<channel>
<title>METAR LFOT</title>
<lastBuildDate>2026-05-20 05:05:22 UTC</lastBuildDate>

<item>
<title>LFOT METAR/TAF</title>
<description>🟢 METAR LFOT 200500Z AUTO 21006KT 9000 OVC034 13/12 Q1022 TEMPO BKN014

🟡 TAF LFOT 192300Z 2000/2024 23008KT 9999 SCT030 PROB40 TEMPO 2000/2006 BKN014 BECMG 2019/2022 VRB03KT</description>
<pubDate>2026-05-20 05:05:22 UTC</pubDate>
</item>

</channel>
</rss>
