<?xml version="1.0" encoding="UTF-8"?>
<rss version="2.0">
<channel>
<title>METAR LFOT</title>
<lastBuildDate>2026-05-08 23:37:53 UTC</lastBuildDate>

<item>
<title>LFOT METAR/TAF</title>
<description>🟢 METAR LFOT 082330Z AUTO 07005KT CAVOK 12/08 Q1014 NOSIG

🟡 TAF LFOT 082300Z 0900/0924 06008KT CAVOK TEMPO 0922/0924 4000 SHRA BKN060TCU</description>
<pubDate>2026-05-08 23:37:53 UTC</pubDate>
</item>

</channel>
</rss>
