<?xml version="1.0" encoding="UTF-8"?>
<rss version="2.0">
<channel>
<title>METAR LFOT</title>
<lastBuildDate>2026-05-11 06:05:25 UTC</lastBuildDate>

<item>
<title>LFOT METAR/TAF</title>
<description>🟢 METAR LFOT 110600Z AUTO 33007KT 300V010 9999 OVC006/// ///TCU 12/11 Q1007 TEMPO 4000 -RADZ BKN003

🟡 TAF LFOT 110500Z 1106/1206 23005KT 6000 -RA BKN006 TEMPO 1106/1109 4000 -RADZ BKN003 BECMG 1107/1110 01007KT 9999 NSW BKN012 BECMG 1111/1114 SCT030</description>
<pubDate>2026-05-11 06:05:25 UTC</pubDate>
</item>

</channel>
</rss>
