<?xml version="1.0" encoding="UTF-8"?>
<rss version="2.0">
<channel>
<title>METAR LFOT</title>
<lastBuildDate>2026-04-29 18:35:29 UTC</lastBuildDate>

<item>
<title>LFOT METAR/TAF</title>
<description>🟢 METAR LFOT 291830Z AUTO 07008KT CAVOK 21/12 Q1012 NOSIG

🟡 TAF LFOT 291700Z 2918/3018 09012KT CAVOK BECMG 3011/3013 15010KT BECMG 3013/3015 21008KT</description>
<pubDate>2026-04-29 18:35:29 UTC</pubDate>
</item>

</channel>
</rss>
