<?xml version="1.0" encoding="UTF-8"?>
<rss version="2.0">
<channel>
<title>METAR LFOT</title>
<lastBuildDate>2026-05-12 11:35:27 UTC</lastBuildDate>

<item>
<title>LFOT METAR/TAF</title>
<description>🟢 METAR LFOT 121130Z AUTO 01003KT 310V080 9999 SCT030 SCT036 BKN064 15/07 Q1017 NOSIG

🟡 TAF AMD LFOT 120742Z 1207/1306 30004KT CAVOK TEMPO 1207/1209 BKN012 PROB30 TEMPO 1209/1212 -SHRA BKN025</description>
<pubDate>2026-05-12 11:35:27 UTC</pubDate>
</item>

</channel>
</rss>
