<?xml version="1.0" encoding="UTF-8"?>
<rss version="2.0">
<channel>
<title>METAR LFOT</title>
<lastBuildDate>2026-05-16 22:32:27 UTC</lastBuildDate>

<item>
<title>LFOT METAR/TAF</title>
<description>🟢 METAR LFOT 162200Z AUTO 22006KT 200V260 CAVOK 12/07 Q1014 NOSIG

🟡 TAF LFOT 161700Z 1618/1718 26010KT CAVOK TEMPO 1703/1709 4000 -RA BKN009 TEMPO 1710/1716 4500 -SHRA SCT020TCU PROB30 TEMPO 1712/1715 20015G25KT 2500 SHRA BKN060CB</description>
<pubDate>2026-05-16 22:32:27 UTC</pubDate>
</item>

</channel>
</rss>
