<?xml version="1.0" encoding="UTF-8"?>
<rss version="2.0">
<channel>
<title>METAR LFOT</title>
<lastBuildDate>2026-06-23 05:35:33 UTC</lastBuildDate>

<item>
<title>LFOT METAR/TAF</title>
<description>🟢 METAR LFOT 230530Z AUTO 08008KT CAVOK 26/17 Q1018 NOSIG

🟡 TAF LFOT 230500Z 2306/2406 07005KT CAVOK</description>
<pubDate>2026-06-23 05:35:33 UTC</pubDate>
</item>

</channel>
</rss>
