<?xml version="1.0" encoding="UTF-8"?>
<rss version="2.0">
<channel>
<title>METAR LFOT</title>
<lastBuildDate>2026-07-06 13:27:06 UTC</lastBuildDate>

<item>
<title>LFOT METAR/TAF</title>
<description>🟢 METAR LFOT 061300Z AUTO 16004KT 110V210 CAVOK 34/11 Q1021 NOSIG

🟡 TAF LFOT 061100Z 0612/0712 VRB03KT CAVOK BECMG 0708/0710 27010KT</description>
<pubDate>2026-07-06 13:27:06 UTC</pubDate>
</item>

</channel>
</rss>
