<?xml version="1.0" encoding="UTF-8"?>
<rss version="2.0">
<channel>
<title>METAR LFOT</title>
<lastBuildDate>2026-05-25 21:02:01 UTC</lastBuildDate>

<item>
<title>LFOT METAR/TAF</title>
<description>🟢 METAR LFOT 252030Z AUTO 06006KT CAVOK 23/19 Q1027 NOSIG

🟡 TAF LFOT 251700Z 2518/2618 06008KT CAVOK</description>
<pubDate>2026-05-25 21:02:01 UTC</pubDate>
</item>

</channel>
</rss>
