<?xml version="1.0" encoding="UTF-8"?>
<rss version="2.0">
<channel>
<title>METAR LFOT</title>
<lastBuildDate>2026-05-10 17:38:25 UTC</lastBuildDate>

<item>
<title>LFOT METAR/TAF</title>
<description>🟢 METAR LFOT 101730Z AUTO 32008KT 290V350 9999 -RA ///TCU 13/12 Q1007 TEMPO 21020G30KT 3000 -TSRA SCT015 BKN030CB

🟡 TAF AMD LFOT 101644Z 1016/1112 09005KT CAVOK TEMPO 1016/1020 -SHRA BKN020TCU TEMPO 1016/1019 21020G30KT 3000 -TSRA SCT015 BKN030CB BECMG 1022/1024 20005KT 4500 -RA BKN009 BECMG 1106/1108 01007KT 9999 NSW BKN012 BECMG 1110/1112 CAVOK</description>
<pubDate>2026-05-10 17:38:25 UTC</pubDate>
</item>

</channel>
</rss>
