<?xml version="1.0" encoding="UTF-8"?>
<rss version="2.0">
<channel>
<title>METAR LFOT</title>
<lastBuildDate>2026-07-18 22:01:58 UTC</lastBuildDate>

<item>
<title>LFOT METAR/TAF</title>
<description>🟢 METAR LFOT 182130Z AUTO 01005KT 320V040 CAVOK 24/12 Q1017 NOSIG

🟡 TAF LFOT 181700Z 1818/1918 34005KT CAVOK BECMG 1820/1823 03010KT</description>
<pubDate>2026-07-18 22:01:58 UTC</pubDate>
</item>

</channel>
</rss>
