<?xml version="1.0" encoding="UTF-8"?>
<rss version="2.0">
<channel>
<title>METAR LFOT</title>
<lastBuildDate>2026-07-20 14:05:37 UTC</lastBuildDate>

<item>
<title>LFOT METAR/TAF</title>
<description>🟢 METAR LFOT 201400Z AUTO 04012KT 360V080 CAVOK 25/06 Q1021 NOSIG

🟡 TAF LFOT 201100Z 2012/2112 04012KT CAVOK</description>
<pubDate>2026-07-20 14:05:37 UTC</pubDate>
</item>

</channel>
</rss>
