<?xml version="1.0" encoding="UTF-8"?>
<rss version="2.0">
<channel>
<title>METAR LFOT</title>
<lastBuildDate>2026-05-30 10:05:23 UTC</lastBuildDate>

<item>
<title>LFOT METAR/TAF</title>
<description>🟢 METAR LFOT 301000Z AUTO VRB02KT 9999 NCD 30/17 Q1019 NOSIG

🟡 TAF LFOT 300500Z 3006/3106 13006KT CAVOK TEMPO 3017/3021 VRB15G40KT 3000 TSGRRA BKN080CB</description>
<pubDate>2026-05-30 10:05:23 UTC</pubDate>
</item>

</channel>
</rss>
