<?xml version="1.0" encoding="UTF-8"?>
<rss version="2.0">
<channel>
<title>METAR LFOT</title>
<lastBuildDate>2026-05-07 23:39:46 UTC</lastBuildDate>

<item>
<title>LFOT METAR/TAF</title>
<description>🟢 METAR LFOT 072330Z AUTO 08007KT CAVOK 11/08 Q1014 TEMPO SCT050TCU

🟡 TAF LFOT 072300Z 0800/0824 08006KT CAVOK PROB30 TEMPO 0801/0805 -SHRA SCT050TCU</description>
<pubDate>2026-05-07 23:39:46 UTC</pubDate>
</item>

</channel>
</rss>
