<?xml version="1.0" encoding="UTF-8"?>
<rss version="2.0">
<channel>
<title>METAR LFOT</title>
<lastBuildDate>2026-05-25 13:05:25 UTC</lastBuildDate>

<item>
<title>LFOT METAR/TAF</title>
<description>🟢 METAR LFOT 251230Z AUTO 07010KT 030V100 CAVOK 31/20 Q1027 NOSIG

🟡 TAF LFOT 251100Z 2512/2612 07008KT CAVOK</description>
<pubDate>2026-05-25 13:05:25 UTC</pubDate>
</item>

</channel>
</rss>
