<?xml version="1.0" encoding="UTF-8"?>
<rss version="2.0">
<channel>
<title>METAR LFOT</title>
<lastBuildDate>2026-05-26 07:35:25 UTC</lastBuildDate>

<item>
<title>LFOT METAR/TAF</title>
<description>🟢 METAR LFOT 260730Z AUTO 08005KT CAVOK 24/19 Q1026 NOSIG

🟡 TAF LFOT 260500Z 2606/2706 07005KT CAVOK</description>
<pubDate>2026-05-26 07:35:25 UTC</pubDate>
</item>

</channel>
</rss>
