<?xml version="1.0" encoding="UTF-8"?>
<rss version="2.0">
<channel>
<title>METAR LFOT</title>
<lastBuildDate>2026-06-27 08:05:34 UTC</lastBuildDate>

<item>
<title>LFOT METAR/TAF</title>
<description>🟢 METAR LFOT 270800Z AUTO VRB02KT CAVOK 26/15 Q1017 NOSIG

🟡 TAF AMD LFOT 270637Z 2706/2806 04008KT CAVOK BECMG 2708/2710 30008KT PROB40 TEMPO 2714/2717 28018G30KT 4000 -TSGSRA SCT090CB PROB30 TEMPO 2803/2806 26015G25KT 4000 -TSRA SCT090CB</description>
<pubDate>2026-06-27 08:05:34 UTC</pubDate>
</item>

</channel>
</rss>
