<?xml version="1.0" encoding="UTF-8"?>
<rss version="2.0">
<channel>
<title>METAR LFOT</title>

<item>
<title>LFOT METAR/TAF</title>
<description>🟢 METAR LFOT 200700Z AUTO 05010KT CAVOK 08/06 Q1019 NOSIG

🟡 TAF LFOT 200500Z 2006/2106 04010KT CAVOK BECMG 2009/2011 05010G20KT
</description>
</item>

</channel>
</rss>