<?xml version="1.0" encoding="UTF-8"?>
<rss version="2.0">
<channel>
<title>METAR LFOT</title>
<lastBuildDate>2026-07-05 15:23:38 UTC</lastBuildDate>

<item>
<title>LFOT METAR/TAF</title>
<description>🟢 METAR LFOT 051500Z AUTO 35006KT 300V040 CAVOK 32/11 Q1024 NOSIG

🟡 TAF LFOT 051100Z 0512/0612 33006KT CAVOK</description>
<pubDate>2026-07-05 15:23:38 UTC</pubDate>
</item>

</channel>
</rss>
