<?xml version="1.0" encoding="UTF-8"?>
<rss version="2.0">
<channel>
<title>METAR LFOT</title>
<lastBuildDate>2026-06-23 04:35:33 UTC</lastBuildDate>

<item>
<title>LFOT METAR/TAF</title>
<description>🟢 METAR LFOT 230430Z AUTO 07007KT CAVOK 25/17 Q1019 NOSIG

🟡 TAF LFOT 222300Z 2300/2324 07008KT CAVOK</description>
<pubDate>2026-06-23 04:35:33 UTC</pubDate>
</item>

</channel>
</rss>
