<?xml version="1.0" encoding="UTF-8"?>
<rss version="2.0">
<channel>
<title>METAR LFOT</title>
<lastBuildDate>2026-04-23 17:40:26 UTC</lastBuildDate>

<item>
<title>LFOT METAR/TAF</title>
<description>🟢 METAR LFOT 231730Z AUTO 07011KT CAVOK 21/04 Q1020 NOSIG

🟡 TAF LFOT 231700Z 2318/2418 06010KT CAVOK</description>
<pubDate>2026-04-23 17:40:26 UTC</pubDate>
</item>

</channel>
</rss>
