<?xml version="1.0" encoding="UTF-8"?>
<rss version="2.0">
<channel>
<title>METAR LFOT</title>
<lastBuildDate>2026-05-13 12:05:22 UTC</lastBuildDate>

<item>
<title>LFOT METAR/TAF</title>
<description>🟢 METAR LFOT 131200Z AUTO 26014G24KT 220V290 9999 SCT045 BKN054 15/06 Q1010 BECMG 26015KT

🟡 TAF LFOT 131100Z 1312/1412 26015KT 9999 BKN030 TEMPO 1315/1318 26015G30KT PROB40 TEMPO 1316/1319 26015G25KT 4000 SHRA BKN020TCU PROB40 TEMPO 1410/1412 4000 SHRA BKN020CB</description>
<pubDate>2026-05-13 12:05:22 UTC</pubDate>
</item>

</channel>
</rss>
