<?xml version="1.0" encoding="UTF-8"?>
<rss version="2.0">
<channel>
<title>METAR LFOT</title>
<lastBuildDate>2026-07-07 13:35:38 UTC</lastBuildDate>

<item>
<title>LFOT METAR/TAF</title>
<description>🟢 METAR LFOT 071330Z AUTO 26009KT 210V320 CAVOK 37/07 Q1017 NOSIG

🟡 TAF LFOT 071100Z 0712/0812 27010KT CAVOK TEMPO 0714/0716 30012G22KT BECMG 0718/0720 35010KT</description>
<pubDate>2026-07-07 13:35:38 UTC</pubDate>
</item>

</channel>
</rss>
