<?xml version="1.0" encoding="UTF-8"?>
<rss version="2.0">
<channel>
<title>METAR LFOT</title>
<lastBuildDate>2026-05-21 08:22:40 UTC</lastBuildDate>

<item>
<title>LFOT METAR/TAF</title>
<description>🟢 METAR LFOT 210800Z AUTO 13006KT 100V160 CAVOK 19/13 Q1027 NOSIG

🟡 TAF LFOT 210500Z 2106/2206 13005KT CAVOK</description>
<pubDate>2026-05-21 08:22:40 UTC</pubDate>
</item>

</channel>
</rss>
