<?xml version="1.0" encoding="UTF-8"?>
<rss version="2.0">
<channel>
<title>METAR LFOT</title>
<lastBuildDate>2026-05-11 18:05:36 UTC</lastBuildDate>

<item>
<title>LFOT METAR/TAF</title>
<description>🟢 METAR LFOT 111800Z AUTO 34007KT 310V020 CAVOK 14/06 Q1012 NOSIG

🟡 TAF LFOT 111700Z 1118/1218 33008KT 9999 SCT040</description>
<pubDate>2026-05-11 18:05:36 UTC</pubDate>
</item>

</channel>
</rss>
