<?xml version="1.0" encoding="UTF-8"?>
<rss version="2.0">
<channel>
<title>METAR LFOT</title>
<lastBuildDate>2026-07-08 04:05:31 UTC</lastBuildDate>

<item>
<title>LFOT METAR/TAF</title>
<description>🟢 METAR LFOT 080400Z AUTO 01003KT CAVOK 19/09 Q1019 NOSIG

🟡 TAF LFOT 072300Z 0800/0824 01005KT CAVOK</description>
<pubDate>2026-07-08 04:05:31 UTC</pubDate>
</item>

</channel>
</rss>
