<?xml version="1.0" encoding="UTF-8"?>
<rss version="2.0">
<channel>
<title>METAR LFOT</title>
<lastBuildDate>2026-05-29 22:11:10 UTC</lastBuildDate>

<item>
<title>LFOT METAR/TAF</title>
<description>🟢 METAR LFOT 292200Z AUTO 06004KT CAVOK 22/16 Q1021 NOSIG

🟡 TAF LFOT 291700Z 2918/3018 08005KT CAVOK BECMG 3013/3015 FEW060CB PROB40 TEMPO 3015/3018 24015G25KT 4000 -TSRA SCT060CB PROB30 TEMPO 3016/3018 23020G35KT 2000 TSGSRA BKN060CB</description>
<pubDate>2026-05-29 22:11:10 UTC</pubDate>
</item>

</channel>
</rss>
