<?xml version="1.0" encoding="UTF-8"?>
<rss version="2.0">
<channel>
<title>METAR LFOT</title>
<lastBuildDate>2026-07-04 18:35:34 UTC</lastBuildDate>

<item>
<title>LFOT METAR/TAF</title>
<description>🟢 METAR LFOT 041830Z AUTO 34006KT 320V030 CAVOK 30/09 Q1026 NOSIG

🟡 TAF LFOT 041700Z 0418/0518 34007KT CAVOK</description>
<pubDate>2026-07-04 18:35:34 UTC</pubDate>
</item>

</channel>
</rss>
