<?xml version="1.0" encoding="UTF-8"?>
<rss version="2.0">
<channel>
<title>METAR LFOT</title>
<lastBuildDate>2026-07-17 09:05:38 UTC</lastBuildDate>

<item>
<title>LFOT METAR/TAF</title>
<description>🟢 METAR LFOT 170900Z AUTO 27005KT 200V360 CAVOK 24/17 Q1015 NOSIG

🟡 TAF LFOT 170500Z 1706/1806 30010KT CAVOK PROB30 TEMPO 1706/1708 VRB10KT FEW100CB PROB40 TEMPO 1714/1717 FEW100CB TEMPO 1717/1721 VRB15G25KT BKN080CB PROB40 TEMPO 1717/1721 -TSRA PROB30 TEMPO 1717/1721 VRB15G35KT</description>
<pubDate>2026-07-17 09:05:38 UTC</pubDate>
</item>

</channel>
</rss>
