<?xml version="1.0" encoding="UTF-8"?>
<rss version="2.0">
<channel>
<title>METAR LFOT</title>
<lastBuildDate>2026-05-29 00:13:27 UTC</lastBuildDate>

<item>
<title>LFOT METAR/TAF</title>
<description>🟢 METAR LFOT 290000Z AUTO 07005KT CAVOK 20/17 Q1021 NOSIG

🟡 TAF LFOT 282300Z 2900/2924 09005KT CAVOK</description>
<pubDate>2026-05-29 00:13:27 UTC</pubDate>
</item>

</channel>
</rss>
