<?xml version="1.0" encoding="UTF-8"?>
<rss version="2.0">
<channel>
<title>METAR LFOT</title>
<lastBuildDate>2026-07-10 04:05:33 UTC</lastBuildDate>

<item>
<title>LFOT METAR/TAF</title>
<description>🟢 METAR LFOT 100400Z AUTO 05009KT CAVOK 22/13 Q1012 NOSIG

🟡 TAF LFOT 092300Z 1000/1024 05010KT CAVOK BECMG 1022/1024 19008KT</description>
<pubDate>2026-07-10 04:05:33 UTC</pubDate>
</item>

</channel>
</rss>
