<?xml version="1.0" encoding="UTF-8"?>
<rss version="2.0">
<channel>
<title>METAR LFOT</title>
<lastBuildDate>2026-05-11 16:05:26 UTC</lastBuildDate>

<item>
<title>LFOT METAR/TAF</title>
<description>🟢 METAR LFOT 111600Z AUTO 31007KT 270V010 9999 FEW034 OVC043 14/07 Q1011 NOSIG

🟡 TAF LFOT 111100Z 1112/1212 36008KT 9999 BKN012 BECMG 1112/1113 BKN020 PROB30 TEMPO 1204/1206 4500 BR</description>
<pubDate>2026-05-11 16:05:26 UTC</pubDate>
</item>

</channel>
</rss>
