<?xml version="1.0" encoding="UTF-8"?>
<rss version="2.0">
<channel>
<title>METAR LFOT</title>
<lastBuildDate>2026-06-30 10:35:33 UTC</lastBuildDate>

<item>
<title>LFOT METAR/TAF</title>
<description>🟢 METAR LFOT 301030Z AUTO VRB03KT CAVOK 28/15 Q1022 NOSIG

🟡 TAF LFOT 300500Z 3006/0106 07006KT CAVOK BECMG 3009/3012 VRB04KT BECMG 3019/3021 26012KT</description>
<pubDate>2026-06-30 10:35:33 UTC</pubDate>
</item>

</channel>
</rss>
