<?xml version="1.0" encoding="UTF-8"?>
<rss version="2.0">
<channel>
<title>METAR LFOT</title>
<lastBuildDate>2026-05-27 22:27:25 UTC</lastBuildDate>

<item>
<title>LFOT METAR/TAF</title>
<description>🟢 METAR LFOT 272200Z AUTO 07005KT CAVOK 21/17 Q1021 TEMPO -TSRA FEW100CB

🟡 TAF LFOT 271700Z 2718/2818 06006KT CAVOK PROB30 TEMPO 2718/2720 -TSRA FEW080CB PROB40 TEMPO 2722/2801 VRB12G30KT FEW100CB PROB30 TEMPO 2722/2801 -TSRA</description>
<pubDate>2026-05-27 22:27:25 UTC</pubDate>
</item>

</channel>
</rss>
