<?xml version="1.0" encoding="UTF-8"?>
<rss version="2.0">
<channel>
<title>METAR LFOT</title>
<lastBuildDate>2026-07-03 14:05:33 UTC</lastBuildDate>

<item>
<title>LFOT METAR/TAF</title>
<description>🟢 METAR LFOT 031400Z AUTO VRB05KT CAVOK 29/11 Q1027 NOSIG

🟡 TAF LFOT 031100Z 0312/0412 04008KT CAVOK BECMG 0410/0412 34008KT</description>
<pubDate>2026-07-03 14:05:33 UTC</pubDate>
</item>

</channel>
</rss>
