<?xml version="1.0" encoding="UTF-8"?>
<rss version="2.0">
<channel>
<title>METAR LFOT</title>
<lastBuildDate>2026-05-01 10:05:22 UTC</lastBuildDate>

<item>
<title>LFOT METAR/TAF</title>
<description>🟢 METAR LFOT 011000Z AUTO 18003KT 110V230 9999 BKN026 BKN062 OVC078 20/14 Q1022 NOSIG

🟡 TAF LFOT 010500Z 0106/0206 20005KT 9999 SCT050 PROB30 TEMPO 0106/0107 3000 BR BKN004 TEMPO 0112/0119 -SHRA BKN040TCU PROB30 TEMPO 0115/0119 VRB10G20KT 4000 -TSRA SCT050CB PROB40 TEMPO 0200/0203 -SHRA SCT050TCU PROB30 TEMPO 0200/0203 4000 -TSRA FEW050CB</description>
<pubDate>2026-05-01 10:05:22 UTC</pubDate>
</item>

</channel>
</rss>
