<?xml version="1.0" encoding="UTF-8"?>
<rss version="2.0">
<channel>
<title>METAR LFOT</title>
<lastBuildDate>2026-06-30 23:04:23 UTC</lastBuildDate>

<item>
<title>LFOT METAR/TAF</title>
<description>🟢 METAR LFOT 302300Z AUTO 35004KT 300V030 CAVOK 22/12 Q1022 NOSIG

🟡 TAF LFOT 301700Z 3018/0118 30007KT CAVOK BECMG 0107/0109 33010KT</description>
<pubDate>2026-06-30 23:04:23 UTC</pubDate>
</item>

</channel>
</rss>
