<?xml version="1.0" encoding="UTF-8"?>
<rss version="2.0">
<channel>
<title>METAR LFOT</title>
<lastBuildDate>2026-05-02 06:05:24 UTC</lastBuildDate>

<item>
<title>LFOT METAR/TAF</title>
<description>🟢 METAR LFOT 020600Z AUTO 12004KT CAVOK 13/12 Q1018 BECMG 19010KT

🟡 TAF LFOT 020515Z 0206/0306 13005KT 9999 FEW040 BKN110 BECMG 0207/0209 19010KT TEMPO 0210/0218 SHRA SCT040CB PROB30 TEMPO 0211/0214 23015G25KT 4000 TSRA TEMPO 0221/0306 4000 RA BKN008</description>
<pubDate>2026-05-02 06:05:24 UTC</pubDate>
</item>

</channel>
</rss>
