<?xml version="1.0" encoding="UTF-8"?>
<rss version="2.0">
<channel>
<title>METAR LFOT</title>
<lastBuildDate>2026-06-25 11:35:33 UTC</lastBuildDate>

<item>
<title>LFOT METAR/TAF</title>
<description>🟢 METAR LFOT 251130Z AUTO 09010KT 040V120 CAVOK 38/18 Q1013 TEMPO VRB15G30KT 4000 -TSRA FEW090CB

🟡 TAF LFOT 250500Z 2506/2606 08008KT CAVOK PROB30 TEMPO 2513/2518 VRB15G30KT 4000 -TSRA FEW090CB</description>
<pubDate>2026-06-25 11:35:33 UTC</pubDate>
</item>

</channel>
</rss>
