<?xml version="1.0" encoding="UTF-8"?>
<rss version="2.0">
<channel>
<title>METAR LFOT</title>
<lastBuildDate>2026-06-22 07:35:36 UTC</lastBuildDate>

<item>
<title>LFOT METAR/TAF</title>
<description>🟢 METAR LFOT 220730Z AUTO 10008KT 070V140 CAVOK 30/18 Q1021 NOSIG

🟡 TAF LFOT 220500Z 2206/2306 08008KT CAVOK</description>
<pubDate>2026-06-22 07:35:36 UTC</pubDate>
</item>

</channel>
</rss>
