<?xml version="1.0" encoding="UTF-8"?>
<rss version="2.0">
<channel>
<title>METAR LFOT</title>
<lastBuildDate>2026-06-11 05:35:26 UTC</lastBuildDate>

<item>
<title>LFOT METAR/TAF</title>
<description>🟢 METAR LFOT 110530Z AUTO 28003KT 250V310 9999 SCT045 12/09 Q1025 NOSIG

🟡 TAF LFOT 102300Z 1100/1124 30005KT CAVOK</description>
<pubDate>2026-06-11 05:35:26 UTC</pubDate>
</item>

</channel>
</rss>
