<?xml version="1.0" encoding="UTF-8"?>
<rss version="2.0">
<channel>
<title>METAR LFOT</title>
<lastBuildDate>2026-07-15 08:35:35 UTC</lastBuildDate>

<item>
<title>LFOT METAR/TAF</title>
<description>🟢 METAR LFOT 150830Z AUTO 05005KT 360V090 CAVOK 27/16 Q1016 TEMPO -TSRA FEW100TCU

🟡 TAF LFOT 150500Z 1506/1606 05004KT CAVOK TEMPO 1507/1518 FEW100TCU PROB30 TEMPO 1507/1510 -TSRA SCT100CB PROB40 TEMPO 1514/1519 VRB10G25KT -SHRA SCT090CB BKN100TCU PROB30 TEMPO 1516/1519 VRB15G30KT 4500 -TSRA</description>
<pubDate>2026-07-15 08:35:35 UTC</pubDate>
</item>

</channel>
</rss>
