<?xml version="1.0" encoding="UTF-8"?>
<rss version="2.0">
<channel>
<title>METAR LFOT</title>
<lastBuildDate>2026-05-28 17:05:22 UTC</lastBuildDate>

<item>
<title>LFOT METAR/TAF</title>
<description>🟢 METAR LFOT 281700Z AUTO 06005KT CAVOK 31/18 Q1021 NOSIG

🟡 TAF AMD LFOT 281441Z 2814/2912 VRB04KT CAVOK</description>
<pubDate>2026-05-28 17:05:22 UTC</pubDate>
</item>

</channel>
</rss>
