<?xml version="1.0" encoding="UTF-8"?>
<rss version="2.0">
<channel>
<title>METAR LFOT</title>
<lastBuildDate>2026-06-25 05:05:34 UTC</lastBuildDate>

<item>
<title>LFOT METAR/TAF</title>
<description>🟢 METAR LFOT 250500Z AUTO 08007KT CAVOK 25/16 Q1014 NOSIG

🟡 TAF LFOT 242300Z 2500/2524 06006KT CAVOK PROB30 TEMPO 2513/2518 VRB15G30KT 4000 -TSRA FEW090CB</description>
<pubDate>2026-06-25 05:05:34 UTC</pubDate>
</item>

</channel>
</rss>
