<?xml version="1.0" encoding="UTF-8"?>
<rss version="2.0">
<channel>
<title>METAR LFOT</title>
<lastBuildDate>2026-06-30 21:53:54 UTC</lastBuildDate>

<item>
<title>LFOT METAR/TAF</title>
<description>🟢 METAR LFOT 302100Z AUTO 31008KT 280V340 CAVOK 25/12 Q1021 NOSIG

🟡 TAF LFOT 301700Z 3018/0118 30007KT CAVOK BECMG 0107/0109 33010KT</description>
<pubDate>2026-06-30 21:53:54 UTC</pubDate>
</item>

</channel>
</rss>
