<?xml version="1.0" encoding="UTF-8"?>
<rss version="2.0">
<channel>
<title>METAR LFOT</title>
<lastBuildDate>2026-06-19 16:05:42 UTC</lastBuildDate>

<item>
<title>LFOT METAR/TAF</title>
<description>🟢 METAR LFOT 191600Z AUTO 21009KT 160V260 CAVOK 35/15 Q1013 TEMPO VRB15G30KT 4000 -TSRA SCT080CB

🟡 TAF LFOT 191100Z 1912/2012 19008KT CAVOK PROB30 TEMPO 1916/1920 VRB15G30KT 4000 -TSRA SCT080CB PROB30 TEMPO 2007/2010 SCT100TCU</description>
<pubDate>2026-06-19 16:05:42 UTC</pubDate>
</item>

</channel>
</rss>
