<?xml version="1.0" encoding="UTF-8"?>
<rss version="2.0">
<channel>
<title>METAR LFOT</title>
<lastBuildDate>2026-07-12 06:38:54 UTC</lastBuildDate>

<item>
<title>LFOT METAR/TAF</title>
<description>🟢 METAR LFOT 120630Z AUTO 06009KT CAVOK 25/12 Q1016 NOSIG

🟡 TAF LFOT 120500Z 1206/1306 05010KT CAVOK TEMPO 1222/1306 07012G22KT</description>
<pubDate>2026-07-12 06:38:54 UTC</pubDate>
</item>

</channel>
</rss>
