<?xml version="1.0" encoding="UTF-8"?>
<rss version="2.0">
<channel>
<title>METAR LFOT</title>
<lastBuildDate>2026-05-14 20:59:08 UTC</lastBuildDate>

<item>
<title>LFOT METAR/TAF</title>
<description>🟢 METAR LFOT 142030Z AUTO VRB01KT CAVOK 07/05 Q1002 NOSIG

🟡 TAF LFOT 141700Z 1418/1518 32007KT 9999 BKN030 TEMPO 1418/1420 23010KT 4000 -SHRA BKN025TCU PROB40 TEMPO 1418/1419 31015G25KT 2000 TSRA SCT020CB PROB30 TEMPO 1502/1506 4000 BR TEMPO 1512/1518 4000 -SHRA SCT040TCU PROB30 TEMPO 1514/1518 VRB15G25KT TSRA FEW040CB</description>
<pubDate>2026-05-14 20:59:08 UTC</pubDate>
</item>

</channel>
</rss>
