<?xml version="1.0" encoding="UTF-8"?>
<rss version="2.0">
<channel>
<title>METAR LFOT</title>
<lastBuildDate>2026-04-23 11:40:24 UTC</lastBuildDate>

<item>
<title>LFOT METAR/TAF</title>
<description>🟢 METAR LFOT 231130Z AUTO 07010KT 040V110 CAVOK 20/05 Q1022 NOSIG

🟡 TAF LFOT 231100Z 2312/2412 08012KT CAVOK</description>
<pubDate>2026-04-23 11:40:24 UTC</pubDate>
</item>

</channel>
</rss>
