<?xml version="1.0" encoding="UTF-8"?>
<rss version="2.0">
<channel>
<title>METAR LFOT</title>
<lastBuildDate>2026-06-28 05:59:20 UTC</lastBuildDate>

<item>
<title>LFOT METAR/TAF</title>
<description>🟢 METAR LFOT 280530Z AUTO 27004KT 240V330 9999 -RA ///TCU 20/16 Q1020 BECMG NSC

🟡 TAF LFOT 280500Z 2806/2906 VRB04KT CAVOK PROB30 TEMPO 2806/2807 25010KT -RA BKN120TCU PROB40 TEMPO 2811/2820 30010KT -SHRA SCT060 BKN090CB PROB30 TEMPO 2812/2819 4000 -TSRA BECMG 2820/2823 33008KT</description>
<pubDate>2026-06-28 05:59:20 UTC</pubDate>
</item>

</channel>
</rss>
