<?xml version="1.0" encoding="UTF-8"?>
<rss version="2.0">
<channel>
<title>METAR LFOT</title>
<lastBuildDate>2026-07-03 05:35:32 UTC</lastBuildDate>

<item>
<title>LFOT METAR/TAF</title>
<description>🟢 METAR LFOT 030530Z AUTO 35003KT 310V030 9999 FEW035 16/14 Q1028 NOSIG

🟡 TAF LFOT 022300Z 0300/0324 33005KT CAVOK</description>
<pubDate>2026-07-03 05:35:32 UTC</pubDate>
</item>

</channel>
</rss>
