<?xml version="1.0" encoding="UTF-8"?>
<rss version="2.0">
<channel>
<title>METAR LFOT</title>
<lastBuildDate>2026-06-20 11:35:36 UTC</lastBuildDate>

<item>
<title>LFOT METAR/TAF</title>
<description>🟢 METAR LFOT 201130Z AUTO 16005KT 110V220 CAVOK 31/18 Q1019 NOSIG

🟡 TAF LFOT 201100Z 2012/2112 22005KT CAVOK BECMG 2018/2022 05004KT</description>
<pubDate>2026-06-20 11:35:36 UTC</pubDate>
</item>

</channel>
</rss>
