<?xml version="1.0" encoding="UTF-8"?>
<rss version="2.0">
<channel>
<title>METAR LFOT</title>
<lastBuildDate>2026-05-26 20:26:41 UTC</lastBuildDate>

<item>
<title>LFOT METAR/TAF</title>
<description>🟢 METAR LFOT 262000Z AUTO 06005KT CAVOK 24/19 Q1023 NOSIG

🟡 TAF LFOT 261700Z 2618/2718 05005KT CAVOK PROB30 TEMPO 2715/2718 24015G25KT 4000 -TSRA FEW060CB</description>
<pubDate>2026-05-26 20:26:41 UTC</pubDate>
</item>

</channel>
</rss>
