<?xml version="1.0" encoding="UTF-8"?>
<rss version="2.0">
<channel>
<title>METAR LFOT</title>
<lastBuildDate>2026-05-18 10:35:24 UTC</lastBuildDate>

<item>
<title>LFOT METAR/TAF</title>
<description>🟢 METAR LFOT 181030Z AUTO 26008KT 230V290 9999 FEW033 BKN050 BKN066 14/08 Q1016 TEMPO 4000 -SHRA SCT025TCU

🟡 TAF LFOT 180500Z 1806/1906 23005KT 9999 BKN029 OVC034 PROB40 TEMPO 1810/1818 4000 -SHRA SCT025TCU PROB40 TEMPO 1902/1906 4000 -RA</description>
<pubDate>2026-05-18 10:35:24 UTC</pubDate>
</item>

</channel>
</rss>
