<?xml version="1.0" encoding="UTF-8"?>
<rss version="2.0">
<channel>
<title>METAR LFOT</title>
<lastBuildDate>2026-07-11 23:11:37 UTC</lastBuildDate>

<item>
<title>LFOT METAR/TAF</title>
<description>🟢 METAR LFOT 112300Z AUTO 06006KT CAVOK 26/09 Q1015 NOSIG

🟡 TAF LFOT 111700Z 1118/1218 06006KT CAVOK PROB30 TEMPO 1120/1122 4000 -SHRA SCT100CB</description>
<pubDate>2026-07-11 23:11:37 UTC</pubDate>
</item>

</channel>
</rss>
