<?xml version="1.0" encoding="UTF-8"?>
<rss version="2.0">
<channel>
<title>METAR LFOT</title>
<lastBuildDate>2026-07-06 10:05:35 UTC</lastBuildDate>

<item>
<title>LFOT METAR/TAF</title>
<description>🟢 METAR LFOT 061000Z AUTO VRB03KT CAVOK 29/13 Q1022 NOSIG

🟡 TAF LFOT 060500Z 0606/0706 07005KT CAVOK</description>
<pubDate>2026-07-06 10:05:35 UTC</pubDate>
</item>

</channel>
</rss>
