<?xml version="1.0" encoding="UTF-8"?>
<rss version="2.0">
<channel>
<title>METAR LFOT</title>
<lastBuildDate>2026-06-03 05:19:06 UTC</lastBuildDate>

<item>
<title>LFOT METAR/TAF</title>
<description>🟢 METAR LFOT 030500Z AUTO VRB03KT 9999 -DZ BKN012 BKN023 OVC030 14/13 Q1015 BECMG NSC

🟡 TAF LFOT 022300Z 0300/0324 26010KT CAVOK BECMG 0314/0316 20014G25KT BKN015 TEMPO 0316/0320 4000 -RA BKN007 OVC013 PROB30 TEMPO 0318/0320 23015G30KT BECMG 0320/0322 FEW016 PROB40 TEMPO 0322/0324 4000 -SHRA SCT016TCU</description>
<pubDate>2026-06-03 05:19:06 UTC</pubDate>
</item>

</channel>
</rss>
