<?xml version="1.0" encoding="UTF-8"?>
<rss version="2.0">
<channel>
<title>METAR LFOT</title>
<lastBuildDate>2026-05-28 16:48:36 UTC</lastBuildDate>

<item>
<title>LFOT METAR/TAF</title>
<description>🟢 METAR LFOT 281630Z AUTO 07004KT 040V110 CAVOK 32/18 Q1021 NOSIG

🟡 TAF AMD LFOT 281441Z 2814/2912 VRB04KT CAVOK</description>
<pubDate>2026-05-28 16:48:36 UTC</pubDate>
</item>

</channel>
</rss>
