<?xml version="1.0" encoding="UTF-8"?>
<rss version="2.0">
<channel>
<title>METAR LFOT</title>
<lastBuildDate>2026-05-31 00:15:28 UTC</lastBuildDate>

<item>
<title>LFOT METAR/TAF</title>
<description>🟢 METAR LFOT 310000Z AUTO 26008KT 9999 NCD 20/18 Q1018 NOSIG

🟡 TAF LFOT 302300Z 3100/3124 29006KT CAVOK</description>
<pubDate>2026-05-31 00:15:28 UTC</pubDate>
</item>

</channel>
</rss>
