<?xml version="1.0" encoding="UTF-8"?>
<rss version="2.0">
<channel>
<title>METAR LFOT</title>
<lastBuildDate>2026-04-28 18:35:26 UTC</lastBuildDate>

<item>
<title>LFOT METAR/TAF</title>
<description>🟢 METAR LFOT 281830Z AUTO 02003KT 340V060 CAVOK 17/07 Q1013 NOSIG

🟡 TAF LFOT 281700Z 2818/2918 07008KT CAVOK BECMG 2906/2908 08010G20KT</description>
<pubDate>2026-04-28 18:35:26 UTC</pubDate>
</item>

</channel>
</rss>
