<?xml version="1.0" encoding="UTF-8"?>
<rss version="2.0">
<channel>
<title>METAR LFOT</title>
<lastBuildDate>2026-07-07 21:04:27 UTC</lastBuildDate>

<item>
<title>LFOT METAR/TAF</title>
<description>🟢 METAR LFOT 072100Z AUTO VRB03KT CAVOK 29/09 Q1017 NOSIG

🟡 TAF LFOT 071700Z 0718/0818 32010KT CAVOK BECMG 0723/0801 03006KT</description>
<pubDate>2026-07-07 21:04:27 UTC</pubDate>
</item>

</channel>
</rss>
