<?xml version="1.0" encoding="UTF-8"?>
<rss version="2.0">
<channel>
<title>METAR LFOT</title>
<lastBuildDate>2026-07-13 07:35:35 UTC</lastBuildDate>

<item>
<title>LFOT METAR/TAF</title>
<description>🟢 METAR LFOT 130730Z AUTO 08011KT CAVOK 27/11 Q1012 TEMPO VRB15G25KT -TSRA FEW100CB

🟡 TAF LFOT 130500Z 1306/1406 08012KT CAVOK PROB40 TEMPO 1307/1316 VRB15G25KT FEW100CB PROB30 TEMPO 1307/1316 -TSRA BECMG 1316/1318 06006KT</description>
<pubDate>2026-07-13 07:35:35 UTC</pubDate>
</item>

</channel>
</rss>
