<?xml version="1.0" encoding="UTF-8"?>
<rss version="2.0">
<channel>
<title>METAR LFOT</title>
<lastBuildDate>2026-06-18 18:32:50 UTC</lastBuildDate>

<item>
<title>LFOT METAR/TAF</title>
<description>🟢 METAR LFOT 181800Z AUTO 15005KT 110V180 CAVOK 30/17 Q1014 TEMPO 17015G30KT 4000 -TSRA BKN090CB

🟡 TAF LFOT 181700Z 1818/1918 31012KT CAVOK TEMPO 1818/1820 4000 -TSRA SCT100CB PROB30 TEMPO 1818/1820 17015G30KT -TSGSRA BKN090CB PROB30 TEMPO 1916/1918 27015G30KT 4000 -TSRA SCT100CB</description>
<pubDate>2026-06-18 18:32:50 UTC</pubDate>
</item>

</channel>
</rss>
