<?xml version="1.0" encoding="UTF-8"?>
<rss version="2.0">
<channel>
<title>METAR LFOT</title>
<lastBuildDate>2026-05-15 17:05:22 UTC</lastBuildDate>

<item>
<title>LFOT METAR/TAF</title>
<description>🟢 METAR LFOT 151700Z AUTO 28005KT 250V310 9999 FEW048/// SCT062/// BKN074/// ///CB 11/06 Q1009 TEMPO VRB15G30KT 4000 -SHRA

🟡 TAF LFOT 151100Z 1512/1612 34005KT 9999 FEW040 TEMPO 1512/1520 4000 -SHRA BKN030TCU PROB30 TEMPO 1514/1518 VRB15G30KT 2000 -TSRA BKN030CB BECMG 1518/1521 26004KT PROB30 TEMPO 1603/1606 4000 BR</description>
<pubDate>2026-05-15 17:05:22 UTC</pubDate>
</item>

</channel>
</rss>
