<?xml version="1.0" encoding="UTF-8"?>
<rss version="2.0">
<channel>
<title>METAR LFOT</title>
<lastBuildDate>2026-07-14 19:47:05 UTC</lastBuildDate>

<item>
<title>LFOT METAR/TAF</title>
<description>🟢 METAR LFOT 141930Z AUTO 01004KT 340V050 CAVOK 31/11 Q1015 NOSIG

🟡 TAF LFOT 141700Z 1418/1518 31006KT CAVOK BECMG 1500/1502 03010KT TEMPO 1509/1518 FEW100TCU PROB40 TEMPO 1513/1518 VRB10G20KT -SHRA SCT090CB BKN100TCU PROB30 TEMPO 1516/1518 03020G30KT 4500 -TSRA</description>
<pubDate>2026-07-14 19:47:05 UTC</pubDate>
</item>

</channel>
</rss>
