<?xml version="1.0" encoding="UTF-8"?>
<rss version="2.0">
<channel>
<title>METAR LFOT</title>
<lastBuildDate>2026-05-30 23:13:01 UTC</lastBuildDate>

<item>
<title>LFOT METAR/TAF</title>
<description>🟢 METAR LFOT 302300Z AUTO 24006KT 9999 FEW011/// SCT140/// 21/19 Q1018 NOSIG

🟡 TAF LFOT 301700Z 3018/3118 VRB05KT CAVOK PROB40 TEMPO 3018/3021 VRB15G40KT 4000 -TSRA BKN080CB PROB30 TEMPO 3018/3020 2500 TSRAGR BECMG 3023/3101 30006KT</description>
<pubDate>2026-05-30 23:13:01 UTC</pubDate>
</item>

</channel>
</rss>
