<?xml version="1.0" encoding="UTF-8"?>
<rss version="2.0">
<channel>
<title>METAR LFOT</title>
<lastBuildDate>2026-07-05 17:40:28 UTC</lastBuildDate>

<item>
<title>LFOT METAR/TAF</title>
<description>🟢 METAR LFOT 051730Z AUTO 36008KT 310V040 CAVOK 32/12 Q1023 NOSIG

🟡 TAF LFOT 051700Z 0518/0618 35007KT CAVOK</description>
<pubDate>2026-07-05 17:40:28 UTC</pubDate>
</item>

</channel>
</rss>
