<?xml version="1.0" encoding="UTF-8"?>
<rss version="2.0">
<channel>
<title>METAR LFOT</title>
<lastBuildDate>2026-05-17 23:28:05 UTC</lastBuildDate>

<item>
<title>LFOT METAR/TAF</title>
<description>🟢 METAR LFOT 172300Z AUTO 26005KT 230V290 CAVOK 11/09 Q1015 TEMPO 4000 -SHRA SCT030TCU

🟡 TAF LFOT 171700Z 1718/1818 28010KT 9999 SCT030 PROB40 TEMPO 1718/1804 4000 -SHRA SCT030TCU BECMG 1806/1808 BKN016 BECMG 1808/1810 BKN030 PROB40 TEMPO 1810/1818 4000 -SHRA SCT025CB</description>
<pubDate>2026-05-17 23:28:05 UTC</pubDate>
</item>

</channel>
</rss>
