<?xml version="1.0" encoding="UTF-8"?>
<rss version="2.0">
<channel>
<title>METAR LFOT</title>
<lastBuildDate>2026-05-29 12:35:25 UTC</lastBuildDate>

<item>
<title>LFOT METAR/TAF</title>
<description>🟢 METAR LFOT 291230Z AUTO 15005KT 090V190 CAVOK 33/16 Q1022 NOSIG

🟡 TAF LFOT 291100Z 2912/3012 10005KT CAVOK</description>
<pubDate>2026-05-29 12:35:25 UTC</pubDate>
</item>

</channel>
</rss>
