<?xml version="1.0" encoding="UTF-8"?>
<rss version="2.0">
<channel>
<title>METAR LFOT</title>
<lastBuildDate>2026-07-06 16:35:33 UTC</lastBuildDate>

<item>
<title>LFOT METAR/TAF</title>
<description>🟢 METAR LFOT 061630Z AUTO 25005KT 200V300 CAVOK 35/07 Q1019 NOSIG

🟡 TAF LFOT 061100Z 0612/0712 VRB03KT CAVOK BECMG 0708/0710 27010KT</description>
<pubDate>2026-07-06 16:35:33 UTC</pubDate>
</item>

</channel>
</rss>
