<?xml version="1.0" encoding="UTF-8"?>
<rss version="2.0">
<channel>
<title>METAR LFOT</title>
<lastBuildDate>2026-07-17 21:22:30 UTC</lastBuildDate>

<item>
<title>LFOT METAR/TAF</title>
<description>🟢 METAR LFOT 172100Z AUTO 32005KT CAVOK 23/16 Q1016 NOSIG

🟡 TAF LFOT 171700Z 1718/1818 25008KT CAVOK PROB30 TEMPO 1718/1720 -TSRA FEW090CB SCT100TCU</description>
<pubDate>2026-07-17 21:22:30 UTC</pubDate>
</item>

</channel>
</rss>
