<?xml version="1.0" encoding="UTF-8"?>
<rss version="2.0">
<channel>
<title>METAR LFOT</title>
<lastBuildDate>2026-05-11 13:05:28 UTC</lastBuildDate>

<item>
<title>LFOT METAR/TAF</title>
<description>🟢 METAR LFOT 111300Z AUTO 35005KT 290V040 9999 BKN018 BKN023 OVC031 13/09 Q1011 NOSIG

🟡 TAF LFOT 111100Z 1112/1212 36008KT 9999 BKN012 BECMG 1112/1113 BKN020 PROB30 TEMPO 1204/1206 4500 BR</description>
<pubDate>2026-05-11 13:05:28 UTC</pubDate>
</item>

</channel>
</rss>
