<?xml version="1.0" encoding="UTF-8"?>
<rss version="2.0">
<channel>
<title>METAR LFOT</title>
<lastBuildDate>2026-07-23 04:27:07 UTC</lastBuildDate>

<item>
<title>LFOT METAR/TAF</title>
<description>🟢 METAR LFOT 230400Z AUTO 06007KT CAVOK 16/10 Q1021 NOSIG

🟡 TAF LFOT 222300Z 2300/2324 05008KT CAVOK</description>
<pubDate>2026-07-23 04:27:07 UTC</pubDate>
</item>

</channel>
</rss>
