<?xml version="1.0" encoding="UTF-8"?>
<rss version="2.0">
<channel>
<title>METAR LFOT</title>
<lastBuildDate>2026-07-06 04:35:34 UTC</lastBuildDate>

<item>
<title>LFOT METAR/TAF</title>
<description>🟢 METAR LFOT 060430Z AUTO 05003KT 020V080 CAVOK 18/13 Q1023 NOSIG

🟡 TAF LFOT 052300Z 0600/0624 VRB03KT CAVOK</description>
<pubDate>2026-07-06 04:35:34 UTC</pubDate>
</item>

</channel>
</rss>
