<?xml version="1.0" encoding="UTF-8"?>
<rss version="2.0">
<channel>
<title>METAR LFOT</title>
<lastBuildDate>2026-05-06 11:05:22 UTC</lastBuildDate>

<item>
<title>LFOT METAR/TAF</title>
<description>🟢 METAR LFOT 061100Z AUTO 01008KT 330V050 9999 SCT016 OVC056 12/09 Q1011 NOSIG

🟡 TAF AMD LFOT 061003Z 0610/0706 02007KT 9999 BKN012 BKN018 OVC050 BECMG 0611/0613 SCT030 PROB30 TEMPO 0617/0620 BKN030TCU PROB30 0702/0706 3000 BR</description>
<pubDate>2026-05-06 11:05:22 UTC</pubDate>
</item>

</channel>
</rss>
