<?xml version="1.0" encoding="UTF-8"?>
<rss version="2.0">
<channel>
<title>METAR LFOT</title>
<lastBuildDate>2026-07-16 08:29:00 UTC</lastBuildDate>

<item>
<title>LFOT METAR/TAF</title>
<description>🟢 METAR LFOT 160800Z AUTO 01004KT 330V050 CAVOK 24/18 Q1017 NOSIG

🟡 TAF LFOT 160500Z 1606/1706 35005KT CAVOK TEMPO 1613/1619 VRB15G30KT 2500 TSRA SCT080CB PROB40 TEMPO 1615/1618 1400 TSRAGR BKN070CB PROB30 TEMPO 1615/1618 VRB20G45KT PROB30 1702/1706 4000 BR</description>
<pubDate>2026-07-16 08:29:00 UTC</pubDate>
</item>

</channel>
</rss>
