<?xml version="1.0" encoding="UTF-8"?>
<rss version="2.0">
<channel>
<title>METAR LFOT</title>
<lastBuildDate>2026-04-23 22:29:59 UTC</lastBuildDate>

<item>
<title>LFOT METAR/TAF</title>
<description>🟢 METAR LFOT 232200Z AUTO 06009KT CAVOK 13/04 Q1021 NOSIG

🟡 TAF LFOT 231700Z 2318/2418 06010KT CAVOK</description>
<pubDate>2026-04-23 22:29:59 UTC</pubDate>
</item>

</channel>
</rss>
