<?xml version="1.0" encoding="UTF-8"?>
<rss version="2.0">
<channel>
<title>METAR LFOT</title>
<lastBuildDate>2026-05-19 08:05:23 UTC</lastBuildDate>

<item>
<title>LFOT METAR/TAF</title>
<description>🟢 METAR LFOT 190800Z AUTO 18008KT 140V220 9999 BKN013 OVC033 13/11 Q1017 TEMPO 4500 -RADZ BKN009

🟡 TAF LFOT 190500Z 1906/2006 18008KT CAVOK TEMPO 1906/1920 -RA PROB40 TEMPO 1906/1915 BKN014 PROB30 TEMPO 1906/1911 4500 -RADZ BKN009 TEMPO 1912/1918 22015G25KT</description>
<pubDate>2026-05-19 08:05:23 UTC</pubDate>
</item>

</channel>
</rss>
