<?xml version="1.0" encoding="UTF-8"?>
<rss version="2.0">
<channel>
<title>METAR LFOT</title>
<lastBuildDate>2026-05-29 16:35:26 UTC</lastBuildDate>

<item>
<title>LFOT METAR/TAF</title>
<description>🟢 METAR LFOT 291630Z AUTO 07005KT 030V090 CAVOK 32/17 Q1021 NOSIG

🟡 TAF LFOT 291100Z 2912/3012 10005KT CAVOK</description>
<pubDate>2026-05-29 16:35:26 UTC</pubDate>
</item>

</channel>
</rss>
