<?xml version="1.0" encoding="UTF-8"?>
<rss version="2.0">
<channel>
<title>METAR LFOT</title>
<description>METAR Tours Val de Loire</description>
<link>https://github.com/LFOT</link>
<lastBuildDate>Fri, 17 Apr 2026 10:42:13 GMT</lastBuildDate>
<item>
<title>LFOT METAR</title>
<description>METAR LFOT 171030Z AUTO 12005KT 080V160 CAVOK 19/09 Q1022 NOSIG</description>
<pubDate>Fri, 17 Apr 2026 10:42:13 GMT</pubDate>
</item>
</channel>
</rss>
