<?xml version="1.0" encoding="UTF-8"?>
<rss version="2.0">
<channel>
<title>METAR LFOT</title>
<lastBuildDate>2026-05-05 04:05:21 UTC</lastBuildDate>

<item>
<title>LFOT METAR/TAF</title>
<description>🟢 METAR LFOT 050400Z AUTO 33004KT 5000 RA BR OVC004/// ///CB 13/13 Q1008 TEMPO 2000 -SHRA BKN008 BKN015TCU

🟡 TAF LFOT 042300Z 0500/0524 26005KT 9999 SCT030 BKN060 TEMPO 0500/0509 4000 -SHRA BKN008 BKN015TCU PROB30 TEMPO 0500/0505 2000 -SHRA BKN002 BKN015CB BECMG 0508/0510 BKN010 BECMG 0512/0514 SCT030 TEMPO 0516/0519 4500 -SHRA BKN040TCU PROB30 TEMPO 0516/0518 3000 SHRA BKN040CB</description>
<pubDate>2026-05-05 04:05:21 UTC</pubDate>
</item>

</channel>
</rss>
