<?xml version="1.0" encoding="UTF-8"?>
<rss version="2.0">
<channel>
<title>METAR LFOT</title>
<lastBuildDate>2026-06-28 15:47:54 UTC</lastBuildDate>

<item>
<title>LFOT METAR/TAF</title>
<description>🟢 METAR LFOT 281530Z AUTO 17005KT 9999 -RA FEW034/// BKN050/// BKN072/// ///TCU 24/19 Q1021 TEMPO -TSRA FEW060CB

🟡 TAF AMD LFOT 281406Z 2814/2912 26005KT 9999 FEW035 PROB40 TEMPO 2814/2816 VRB10KT -TSRA SCT060CB PROB30 TEMPO 2816/2818 -TSRA FEW060CB BECMG 2820/2823 34010KT</description>
<pubDate>2026-06-28 15:47:54 UTC</pubDate>
</item>

</channel>
</rss>
