<?xml version="1.0" encoding="UTF-8"?>
<rss version="2.0">
<channel>
<title>METAR LFOT</title>
<lastBuildDate>2026-07-13 19:01:00 UTC</lastBuildDate>

<item>
<title>LFOT METAR/TAF</title>
<description>🟢 METAR LFOT 131830Z AUTO 22010KT 9999 FEW026/// BKN120/// BKN150/// ///CB 31/17 Q1012 BECMG NSC

🟡 TAF LFOT 131700Z 1318/1418 20008KT CAVOK PROB30 TEMPO 1318/1319 VRB15G25KT -TSRA FEW090CB</description>
<pubDate>2026-07-13 19:01:00 UTC</pubDate>
</item>

</channel>
</rss>
