<?xml version="1.0" encoding="UTF-8"?>
<rss version="2.0">
<channel>
<title>METAR LFOT</title>
<lastBuildDate>2026-05-09 13:05:29 UTC</lastBuildDate>

<item>
<title>LFOT METAR/TAF</title>
<description>🟢 METAR LFOT 091300Z AUTO 08006KT 010V110 CAVOK 23/12 Q1011 NOSIG

🟡 TAF LFOT 091100Z 0912/1012 09005KT CAVOK PROB40 TEMPO 0922/1006 VRB04KT 4000 SHRA BKN060TCU PROB30 TEMPO 1001/1004 2500 -TSRA SCT050CB PROB30 TEMPO 1010/1012 2500 -TSRA SCT040CB</description>
<pubDate>2026-05-09 13:05:29 UTC</pubDate>
</item>

</channel>
</rss>
