<?xml version="1.0" encoding="UTF-8"?>
<rss version="2.0">
<channel>
<title>METAR LFOT</title>
<lastBuildDate>2026-06-05 06:16:03 UTC</lastBuildDate>

<item>
<title>LFOT METAR/TAF</title>
<description>🟢 METAR LFOT 050600Z AUTO 24006KT 200V270 CAVOK 12/09 Q1016 NOSIG

🟡 TAF LFOT 050500Z 0506/0606 25005KT CAVOK BECMG 0603/0605 19010KT TEMPO 0605/0606 -RA</description>
<pubDate>2026-06-05 06:16:03 UTC</pubDate>
</item>

</channel>
</rss>
