<?xml version="1.0" encoding="UTF-8"?>
<rss version="2.0">
<channel>
<title>METAR LFOT</title>
<lastBuildDate>2026-07-15 20:16:49 UTC</lastBuildDate>

<item>
<title>LFOT METAR/TAF</title>
<description>🟢 METAR LFOT 152000Z AUTO 33004KT 280V020 9999 -RA ///CB 22/19 Q1019 TEMPO 4000 BR BECMG NSC

🟡 TAF LFOT 151700Z 1518/1618 VRB05KT CAVOK TEMPO 1518/1520 VRB15G40KT 4000 -TSRA BKN080CB PROB30 1520/1606 4000 BR TEMPO 1612/1618 VRB10G20KT FEW080CB PROB40 TEMPO 1612/1618 -TSRA SCT080CB PROB30 TEMPO 1612/1618 VRB15G30KT 3000 TSRAGR BKN070CB</description>
<pubDate>2026-07-15 20:16:49 UTC</pubDate>
</item>

</channel>
</rss>
