<?xml version="1.0" encoding="UTF-8"?>
<rss version="2.0">
<channel>
<title>METAR LFOT</title>
<lastBuildDate>2026-05-22 10:05:24 UTC</lastBuildDate>

<item>
<title>LFOT METAR/TAF</title>
<description>🟢 METAR LFOT 220930Z AUTO 10004KT 060V140 CAVOK 25/15 Q1026 NOSIG

🟡 TAF LFOT 220500Z 2206/2306 09005KT CAVOK</description>
<pubDate>2026-05-22 10:05:24 UTC</pubDate>
</item>

</channel>
</rss>
