<?xml version="1.0" encoding="UTF-8"?>
<rss version="2.0">
<channel>
<title>METAR LFOT</title>
<lastBuildDate>2026-06-10 10:35:25 UTC</lastBuildDate>

<item>
<title>LFOT METAR/TAF</title>
<description>🟢 METAR LFOT 101000Z AUTO 26007KT 200V300 9999 SCT039 BKN046 OVC076 17/08 Q1021 TEMPO BKN030TCU

🟡 TAF LFOT 100500Z 1006/1106 28003KT CAVOK PROB30 TEMPO 1009/1011 -SHRA BKN030TCU BECMG 1018/1021 32009KT</description>
<pubDate>2026-06-10 10:35:25 UTC</pubDate>
</item>

</channel>
</rss>
