<?xml version="1.0" encoding="UTF-8"?>
<rss version="2.0">
<channel>
<title>METAR LFOT</title>
<lastBuildDate>2026-06-20 01:53:15 UTC</lastBuildDate>

<item>
<title>LFOT METAR/TAF</title>
<description>🟢 METAR LFOT 200130Z AUTO 26002KT CAVOK 21/17 Q1016 NOSIG

🟡 TAF LFOT 192300Z 2000/2024 28008KT CAVOK PROB30 TEMPO 2006/2007 SCT100TCU PROB30 TEMPO 2007/2011 VRB10G20KT -TSRA SCT090CB TEMPO 2020/2024 07010KT</description>
<pubDate>2026-06-20 01:53:15 UTC</pubDate>
</item>

</channel>
</rss>
