<?xml version="1.0" encoding="UTF-8"?>
<rss version="2.0">
<channel>
<title>METAR LFOT</title>
<lastBuildDate>2026-07-11 04:22:16 UTC</lastBuildDate>

<item>
<title>LFOT METAR/TAF</title>
<description>🟢 METAR LFOT 110400Z AUTO 05003KT CAVOK 23/13 Q1012 TEMPO BKN100TCU

🟡 TAF LFOT 102300Z 1100/1124 05008KT CAVOK PROB40 TEMPO 1105/1111 VRB05KT BKN100TCU PROB30 TEMPO 1106/1110 3000 -TSRA SCT090CB BECMG 1110/1112 11005KT BECMG 1120/1122 04008KT</description>
<pubDate>2026-07-11 04:22:16 UTC</pubDate>
</item>

</channel>
</rss>
