<?xml version="1.0" encoding="UTF-8"?>
<rss version="2.0">
<channel>
<title>METAR LFOT</title>
<lastBuildDate>2026-07-22 07:05:34 UTC</lastBuildDate>

<item>
<title>LFOT METAR/TAF</title>
<description>🟢 METAR LFOT 220700Z AUTO 06010KT 360V080 CAVOK 18/12 Q1024 NOSIG

🟡 TAF LFOT 220500Z 2206/2306 04010KT CAVOK</description>
<pubDate>2026-07-22 07:05:34 UTC</pubDate>
</item>

</channel>
</rss>
