<?xml version="1.0" encoding="UTF-8"?>
<rss version="2.0">
<channel>
<title>METAR LFOT</title>
<lastBuildDate>2026-06-05 22:48:14 UTC</lastBuildDate>

<item>
<title>LFOT METAR/TAF</title>
<description>🟢 METAR LFOT 052230Z AUTO 15003KT CAVOK 15/10 Q1014 NOSIG

🟡 TAF LFOT 051700Z 0518/0618 20008KT CAVOK FM060600 20012KT 9999 BKN050 PROB40 TEMPO 0607/0610 -RA PROB40 TEMPO 0610/0612 -SHRA SCT025TCU BKN050 BECMG 0612/0614 26014G25KT SCT060 PROB30 TEMPO 0612/0618 26015G30KT</description>
<pubDate>2026-06-05 22:48:14 UTC</pubDate>
</item>

</channel>
</rss>
