<?xml version="1.0" encoding="UTF-8"?>
<rss version="2.0">
<channel>
<title>METAR LFOT</title>
<lastBuildDate>2026-05-02 16:35:26 UTC</lastBuildDate>

<item>
<title>LFOT METAR/TAF</title>
<description>🟢 METAR LFOT 021630Z AUTO 14005KT 9999 -RA FEW049 OVC092 16/14 Q1014 NOSIG

🟡 TAF LFOT 021105Z 0212/0312 19010KT 9999 FEW040 BKN070 TEMPO 0212/0217 -SHRA FEW040CB PROB30 TEMPO 0212/0214 23015G25KT 4000 TSRA BKN015 SCT040CB TEMPO 0221/0305 4000 RA BKN015 PROB40 TEMPO 0300/0309 BKN007 TEMPO 0309/0312 SHRA BKN015 FEW020CB</description>
<pubDate>2026-05-02 16:35:26 UTC</pubDate>
</item>

</channel>
</rss>
