<?xml version="1.0" encoding="UTF-8"?>
<rss version="2.0">
<channel>
<title>METAR LFOT</title>
<lastBuildDate>2026-05-15 16:35:25 UTC</lastBuildDate>

<item>
<title>LFOT METAR/TAF</title>
<description>🟢 METAR LFOT 151630Z AUTO 01010KT 340V040 CAVOK 11/05 Q1009 TEMPO 4000 -SHRA BKN030TCU BECMG 26004KT

🟡 TAF LFOT 151100Z 1512/1612 34005KT 9999 FEW040 TEMPO 1512/1520 4000 -SHRA BKN030TCU PROB30 TEMPO 1514/1518 VRB15G30KT 2000 -TSRA BKN030CB BECMG 1518/1521 26004KT PROB30 TEMPO 1603/1606 4000 BR</description>
<pubDate>2026-05-15 16:35:25 UTC</pubDate>
</item>

</channel>
</rss>
