<?xml version="1.0" encoding="UTF-8"?>
<rss version="2.0">
<channel>
<title>METAR LFOT</title>
<lastBuildDate>2026-06-27 03:36:06 UTC</lastBuildDate>

<item>
<title>LFOT METAR/TAF</title>
<description>🟢 METAR LFOT 270330Z AUTO 33004KT CAVOK 23/15 Q1016 NOSIG

🟡 TAF LFOT 262300Z 2700/2724 04008KT CAVOK PROB30 TEMPO 2717/2720 23015G35KT 3000 -TSGSRA FEW020 SCT090CB</description>
<pubDate>2026-06-27 03:36:06 UTC</pubDate>
</item>

</channel>
</rss>
