<?xml version="1.0" encoding="UTF-8"?>
<rss version="2.0">
<channel>
<title>METAR LFOT</title>
<lastBuildDate>2026-05-24 18:44:20 UTC</lastBuildDate>

<item>
<title>LFOT METAR/TAF</title>
<description>🟢 METAR LFOT 241830Z AUTO 05008KT 020V080 CAVOK 27/16 Q1026 NOSIG

🟡 TAF LFOT 241700Z 2418/2518 08007KT CAVOK</description>
<pubDate>2026-05-24 18:44:20 UTC</pubDate>
</item>

</channel>
</rss>
