<?xml version="1.0" encoding="UTF-8"?>
<rss version="2.0">
<channel>
<title>METAR LFOT</title>
<lastBuildDate>2026-04-29 07:05:30 UTC</lastBuildDate>

<item>
<title>LFOT METAR/TAF</title>
<description>🟢 METAR LFOT 290700Z AUTO 08009KT CAVOK 13/10 Q1013 NOSIG

🟡 TAF LFOT 290500Z 2906/3006 08011KT CAVOK TEMPO 2909/2918 09015G25KT</description>
<pubDate>2026-04-29 07:05:30 UTC</pubDate>
</item>

</channel>
</rss>
