<?xml version="1.0" encoding="UTF-8"?>
<rss version="2.0">
<channel>
<title>METAR LFOT</title>
<lastBuildDate>2026-05-31 08:10:11 UTC</lastBuildDate>

<item>
<title>LFOT METAR/TAF</title>
<description>🟢 METAR LFOT 310800Z AUTO 29004KT 230V330 9999 NCD 18/13 Q1020 NOSIG

🟡 TAF LFOT 310500Z 3106/0106 29006KT CAVOK BECMG 0104/0106 VRB03KT</description>
<pubDate>2026-05-31 08:10:11 UTC</pubDate>
</item>

</channel>
</rss>
