<?xml version="1.0" encoding="UTF-8"?>
<rss version="2.0">
<channel>
<title>METAR LFOT</title>
<lastBuildDate>2026-06-18 09:05:45 UTC</lastBuildDate>

<item>
<title>LFOT METAR/TAF</title>
<description>🟢 METAR LFOT 180900Z AUTO 13006KT 100V160 CAVOK 29/18 Q1017 NOSIG

🟡 TAF LFOT 180500Z 1806/1906 07004KT CAVOK PROB40 TEMPO 1812/1817 VRB15G35KT 2000 -TSRAGS BKN070CB PROB30 TEMPO 1900/1903 14015G30KT 4000 -TSRAGS BKN100CB</description>
<pubDate>2026-06-18 09:05:45 UTC</pubDate>
</item>

</channel>
</rss>
