<?xml version="1.0" encoding="UTF-8"?>
<rss version="2.0">
<channel>
<title>METAR LFOT</title>
<lastBuildDate>2026-06-12 09:05:31 UTC</lastBuildDate>

<item>
<title>LFOT METAR/TAF</title>
<description>🟢 METAR LFOT 120900Z AUTO 27009KT 240V300 9999 OVC016 17/13 Q1028 NOSIG

🟡 TAF LFOT 120500Z 1206/1306 26008KT 9999 BKN012 PROB30 TEMPO 1206/1208 BKN009 BECMG 1209/1212 CAVOK TEMPO 1305/1306 4000 BR BKN006</description>
<pubDate>2026-06-12 09:05:31 UTC</pubDate>
</item>

</channel>
</rss>
