<?xml version="1.0" encoding="UTF-8"?>
<rss version="2.0">
<channel>
<title>METAR LFOT</title>
<lastBuildDate>2026-06-12 15:05:31 UTC</lastBuildDate>

<item>
<title>LFOT METAR/TAF</title>
<description>🟢 METAR LFOT 121500Z AUTO 26008KT 230V310 CAVOK 26/15 Q1026 NOSIG

🟡 TAF LFOT 121100Z 1212/1312 27008KT CAVOK PROB30 TEMPO 1305/1307 4000 BR BKN005</description>
<pubDate>2026-06-12 15:05:31 UTC</pubDate>
</item>

</channel>
</rss>
