<?xml version="1.0" encoding="UTF-8"?>
<rss version="2.0">
<channel>
<title>METAR LFOT</title>
<lastBuildDate>2026-07-02 22:41:59 UTC</lastBuildDate>

<item>
<title>LFOT METAR/TAF</title>
<description>🟢 METAR LFOT 022230Z AUTO 34005KT 290V010 CAVOK 20/15 Q1026 NOSIG

🟡 TAF LFOT 021700Z 0218/0318 33012KT CAVOK BECMG 0305/0308 04006KT</description>
<pubDate>2026-07-02 22:41:59 UTC</pubDate>
</item>

</channel>
</rss>
