<?xml version="1.0" encoding="UTF-8"?>
<rss version="2.0">
<channel>
<title>METAR LFOT</title>
<lastBuildDate>2026-04-25 06:05:18 UTC</lastBuildDate>

<item>
<title>LFOT METAR/TAF</title>
<description>🟢 METAR LFOT 250600Z AUTO 05004KT 360V070 CAVOK 09/03 Q1018 NOSIG

🟡 TAF LFOT 250530Z 2506/2606 05006KT CAVOK</description>
<pubDate>2026-04-25 06:05:18 UTC</pubDate>
</item>

</channel>
</rss>
