<?xml version="1.0" encoding="UTF-8"?>
<rss version="2.0">
<channel>
<title>METAR LFOT</title>
<lastBuildDate>2026-06-10 13:05:31 UTC</lastBuildDate>

<item>
<title>LFOT METAR/TAF</title>
<description>🟢 METAR LFOT 101300Z AUTO 28010KT 230V320 CAVOK 20/07 Q1021 NOSIG

🟡 TAF LFOT 101100Z 1012/1112 27009KT 9999 FEW044 TEMPO 1019/1102 33007KT</description>
<pubDate>2026-06-10 13:05:31 UTC</pubDate>
</item>

</channel>
</rss>
