<?xml version="1.0" encoding="UTF-8"?>
<rss version="2.0">
<channel>
<title>METAR LFOT</title>
<lastBuildDate>2026-07-02 08:28:29 UTC</lastBuildDate>

<item>
<title>LFOT METAR/TAF</title>
<description>🟢 METAR LFOT 020800Z AUTO 28005KT 240V340 CAVOK 19/13 Q1027 NOSIG

🟡 TAF LFOT 020500Z 0206/0306 33008KT CAVOK TEMPO 0213/0220 34010G20KT</description>
<pubDate>2026-07-02 08:28:29 UTC</pubDate>
</item>

</channel>
</rss>
