<?xml version="1.0" encoding="UTF-8"?>
<rss version="2.0">
<channel>
<title>METAR LFOT</title>
<lastBuildDate>2026-04-29 23:40:12 UTC</lastBuildDate>

<item>
<title>LFOT METAR/TAF</title>
<description>🟢 METAR LFOT 292330Z AUTO 06010KT CAVOK 16/08 Q1014 NOSIG

🟡 TAF LFOT 292300Z 3000/3024 09012KT CAVOK BECMG 3011/3013 15010KT BECMG 3013/3015 21008KT</description>
<pubDate>2026-04-29 23:40:12 UTC</pubDate>
</item>

</channel>
</rss>
