<?xml version="1.0" encoding="UTF-8"?>
<rss version="2.0">
<channel>
<title>METAR LFOT</title>
<lastBuildDate>2026-05-05 16:35:20 UTC</lastBuildDate>

<item>
<title>LFOT METAR/TAF</title>
<description>🟢 METAR LFOT 051630Z AUTO 32007KT 290V010 9999 SCT012/// SCT049/// OVC066/// ///TCU 14/12 Q1008 TEMPO 4000 -SHRA BKN012TCU

🟡 TAF LFOT 051100Z 0512/0612 26008KT 9999 BKN030 TEMPO 0512/0514 BKN008 PROB40 TEMPO 0512/0524 4000 -SHRA BKN012TCU TEMPO 0600/0612 3000 -RA BKN006 PROB40 TEMPO 0610/0612 BKN012</description>
<pubDate>2026-05-05 16:35:20 UTC</pubDate>
</item>

</channel>
</rss>
