<?xml version="1.0" encoding="UTF-8"?>
<rss version="2.0">
<channel>
<title>METAR LFOT</title>
<lastBuildDate>2026-06-09 17:35:30 UTC</lastBuildDate>

<item>
<title>LFOT METAR/TAF</title>
<description>🟢 METAR LFOT 091730Z AUTO 26006KT 220V300 CAVOK 19/08 Q1019 TEMPO 4000 -SHRA SCT045TCU

🟡 TAF LFOT 091700Z 0918/1018 28008KT 9999 BKN040 PROB30 TEMPO 0918/0920 4000 -SHRA SCT045TCU</description>
<pubDate>2026-06-09 17:35:30 UTC</pubDate>
</item>

</channel>
</rss>
