<?xml version="1.0" encoding="UTF-8"?>
<rss version="2.0">
<channel>
<title>METAR LFOT</title>
<lastBuildDate>2026-06-16 20:24:47 UTC</lastBuildDate>

<item>
<title>LFOT METAR/TAF</title>
<description>🟢 METAR LFOT 162000Z AUTO 34003KT CAVOK 24/16 Q1018 BECMG 28010KT

🟡 TAF AMD LFOT 162009Z 1620/1718 34010KT CAVOK BECMG 1622/1624 VRB03KT BECMG 1710/1712 22006KT</description>
<pubDate>2026-06-16 20:24:47 UTC</pubDate>
</item>

</channel>
</rss>
