<?xml version="1.0" encoding="UTF-8"?>
<rss version="2.0">
<channel>
<title>METAR LFOT</title>
<lastBuildDate>2026-07-21 22:30:11 UTC</lastBuildDate>

<item>
<title>LFOT METAR/TAF</title>
<description>🟢 METAR LFOT 212200Z AUTO 04005KT 360V080 CAVOK 20/07 Q1024 NOSIG

🟡 TAF LFOT 211700Z 2118/2218 03012KT CAVOK</description>
<pubDate>2026-07-21 22:30:11 UTC</pubDate>
</item>

</channel>
</rss>
