<?xml version="1.0" encoding="UTF-8"?>
<rss version="2.0">
<channel>
<title>METAR LFOT</title>
<lastBuildDate>2026-07-07 19:26:21 UTC</lastBuildDate>

<item>
<title>LFOT METAR/TAF</title>
<description>🟢 METAR LFOT 071900Z AUTO 35004KT 310V040 CAVOK 34/10 Q1016 NOSIG

🟡 TAF LFOT 071700Z 0718/0818 32010KT CAVOK BECMG 0723/0801 03006KT</description>
<pubDate>2026-07-07 19:26:21 UTC</pubDate>
</item>

</channel>
</rss>
