<?xml version="1.0" encoding="UTF-8"?>
<rss version="2.0">
<channel>
<title>METAR LFOT</title>
<lastBuildDate>2026-06-14 11:25:28 UTC</lastBuildDate>

<item>
<title>LFOT METAR/TAF</title>
<description>🟢 METAR LFOT 141100Z AUTO VRB03KT CAVOK 25/10 Q1020 NOSIG

🟡 TAF LFOT 141100Z 1412/1512 03005KT CAVOK</description>
<pubDate>2026-06-14 11:25:28 UTC</pubDate>
</item>

</channel>
</rss>
