<?xml version="1.0" encoding="UTF-8"?>
<rss version="2.0">
<channel>
<title>METAR LFOT</title>
<lastBuildDate>2026-06-13 07:35:30 UTC</lastBuildDate>

<item>
<title>LFOT METAR/TAF</title>
<description>🟢 METAR LFOT 130730Z AUTO VRB02KT CAVOK 20/16 Q1026 NOSIG

🟡 TAF LFOT 130500Z 1306/1406 32005KT CAVOK PROB30 TEMPO 1306/1307 BKN005</description>
<pubDate>2026-06-13 07:35:30 UTC</pubDate>
</item>

</channel>
</rss>
