<?xml version="1.0" encoding="UTF-8"?>
<rss version="2.0">
<channel>
<title>METAR LFOT</title>
<lastBuildDate>2026-05-30 16:05:22 UTC</lastBuildDate>

<item>
<title>LFOT METAR/TAF</title>
<description>🟢 METAR LFOT 301600Z AUTO 22004KT 150V270 9999 FEW003/// 33/13 Q1017 TEMPO VRB15G40KT 2500 TSRAGR BKN080CB

🟡 TAF LFOT 301100Z 3012/3112 VRB03KT CAVOK PROB40 TEMPO 3016/3021 VRB15G40KT 4000 -TSRA BKN080CB PROB30 TEMPO 3017/3020 2500 TSRAGR BECMG 3023/3101 30006KT</description>
<pubDate>2026-05-30 16:05:22 UTC</pubDate>
</item>

</channel>
</rss>
