<?xml version="1.0" encoding="UTF-8"?>
<rss version="2.0">
<channel>
<title>METAR LFOT</title>
<lastBuildDate>2026-07-13 15:33:37 UTC</lastBuildDate>

<item>
<title>LFOT METAR/TAF</title>
<description>🟢 METAR LFOT 131530Z AUTO 18014KT CAVOK 33/18 Q1012 TEMPO VRB20G45KT 2000 TSRAGR BKN070CB

🟡 TAF LFOT 131100Z 1312/1412 VRB05KT CAVOK PROB40 TEMPO 1314/1318 VRB15G30KT 4000 TSRA SCT070CB PROB30 TEMPO 1316/1318 VRB20G45KT 2000 TSRAGR BKN070CB</description>
<pubDate>2026-07-13 15:33:37 UTC</pubDate>
</item>

</channel>
</rss>
