<?xml version="1.0" encoding="UTF-8"?>
<rss version="2.0">
<channel>
<title>METAR LFOT</title>
<lastBuildDate>2026-06-03 17:05:33 UTC</lastBuildDate>

<item>
<title>LFOT METAR/TAF</title>
<description>🟢 METAR LFOT 031700Z AUTO 20011KT 9000 -DZ OVC007 17/17 Q1010 TEMPO 22015G30KT 4000 -RADZ

🟡 TAF AMD LFOT 031606Z 0316/0412 22015KT 9999 BKN020 PROB40 TEMPO 0316/0321 22015G30KT 4000 -RADZ BKN008 PROB30 TEMPO 0403/0406 4000 -RADZ BKN012 TEMPO 0409/0412 25015G30KT 4000 -SHRA BKN030TCU</description>
<pubDate>2026-06-03 17:05:33 UTC</pubDate>
</item>

</channel>
</rss>
