<?xml version="1.0" encoding="UTF-8"?>
<rss version="2.0">
<channel>
<title>METAR LFOT</title>
<lastBuildDate>2026-07-17 05:05:37 UTC</lastBuildDate>

<item>
<title>LFOT METAR/TAF</title>
<description>🟢 METAR LFOT 170500Z AUTO VRB03KT CAVOK 18/17 Q1014 TEMPO BKN070TCU

🟡 TAF LFOT 162300Z 1700/1724 VRB02KT CAVOK PROB40 TEMPO 1700/1706 -SHRA BKN070TCU PROB40 TEMPO 1701/1705 VRB10G20KT TSRA BKN070CB PROB40 TEMPO 1713/1720 VRB10G20KT -SHRA SCT050TCU PROB30 TEMPO 1713/1720 -TSRA SCT050CB</description>
<pubDate>2026-07-17 05:05:37 UTC</pubDate>
</item>

</channel>
</rss>
