<?xml version="1.0" encoding="UTF-8"?>
<rss version="2.0">
<channel>
<title>METAR LFOT</title>
<lastBuildDate>2026-05-19 05:47:46 UTC</lastBuildDate>

<item>
<title>LFOT METAR/TAF</title>
<description>🟢 METAR LFOT 190530Z AUTO 17005KT 9999 OVC043 11/10 Q1016 TEMPO 4000 BKN012

🟡 TAF LFOT 190500Z 1906/2006 18008KT CAVOK TEMPO 1906/1920 -RA PROB40 TEMPO 1906/1915 BKN014 PROB30 TEMPO 1906/1911 4500 -RADZ BKN009 TEMPO 1912/1918 22015G25KT</description>
<pubDate>2026-05-19 05:47:46 UTC</pubDate>
</item>

</channel>
</rss>
