<?xml version="1.0" encoding="UTF-8"?>
<rss version="2.0">
<channel>
<title>METAR LFOT</title>
<lastBuildDate>2026-05-12 16:05:25 UTC</lastBuildDate>

<item>
<title>LFOT METAR/TAF</title>
<description>🟢 METAR LFOT 121530Z AUTO 31004KT 240V050 9999 FEW048 BKN058 17/07 Q1015 NOSIG

🟡 TAF LFOT 121100Z 1212/1312 30005KT 9999 BKN030</description>
<pubDate>2026-05-12 16:05:25 UTC</pubDate>
</item>

</channel>
</rss>
