<?xml version="1.0" encoding="UTF-8"?>
<rss version="2.0">
<channel>
<title>METAR LFOT</title>
<lastBuildDate>2026-07-08 12:05:33 UTC</lastBuildDate>

<item>
<title>LFOT METAR/TAF</title>
<description>🟢 METAR LFOT 081200Z AUTO 30005KT 200V360 CAVOK 33/06 Q1019 NOSIG

🟡 TAF LFOT 081100Z 0812/0912 33006KT CAVOK BECMG 0822/0824 04007KT</description>
<pubDate>2026-07-08 12:05:33 UTC</pubDate>
</item>

</channel>
</rss>
