<?xml version="1.0" encoding="UTF-8"?>
<rss version="2.0">
<channel>
<title>METAR LFOT</title>
<lastBuildDate>2026-07-10 17:35:34 UTC</lastBuildDate>

<item>
<title>LFOT METAR/TAF</title>
<description>🟢 METAR LFOT 101730Z AUTO 05009KT 360V080 CAVOK 36/10 Q1010 NOSIG

🟡 TAF AMD LFOT 101141Z 1012/1112 07008KT CAVOK BECMG 1100/1102 VRB03KT PROB30 TEMPO 1108/1111 3000 -TSRA SCT100CB BECMG 1110/1112 07005KT</description>
<pubDate>2026-07-10 17:35:34 UTC</pubDate>
</item>

</channel>
</rss>
