<?xml version="1.0" encoding="UTF-8"?>
<rss version="2.0">
<channel>
<title>METAR LFOT</title>
<lastBuildDate>2026-05-07 08:05:30 UTC</lastBuildDate>

<item>
<title>LFOT METAR/TAF</title>
<description>🟢 METAR LFOT 070800Z AUTO 09004KT 040V130 CAVOK 13/09 Q1015 NOSIG

🟡 TAF LFOT 070500Z 0706/0806 VRB03KT CAVOK</description>
<pubDate>2026-05-07 08:05:30 UTC</pubDate>
</item>

</channel>
</rss>
