<?xml version="1.0" encoding="UTF-8"?>
<rss version="2.0">
<channel>
<title>METAR LFOT</title>
<lastBuildDate>2026-04-25 12:05:18 UTC</lastBuildDate>

<item>
<title>LFOT METAR/TAF</title>
<description>🟢 METAR LFOT 251200Z AUTO VRB04KT CAVOK 22/06 Q1018 NOSIG

🟡 TAF LFOT 251104Z 2512/2612 03005KT CAVOK</description>
<pubDate>2026-04-25 12:05:18 UTC</pubDate>
</item>

</channel>
</rss>
