<?xml version="1.0" encoding="UTF-8"?>
<rss version="2.0">
<channel>
<title>METAR LFOT</title>
<lastBuildDate>2026-04-30 13:35:24 UTC</lastBuildDate>

<item>
<title>LFOT METAR/TAF</title>
<description>🟢 METAR LFOT 301330Z AUTO 12005KT 050V190 CAVOK 25/11 Q1016 NOSIG

🟡 TAF LFOT 301100Z 3012/0112 08010KT CAVOK BECMG 3013/3015 19010KT PROB30 TEMPO 3018/3023 SCT060TCU TEMPO 0105/0108 BKN006</description>
<pubDate>2026-04-30 13:35:24 UTC</pubDate>
</item>

</channel>
</rss>
