<?xml version="1.0" encoding="UTF-8"?>
<rss version="2.0">
<channel>
<title>METAR LFOT</title>
<lastBuildDate>2026-05-20 17:33:56 UTC</lastBuildDate>

<item>
<title>LFOT METAR/TAF</title>
<description>🟢 METAR LFOT 201700Z AUTO 26006KT 230V330 CAVOK 21/11 Q1026 NOSIG

🟡 TAF LFOT 201700Z 2018/2118 26006KT CAVOK BECMG 2021/2024 08005KT PROB30 TEMPO 2103/2105 4000 BR</description>
<pubDate>2026-05-20 17:33:56 UTC</pubDate>
</item>

</channel>
</rss>
