<?xml version="1.0" encoding="UTF-8"?>
<rss version="2.0">
<channel>
<title>METAR LFOT</title>
<lastBuildDate>2026-07-03 11:35:33 UTC</lastBuildDate>

<item>
<title>LFOT METAR/TAF</title>
<description>🟢 METAR LFOT 031130Z AUTO 05006KT 330V110 CAVOK 26/12 Q1028 NOSIG

🟡 TAF LFOT 030500Z 0306/0406 01005KT CAVOK</description>
<pubDate>2026-07-03 11:35:33 UTC</pubDate>
</item>

</channel>
</rss>
