<?xml version="1.0" encoding="UTF-8"?>
<rss version="2.0">
<channel>
<title>METAR LFOT</title>
<lastBuildDate>2026-06-24 09:05:32 UTC</lastBuildDate>

<item>
<title>LFOT METAR/TAF</title>
<description>🟢 METAR LFOT 240900Z AUTO 19004KT 140V230 CAVOK 35/17 Q1017 NOSIG

🟡 TAF LFOT 240500Z 2406/2506 VRB03KT CAVOK PROB30 TEMPO 2415/2419 VRB15G30KT 4000 -TSRA FEW090CB</description>
<pubDate>2026-06-24 09:05:32 UTC</pubDate>
</item>

</channel>
</rss>
