<?xml version="1.0" encoding="UTF-8"?>
<rss version="2.0">
<channel>
<title>METAR LFOT</title>
<lastBuildDate>2026-07-22 16:39:58 UTC</lastBuildDate>

<item>
<title>LFOT METAR/TAF</title>
<description>🟢 METAR LFOT 221630Z AUTO 02009KT 310V080 CAVOK 28/09 Q1021 NOSIG

🟡 TAF LFOT 221100Z 2212/2312 04008KT CAVOK</description>
<pubDate>2026-07-22 16:39:58 UTC</pubDate>
</item>

</channel>
</rss>
