<?xml version="1.0" encoding="UTF-8"?>
<rss version="2.0">
<channel>
<title>METAR LFOT</title>
<lastBuildDate>2026-04-24 18:35:20 UTC</lastBuildDate>

<item>
<title>LFOT METAR/TAF</title>
<description>🟢 METAR LFOT 241830Z AUTO 04005KT 360V070 CAVOK 19/04 Q1017 NOSIG

🟡 TAF LFOT 241700Z 2418/2518 06008KT CAVOK PROB40 TEMPO 2506/2512 VRB03KT</description>
<pubDate>2026-04-24 18:35:20 UTC</pubDate>
</item>

</channel>
</rss>
