<?xml version="1.0" encoding="UTF-8"?>
<rss version="2.0">
<channel>
<title>METAR LFOT</title>
<lastBuildDate>2026-06-16 13:05:38 UTC</lastBuildDate>

<item>
<title>LFOT METAR/TAF</title>
<description>🟢 METAR LFOT 161300Z AUTO 21009KT 180V270 9999 BKN036 27/16 Q1017 NOSIG

🟡 TAF LFOT 161100Z 1612/1712 28012KT CAVOK BECMG 1618/1620 35006KT</description>
<pubDate>2026-06-16 13:05:38 UTC</pubDate>
</item>

</channel>
</rss>
