<?xml version="1.0" encoding="UTF-8"?>
<rss version="2.0">
<channel>
<title>METAR LFOT</title>

<item>
<title>LFOT METAR/TAF</title>
<description>🟢 METAR LFOT 171430Z AUTO VRB03KT CAVOK 21/08 Q1020 NOSIG

🟡 TAF LFOT 171100Z 1712/1812 13004KT CAVOK
</description>
</item>

</channel>
</rss>