<?xml version="1.0" encoding="UTF-8"?>
<rss version="2.0">
<channel>
<title>METAR LFOT</title>
<lastBuildDate>2026-06-15 16:05:48 UTC</lastBuildDate>

<item>
<title>LFOT METAR/TAF</title>
<description>🟢 METAR LFOT 151600Z AUTO 02003KT 340V070 9999 ///TCU 30/08 Q1014 BECMG NSC

🟡 TAF AMD LFOT 151141Z 1512/1612 12005KT CAVOK PROB40 TEMPO 1512/1516 BKN100TCU BECMG 1518/1520 VRB03KT BECMG 1602/1604 28008KT</description>
<pubDate>2026-06-15 16:05:48 UTC</pubDate>
</item>

</channel>
</rss>
