<?xml version="1.0" encoding="UTF-8"?>
<rss version="2.0">
<channel>
<title>METAR LFOT</title>
<lastBuildDate>2026-07-16 17:59:59 UTC</lastBuildDate>

<item>
<title>LFOT METAR/TAF</title>
<description>🟢 METAR LFOT 161730Z AUTO 00000KT 9999 ///CB 32/15 Q1013 TEMPO VRB15G30KT 3000 -TSRA

🟡 TAF LFOT 161700Z 1618/1718 VRB05KT CAVOK PROB40 TEMPO 1618/1621 VRB15G35KT 3000 -TSRA SCT080CB BECMG 1707/1709 28008KT</description>
<pubDate>2026-07-16 17:59:59 UTC</pubDate>
</item>

</channel>
</rss>
