<?xml version="1.0" encoding="UTF-8"?>
<rss version="2.0">
<channel>
<title>METAR LFOT</title>
<lastBuildDate>2026-05-24 17:37:34 UTC</lastBuildDate>

<item>
<title>LFOT METAR/TAF</title>
<description>🟢 METAR LFOT 241730Z AUTO 05009KT CAVOK 29/17 Q1026 NOSIG

🟡 TAF LFOT 241100Z 2412/2512 06008KT CAVOK</description>
<pubDate>2026-05-24 17:37:34 UTC</pubDate>
</item>

</channel>
</rss>
