<?xml version="1.0" encoding="UTF-8"?>
<rss version="2.0">
<channel>
<title>METAR LFOT</title>
<lastBuildDate>2026-07-09 01:12:11 UTC</lastBuildDate>

<item>
<title>LFOT METAR/TAF</title>
<description>🟢 METAR LFOT 090100Z AUTO 04005KT 010V070 CAVOK 25/12 Q1017 NOSIG

🟡 TAF LFOT 082300Z 0900/0924 VRB03KT CAVOK BECMG 0900/0902 04006KT</description>
<pubDate>2026-07-09 01:12:11 UTC</pubDate>
</item>

</channel>
</rss>
