<?xml version="1.0" encoding="UTF-8"?>
<rss version="2.0">
<channel>
<title>METAR LFOT</title>
<lastBuildDate>2026-06-29 16:35:36 UTC</lastBuildDate>

<item>
<title>LFOT METAR/TAF</title>
<description>🟢 METAR LFOT 291630Z AUTO 31004KT 250V030 CAVOK 28/14 Q1024 NOSIG

🟡 TAF LFOT 291100Z 2912/3012 36006KT CAVOK</description>
<pubDate>2026-06-29 16:35:36 UTC</pubDate>
</item>

</channel>
</rss>
