<?xml version="1.0" encoding="UTF-8"?>
<rss version="2.0">
<channel>
<title>METAR LFOT</title>
<lastBuildDate>2026-07-06 15:35:37 UTC</lastBuildDate>

<item>
<title>LFOT METAR/TAF</title>
<description>🟢 METAR LFOT 061530Z AUTO 04005KT 330V090 CAVOK 35/07 Q1020 NOSIG

🟡 TAF LFOT 061100Z 0612/0712 VRB03KT CAVOK BECMG 0708/0710 27010KT</description>
<pubDate>2026-07-06 15:35:37 UTC</pubDate>
</item>

</channel>
</rss>
