<?xml version="1.0" encoding="UTF-8"?>
<rss version="2.0">
<channel>
<title>METAR LFOT</title>
<lastBuildDate>2026-06-11 06:05:28 UTC</lastBuildDate>

<item>
<title>LFOT METAR/TAF</title>
<description>🟢 METAR LFOT 110600Z AUTO 27003KT 240V320 9999 OVC043 13/09 Q1025 NOSIG

🟡 TAF LFOT 110500Z 1106/1206 25005KT CAVOK</description>
<pubDate>2026-06-11 06:05:28 UTC</pubDate>
</item>

</channel>
</rss>
