<?xml version="1.0" encoding="UTF-8"?>
<rss version="2.0">
<channel>
<title>METAR LFOT</title>
<lastBuildDate>2026-06-11 06:35:24 UTC</lastBuildDate>

<item>
<title>LFOT METAR/TAF</title>
<description>🟢 METAR LFOT 110630Z AUTO VRB03KT 9999 BKN043 13/09 Q1026 NOSIG

🟡 TAF AMD LFOT 110623Z 1106/1206 25005KT CAVOK PROB40 1203/1206 BKN012 PROB30 TEMPO 1205/1206 BKN008</description>
<pubDate>2026-06-11 06:35:24 UTC</pubDate>
</item>

</channel>
</rss>
