<?xml version="1.0" encoding="UTF-8"?>
<rss version="2.0">
<channel>
<title>METAR LFOT</title>
<lastBuildDate>2026-06-26 18:35:32 UTC</lastBuildDate>

<item>
<title>LFOT METAR/TAF</title>
<description>🟢 METAR LFOT 261830Z AUTO VRB03KT CAVOK 35/15 Q1015 TEMPO FEW090TCU

🟡 TAF LFOT 261700Z 2618/2718 35004KT CAVOK PROB30 TEMPO 2620/2623 FEW090TCU PROB40 TEMPO 2715/2718 4000 -TSRA SCT075CB PROB30 TEMPO 2715/2718 VRB12G30KT -GSRA</description>
<pubDate>2026-06-26 18:35:32 UTC</pubDate>
</item>

</channel>
</rss>
