<?xml version="1.0" encoding="UTF-8"?>
<rss version="2.0">
<channel>
<title>METAR LFOT</title>
<lastBuildDate>2026-07-08 07:35:34 UTC</lastBuildDate>

<item>
<title>LFOT METAR/TAF</title>
<description>🟢 METAR LFOT 080730Z AUTO 07005KT 330V100 CAVOK 26/09 Q1019 NOSIG

🟡 TAF LFOT 080500Z 0806/0906 02005KT CAVOK</description>
<pubDate>2026-07-08 07:35:34 UTC</pubDate>
</item>

</channel>
</rss>
