<?xml version="1.0" encoding="UTF-8"?>
<rss version="2.0">
<channel>
<title>METAR LFOT</title>
<lastBuildDate>2026-04-30 14:35:28 UTC</lastBuildDate>

<item>
<title>LFOT METAR/TAF</title>
<description>🟢 METAR LFOT 301430Z AUTO 21005KT 140V250 9999 ///TCU 24/12 Q1016 BECMG NSC

🟡 TAF LFOT 301100Z 3012/0112 08010KT CAVOK BECMG 3013/3015 19010KT PROB30 TEMPO 3018/3023 SCT060TCU TEMPO 0105/0108 BKN006</description>
<pubDate>2026-04-30 14:35:28 UTC</pubDate>
</item>

</channel>
</rss>
