<?xml version="1.0" encoding="UTF-8"?>
<rss version="2.0">
<channel>
<title>METAR LFOT</title>
<lastBuildDate>2026-07-11 05:05:34 UTC</lastBuildDate>

<item>
<title>LFOT METAR/TAF</title>
<description>🟢 METAR LFOT 110500Z AUTO 07007KT CAVOK 22/14 Q1013 TEMPO 3000 -TSRA SCT090CB

🟡 TAF LFOT 102300Z 1100/1124 05008KT CAVOK PROB40 TEMPO 1105/1111 VRB05KT BKN100TCU PROB30 TEMPO 1106/1110 3000 -TSRA SCT090CB BECMG 1110/1112 11005KT BECMG 1120/1122 04008KT</description>
<pubDate>2026-07-11 05:05:34 UTC</pubDate>
</item>

</channel>
</rss>
