<?xml version="1.0" encoding="UTF-8"?>
<rss version="2.0">
<channel>
<title>METAR LFOT</title>
<lastBuildDate>2026-07-01 06:35:34 UTC</lastBuildDate>

<item>
<title>LFOT METAR/TAF</title>
<description>🟢 METAR LFOT 010630Z AUTO 35005KT 310V060 CAVOK 18/12 Q1025 NOSIG

🟡 TAF LFOT 010500Z 0106/0206 34008KT CAVOK</description>
<pubDate>2026-07-01 06:35:34 UTC</pubDate>
</item>

</channel>
</rss>
