<?xml version="1.0" encoding="UTF-8"?>
<rss version="2.0">
<channel>
<title>METAR LFOT</title>
<lastBuildDate>2026-06-11 05:05:27 UTC</lastBuildDate>

<item>
<title>LFOT METAR/TAF</title>
<description>🟢 METAR LFOT 110500Z AUTO 27003KT 240V310 9999 OVC043 11/09 Q1025 NOSIG

🟡 TAF LFOT 102300Z 1100/1124 30005KT CAVOK</description>
<pubDate>2026-06-11 05:05:27 UTC</pubDate>
</item>

</channel>
</rss>
