<?xml version="1.0" encoding="UTF-8"?>
<rss version="2.0">
<channel>
<title>METAR LFOT</title>
<lastBuildDate>2026-05-23 17:35:19 UTC</lastBuildDate>

<item>
<title>LFOT METAR/TAF</title>
<description>🟢 METAR LFOT 231730Z AUTO 05007KT 360V070 CAVOK 28/15 Q1026 NOSIG

🟡 TAF LFOT 231700Z 2318/2418 07005KT CAVOK</description>
<pubDate>2026-05-23 17:35:19 UTC</pubDate>
</item>

</channel>
</rss>
