<?xml version="1.0" encoding="UTF-8"?>
<rss version="2.0">
<channel>
<title>METAR LFOT</title>

<item>
<title>LFOT METAR/TAF</title>
<description>🟢 METAR LFOT 201130Z AUTO 06012KT 030V090 CAVOK 15/08 Q1018 NOSIG

🟡 TAF LFOT 201100Z 2012/2112 05012KT CAVOK PROB40 TEMPO 2110/2112 05015G25KT
</description>
</item>

</channel>
</rss>