<?xml version="1.0" encoding="UTF-8"?>
<rss version="2.0">
<channel>
<title>METAR LFOT</title>
<lastBuildDate>2026-05-01 17:05:30 UTC</lastBuildDate>

<item>
<title>LFOT METAR/TAF</title>
<description>🟢 METAR LFOT 011700Z AUTO 13005KT 9999 FEW038/// BKN094/// OVC120/// ///CB 17/16 Q1020 NOSIG

🟡 TAF LFOT 011100Z 0112/0212 18005KT 9999 BKN030 TEMPO 0112/0119 -SHRA SCT050TCU PROB40 TEMPO 0113/0117 21010G25KT 4000 -TSRA SCT050CB BECMG 0117/0119 12003KT PROB30 TEMPO 0201/0203 -SHRA SCT050TCU BECMG 0207/0209 25010KT PROB40 TEMPO 0208/0212 -SHRA FEW060TCU</description>
<pubDate>2026-05-01 17:05:30 UTC</pubDate>
</item>

</channel>
</rss>
