<?xml version="1.0" encoding="UTF-8"?>
<rss version="2.0">
<channel>
<title>METAR LFOT</title>
<lastBuildDate>2026-05-11 17:05:31 UTC</lastBuildDate>

<item>
<title>LFOT METAR/TAF</title>
<description>🟢 METAR LFOT 111700Z AUTO 35006KT 300V030 9999 BKN040 BKN048 15/07 Q1012 NOSIG

🟡 TAF LFOT 111100Z 1112/1212 36008KT 9999 BKN012 BECMG 1112/1113 BKN020 PROB30 TEMPO 1204/1206 4500 BR</description>
<pubDate>2026-05-11 17:05:31 UTC</pubDate>
</item>

</channel>
</rss>
