<?xml version="1.0" encoding="UTF-8"?>
<rss version="2.0">
<channel>
<title>METAR LFOT</title>
<lastBuildDate>2026-06-19 11:05:31 UTC</lastBuildDate>

<item>
<title>LFOT METAR/TAF</title>
<description>🟢 METAR LFOT 191100Z AUTO 24005KT 180V310 CAVOK 31/14 Q1014 NOSIG

🟡 TAF LFOT 190500Z 1906/2006 20008KT CAVOK PROB30 TEMPO 1917/1920 VRB15G30KT 4000 -TSRA SCT080CB</description>
<pubDate>2026-06-19 11:05:31 UTC</pubDate>
</item>

</channel>
</rss>
