<?xml version="1.0" encoding="UTF-8"?>
<rss version="2.0">
<channel>
<title>METAR LFOT</title>
<lastBuildDate>2026-06-05 08:05:29 UTC</lastBuildDate>

<item>
<title>LFOT METAR/TAF</title>
<description>🟢 METAR LFOT 050800Z AUTO 25006KT 210V290 9999 FEW023 15/08 Q1017 NOSIG

🟡 TAF LFOT 050500Z 0506/0606 25005KT CAVOK BECMG 0603/0605 19010KT TEMPO 0605/0606 -RA</description>
<pubDate>2026-06-05 08:05:29 UTC</pubDate>
</item>

</channel>
</rss>
