<?xml version="1.0" encoding="UTF-8"?>
<rss version="2.0">
<channel>
<title>METAR LFOT</title>
<lastBuildDate>2026-05-24 14:12:32 UTC</lastBuildDate>

<item>
<title>LFOT METAR/TAF</title>
<description>🟢 METAR LFOT 241400Z AUTO 05007KT 360V080 CAVOK 30/17 Q1027 NOSIG

🟡 TAF LFOT 241100Z 2412/2512 06008KT CAVOK</description>
<pubDate>2026-05-24 14:12:32 UTC</pubDate>
</item>

</channel>
</rss>
