<?xml version="1.0" encoding="UTF-8"?>
<rss version="2.0">
<channel>
<title>METAR LFOT</title>
<lastBuildDate>2026-06-13 21:57:50 UTC</lastBuildDate>

<item>
<title>LFOT METAR/TAF</title>
<description>🟢 METAR LFOT 132130Z AUTO 32002KT CAVOK 20/14 Q1022 NOSIG

🟡 TAF LFOT 131700Z 1318/1418 34005KT CAVOK</description>
<pubDate>2026-06-13 21:57:50 UTC</pubDate>
</item>

</channel>
</rss>
