<?xml version="1.0" encoding="UTF-8"?>
<rss version="2.0">
<channel>
<title>METAR LFOT</title>
<lastBuildDate>2026-07-18 15:35:36 UTC</lastBuildDate>

<item>
<title>LFOT METAR/TAF</title>
<description>🟢 METAR LFOT 181530Z AUTO VRB03KT CAVOK 31/09 Q1016 NOSIG

🟡 TAF LFOT 181100Z 1812/1912 35004KT CAVOK BECMG 1821/1824 03010KT</description>
<pubDate>2026-07-18 15:35:36 UTC</pubDate>
</item>

</channel>
</rss>
