<?xml version="1.0" encoding="UTF-8"?>
<rss version="2.0">
<channel>
<title>METAR LFOT</title>
<lastBuildDate>2026-05-25 08:35:24 UTC</lastBuildDate>

<item>
<title>LFOT METAR/TAF</title>
<description>🟢 METAR LFOT 250830Z AUTO 08005KT 060V120 CAVOK 26/19 Q1028 NOSIG

🟡 TAF LFOT 250500Z 2506/2606 07008KT CAVOK</description>
<pubDate>2026-05-25 08:35:24 UTC</pubDate>
</item>

</channel>
</rss>
