<?xml version="1.0" encoding="UTF-8"?>
<rss version="2.0">
<channel>
<title>METAR LFOT</title>
<lastBuildDate>2026-06-02 06:05:21 UTC</lastBuildDate>

<item>
<title>LFOT METAR/TAF</title>
<description>🟢 METAR LFOT 020600Z AUTO 20009KT 170V230 9999 FEW031/// SCT037/// BKN043/// ///CB 17/14 Q1009 TEMPO 22015G25KT TSRA BKN014CB

🟡 TAF LFOT 020500Z 0206/0306 22009KT 8000 BKN016 TEMPO 0206/0208 22015G25KT TSRA BKN014CB PROB40 TEMPO 0210/0221 26015G30KT 4000 -TSRAGS SCT030CB</description>
<pubDate>2026-06-02 06:05:21 UTC</pubDate>
</item>

</channel>
</rss>
