<?xml version="1.0" encoding="UTF-8"?>
<rss version="2.0">
<channel>
<title>METAR LFOT</title>
<lastBuildDate>2026-07-14 05:05:34 UTC</lastBuildDate>

<item>
<title>LFOT METAR/TAF</title>
<description>🟢 METAR LFOT 140500Z AUTO VRB02KT CAVOK 23/16 Q1015 NOSIG

🟡 TAF LFOT 132300Z 1400/1424 24005KT CAVOK</description>
<pubDate>2026-07-14 05:05:34 UTC</pubDate>
</item>

</channel>
</rss>
