<?xml version="1.0" encoding="UTF-8"?>
<rss version="2.0">
<channel>
<title>METAR LFOT</title>
<lastBuildDate>2026-07-10 14:05:32 UTC</lastBuildDate>

<item>
<title>LFOT METAR/TAF</title>
<description>🟢 METAR LFOT 101400Z AUTO 03007KT 320V120 CAVOK 36/11 Q1011 NOSIG

🟡 TAF AMD LFOT 101141Z 1012/1112 07008KT CAVOK BECMG 1100/1102 VRB03KT PROB30 TEMPO 1108/1111 3000 -TSRA SCT100CB BECMG 1110/1112 07005KT</description>
<pubDate>2026-07-10 14:05:32 UTC</pubDate>
</item>

</channel>
</rss>
