<?xml version="1.0" encoding="UTF-8"?>
<rss version="2.0">
<channel>
<title>METAR LFOT</title>
<lastBuildDate>2026-07-04 13:35:33 UTC</lastBuildDate>

<item>
<title>LFOT METAR/TAF</title>
<description>🟢 METAR LFOT 041330Z AUTO 31006KT 240V040 CAVOK 30/04 Q1028 NOSIG

🟡 TAF LFOT 041100Z 0412/0512 36006KT CAVOK</description>
<pubDate>2026-07-04 13:35:33 UTC</pubDate>
</item>

</channel>
</rss>
