<?xml version="1.0" encoding="UTF-8"?>
<rss version="2.0">
<channel>
<title>METAR LFOT</title>
<lastBuildDate>2026-06-26 18:05:35 UTC</lastBuildDate>

<item>
<title>LFOT METAR/TAF</title>
<description>🟢 METAR LFOT 261800Z AUTO 12004KT 070V140 CAVOK 36/15 Q1015 NOSIG

🟡 TAF LFOT 261700Z 2618/2718 35004KT CAVOK PROB30 TEMPO 2620/2623 FEW090TCU PROB40 TEMPO 2715/2718 4000 -TSRA SCT075CB PROB30 TEMPO 2715/2718 VRB12G30KT -GSRA</description>
<pubDate>2026-06-26 18:05:35 UTC</pubDate>
</item>

</channel>
</rss>
