<?xml version="1.0" encoding="UTF-8"?>
<rss version="2.0">
<channel>
<title>METAR LFOT</title>
<lastBuildDate>2026-05-28 19:29:28 UTC</lastBuildDate>

<item>
<title>LFOT METAR/TAF</title>
<description>🟢 METAR LFOT 281900Z AUTO 06005KT CAVOK 27/20 Q1021 NOSIG

🟡 TAF LFOT 281700Z 2818/2918 VRB04KT CAVOK</description>
<pubDate>2026-05-28 19:29:28 UTC</pubDate>
</item>

</channel>
</rss>
