<?xml version="1.0" encoding="UTF-8"?>
<rss version="2.0">
<channel>
<title>METAR LFOT</title>
<lastBuildDate>2026-05-07 08:35:28 UTC</lastBuildDate>

<item>
<title>LFOT METAR/TAF</title>
<description>🟢 METAR LFOT 070830Z AUTO 08004KT 040V110 CAVOK 13/08 Q1015 NOSIG

🟡 TAF LFOT 070500Z 0706/0806 VRB03KT CAVOK</description>
<pubDate>2026-05-07 08:35:28 UTC</pubDate>
</item>

</channel>
</rss>
