<?xml version="1.0" encoding="UTF-8"?>
<rss version="2.0">
<channel>
<title>METAR LFOT</title>
<lastBuildDate>2026-07-18 09:05:34 UTC</lastBuildDate>

<item>
<title>LFOT METAR/TAF</title>
<description>🟢 METAR LFOT 180900Z AUTO VRB03KT CAVOK 25/16 Q1017 NOSIG

🟡 TAF LFOT 180500Z 1806/1906 32004KT CAVOK BECMG 1808/1811 VRB03KT BECMG 1820/1824 04010KT</description>
<pubDate>2026-07-18 09:05:34 UTC</pubDate>
</item>

</channel>
</rss>
