<?xml version="1.0" encoding="UTF-8"?>
<rss version="2.0">
<channel>
<title>METAR LFOT</title>
<lastBuildDate>2026-07-18 12:35:35 UTC</lastBuildDate>

<item>
<title>LFOT METAR/TAF</title>
<description>🟢 METAR LFOT 181230Z AUTO VRB03KT CAVOK 29/12 Q1017 NOSIG

🟡 TAF LFOT 181100Z 1812/1912 35004KT CAVOK BECMG 1821/1824 03010KT</description>
<pubDate>2026-07-18 12:35:35 UTC</pubDate>
</item>

</channel>
</rss>
