<?xml version="1.0" encoding="UTF-8"?>
<rss version="2.0">
<channel>
<title>METAR LFOT</title>
<lastBuildDate>2026-05-13 21:51:29 UTC</lastBuildDate>

<item>
<title>LFOT METAR/TAF</title>
<description>🟢 METAR LFOT 132130Z AUTO 25007KT 9999 FEW031 BKN049 OVC084 10/09 Q1008 NOSIG

🟡 TAF LFOT 131700Z 1318/1418 26015KT 9999 SCT020 PROB40 TEMPO 1318/1322 26015G25KT 4000 -SHRA SCT020TCU PROB30 TEMPO 1318/1322 26015G25KT 4000 -SHRA SCT020CB PROB40 TEMPO 1410/1416 4000 SHRA BKN020CB PROB30 TEMPO 1413/1417 2000 TSRA BKN020CB</description>
<pubDate>2026-05-13 21:51:29 UTC</pubDate>
</item>

</channel>
</rss>
