<?xml version="1.0" encoding="UTF-8"?>
<rss version="2.0">
<channel>
<title>METAR LFOT</title>
<lastBuildDate>2026-06-16 11:05:39 UTC</lastBuildDate>

<item>
<title>LFOT METAR/TAF</title>
<description>🟢 METAR LFOT 161100Z AUTO 21010KT 180V240 CAVOK 24/17 Q1017 NOSIG

🟡 TAF AMD LFOT 160838Z 1608/1706 27005KT CAVOK PROB40 TEMPO 1608/1610 BKN015</description>
<pubDate>2026-06-16 11:05:39 UTC</pubDate>
</item>

</channel>
</rss>
