<?xml version="1.0" encoding="UTF-8"?>
<rss version="2.0">
<channel>
<title>METAR LFOT</title>
<lastBuildDate>2026-06-19 06:05:35 UTC</lastBuildDate>

<item>
<title>LFOT METAR/TAF</title>
<description>🟢 METAR LFOT 190600Z AUTO 17005KT 140V200 CAVOK 24/16 Q1014 NOSIG

🟡 TAF LFOT 190500Z 1906/2006 20008KT CAVOK PROB30 TEMPO 1917/1920 VRB15G30KT 4000 -TSRA SCT080CB</description>
<pubDate>2026-06-19 06:05:35 UTC</pubDate>
</item>

</channel>
</rss>
