<?xml version="1.0" encoding="UTF-8"?>
<rss version="2.0">
<channel>
<title>METAR LFOT</title>
<lastBuildDate>2026-05-17 12:41:27 UTC</lastBuildDate>

<item>
<title>LFOT METAR/TAF</title>
<description>🟢 METAR LFOT 171230Z AUTO 24008KT 200V280 9999 TS FEW016/// SCT050/// BKN074/// ///CB 15/13 Q1013 TEMPO 2500 -TSRA

🟡 TAF AMD LFOT 171237Z 1712/1812 22010KT 9999 SCT025 TEMPO 1712/1724 4000 -SHRA SCT020TCU PROB30 TEMPO 1712/1716 2500 -TSRA SCT020CB PROB30 TEMPO 1803/1807 BKN004 BECMG 1805/1807 BKN008 BECMG 1807/1810 BKN030</description>
<pubDate>2026-05-17 12:41:27 UTC</pubDate>
</item>

</channel>
</rss>
