<?xml version="1.0" encoding="UTF-8"?>
<rss version="2.0">
<channel>
<title>METAR LFOT</title>
<lastBuildDate>2026-05-21 21:00:35 UTC</lastBuildDate>

<item>
<title>LFOT METAR/TAF</title>
<description>🟢 METAR LFOT 212030Z AUTO 04002KT CAVOK 18/13 Q1025 NOSIG

🟡 TAF LFOT 211700Z 2118/2218 10006KT CAVOK</description>
<pubDate>2026-05-21 21:00:35 UTC</pubDate>
</item>

</channel>
</rss>
