<?xml version="1.0" encoding="UTF-8"?>
<rss version="2.0">
<channel>
<title>METAR LFOT</title>
<lastBuildDate>2026-04-26 23:59:35 UTC</lastBuildDate>

<item>
<title>LFOT METAR/TAF</title>
<description>🟢 METAR LFOT 262330Z AUTO VRB03KT CAVOK 12/04 Q1021 NOSIG

🟡 TAF LFOT 262300Z 2700/2724 05008KT CAVOK</description>
<pubDate>2026-04-26 23:59:35 UTC</pubDate>
</item>

</channel>
</rss>
