<?xml version="1.0" encoding="UTF-8"?>
<rss version="2.0">
<channel>
<title>METAR LFOT</title>
<lastBuildDate>2026-05-07 04:35:27 UTC</lastBuildDate>

<item>
<title>LFOT METAR/TAF</title>
<description>🟢 METAR LFOT 070430Z AUTO VRB03KT CAVOK 07/06 Q1014 TEMPO 4000 BR

🟡 TAF LFOT 062300Z 0700/0724 VRB03KT CAVOK PROB30 TEMPO 0704/0707 4000 BR</description>
<pubDate>2026-05-07 04:35:27 UTC</pubDate>
</item>

</channel>
</rss>
