<?xml version="1.0" encoding="UTF-8"?>
<rss version="2.0">
<channel>
<title>METAR LFOT</title>
<lastBuildDate>2026-07-06 05:35:31 UTC</lastBuildDate>

<item>
<title>LFOT METAR/TAF</title>
<description>🟢 METAR LFOT 060530Z AUTO 06005KT CAVOK 20/13 Q1022 NOSIG

🟡 TAF LFOT 052300Z 0600/0624 VRB03KT CAVOK</description>
<pubDate>2026-07-06 05:35:31 UTC</pubDate>
</item>

</channel>
</rss>
