<?xml version="1.0" encoding="UTF-8"?>
<rss version="2.0">
<channel>
<title>METAR LFOT</title>
<lastBuildDate>2026-05-24 22:41:17 UTC</lastBuildDate>

<item>
<title>LFOT METAR/TAF</title>
<description>🟢 METAR LFOT 242230Z AUTO 06008KT CAVOK 22/17 Q1027 NOSIG

🟡 TAF LFOT 241700Z 2418/2518 08007KT CAVOK</description>
<pubDate>2026-05-24 22:41:17 UTC</pubDate>
</item>

</channel>
</rss>
