<?xml version="1.0" encoding="UTF-8"?>
<rss version="2.0">
<channel>
<title>METAR LFOT</title>
<lastBuildDate>2026-04-28 15:47:30 UTC</lastBuildDate>

<item>
<title>LFOT METAR/TAF</title>
<description>🟢 METAR LFOT 281530Z AUTO 06007KT 020V090 CAVOK 20/07 Q1014 NOSIG

🟡 TAF LFOT 281100Z 2812/2912 02008KT CAVOK PROB30 TEMPO 2820/2823 SCT090TCU BECMG 2906/2908 08010G20KT</description>
<pubDate>2026-04-28 15:47:30 UTC</pubDate>
</item>

</channel>
</rss>
