<?xml version="1.0" encoding="UTF-8"?>
<rss version="2.0">
<channel>
<title>METAR LFOT</title>
<lastBuildDate>2026-05-21 09:35:25 UTC</lastBuildDate>

<item>
<title>LFOT METAR/TAF</title>
<description>🟢 METAR LFOT 210930Z AUTO 12006KT 080V150 CAVOK 22/13 Q1027 NOSIG

🟡 TAF LFOT 210500Z 2106/2206 13005KT CAVOK</description>
<pubDate>2026-05-21 09:35:25 UTC</pubDate>
</item>

</channel>
</rss>
