<?xml version="1.0" encoding="UTF-8"?>
<rss version="2.0">
<channel>
<title>METAR LFOT</title>
<lastBuildDate>2026-07-01 17:05:32 UTC</lastBuildDate>

<item>
<title>LFOT METAR/TAF</title>
<description>🟢 METAR LFOT 011700Z AUTO 32007KT 240V360 9999 BKN047 24/13 Q1025 NOSIG

🟡 TAF LFOT 011100Z 0112/0212 31010KT CAVOK TEMPO 0114/0118 32012G22KT</description>
<pubDate>2026-07-01 17:05:32 UTC</pubDate>
</item>

</channel>
</rss>
