<?xml version="1.0" encoding="UTF-8"?>
<rss version="2.0">
<channel>
<title>METAR LFOT</title>
<lastBuildDate>2026-06-28 23:48:16 UTC</lastBuildDate>

<item>
<title>LFOT METAR/TAF</title>
<description>🟢 METAR LFOT 282330Z AUTO 31008KT 280V340 CAVOK 21/17 Q1023 NOSIG

🟡 TAF LFOT 282300Z 2900/2924 30007KT CAVOK</description>
<pubDate>2026-06-28 23:48:16 UTC</pubDate>
</item>

</channel>
</rss>
