<?xml version="1.0" encoding="UTF-8"?>
<rss version="2.0">
<channel>
<title>METAR LFOT</title>
<lastBuildDate>2026-06-29 12:35:33 UTC</lastBuildDate>

<item>
<title>LFOT METAR/TAF</title>
<description>🟢 METAR LFOT 291230Z AUTO VRB05KT CAVOK 25/13 Q1026 NOSIG

🟡 TAF LFOT 291100Z 2912/3012 36006KT CAVOK</description>
<pubDate>2026-06-29 12:35:33 UTC</pubDate>
</item>

</channel>
</rss>
