<?xml version="1.0" encoding="UTF-8"?>
<rss version="2.0">
<channel>
<title>METAR LFOT</title>
<lastBuildDate>2026-07-06 06:05:32 UTC</lastBuildDate>

<item>
<title>LFOT METAR/TAF</title>
<description>🟢 METAR LFOT 060600Z AUTO 07005KT CAVOK 21/13 Q1023 NOSIG

🟡 TAF LFOT 060500Z 0606/0706 07005KT CAVOK</description>
<pubDate>2026-07-06 06:05:32 UTC</pubDate>
</item>

</channel>
</rss>
