<?xml version="1.0" encoding="UTF-8"?>
<rss version="2.0">
<channel>
<title>METAR LFOT</title>
<lastBuildDate>2026-06-05 05:05:27 UTC</lastBuildDate>

<item>
<title>LFOT METAR/TAF</title>
<description>🟢 METAR LFOT 050500Z AUTO 21003KT 180V240 9999 FEW027 10/08 Q1016 NOSIG

🟡 TAF LFOT 042300Z 0500/0524 25008KT CAVOK</description>
<pubDate>2026-06-05 05:05:27 UTC</pubDate>
</item>

</channel>
</rss>
