<?xml version="1.0" encoding="UTF-8"?>
<rss version="2.0">
<channel>
<title>METAR LFOT</title>
<lastBuildDate>2026-07-03 15:05:35 UTC</lastBuildDate>

<item>
<title>LFOT METAR/TAF</title>
<description>🟢 METAR LFOT 031500Z AUTO 04005KT 320V090 CAVOK 29/09 Q1027 NOSIG

🟡 TAF LFOT 031100Z 0312/0412 04008KT CAVOK BECMG 0410/0412 34008KT</description>
<pubDate>2026-07-03 15:05:35 UTC</pubDate>
</item>

</channel>
</rss>
