<?xml version="1.0" encoding="UTF-8"?>
<rss version="2.0">
<channel>
<title>METAR LFOT</title>
<lastBuildDate>2026-07-01 10:35:33 UTC</lastBuildDate>

<item>
<title>LFOT METAR/TAF</title>
<description>🟢 METAR LFOT 011030Z AUTO 32010KT 240V350 9999 SCT041 23/12 Q1026 NOSIG

🟡 TAF LFOT 010500Z 0106/0206 34008KT CAVOK</description>
<pubDate>2026-07-01 10:35:33 UTC</pubDate>
</item>

</channel>
</rss>
