<?xml version="1.0" encoding="UTF-8"?>
<rss version="2.0">
<channel>
<title>METAR LFOT</title>
<lastBuildDate>2026-07-14 09:49:46 UTC</lastBuildDate>

<item>
<title>LFOT METAR/TAF</title>
<description>🟢 METAR LFOT 140930Z AUTO 18004KT 110V240 CAVOK 29/17 Q1016 NOSIG

🟡 TAF LFOT 140500Z 1406/1506 25004KT CAVOK</description>
<pubDate>2026-07-14 09:49:46 UTC</pubDate>
</item>

</channel>
</rss>
