<?xml version="1.0" encoding="UTF-8"?>
<rss version="2.0">
<channel>
<title>METAR LFOT</title>
<lastBuildDate>2026-06-13 13:05:39 UTC</lastBuildDate>

<item>
<title>LFOT METAR/TAF</title>
<description>🟢 METAR LFOT 131300Z AUTO VRB05KT CAVOK 29/11 Q1023 NOSIG

🟡 TAF LFOT 131100Z 1312/1412 31005KT CAVOK</description>
<pubDate>2026-06-13 13:05:39 UTC</pubDate>
</item>

</channel>
</rss>
