<?xml version="1.0" encoding="UTF-8"?>
<rss version="2.0">
<channel>
<title>METAR LFOT</title>
<lastBuildDate>2026-04-29 06:40:52 UTC</lastBuildDate>

<item>
<title>LFOT METAR/TAF</title>
<description>🟢 METAR LFOT 290630Z AUTO 08010KT CAVOK 12/09 Q1013 NOSIG

🟡 TAF LFOT 290500Z 2906/3006 08011KT CAVOK TEMPO 2909/2918 09015G25KT</description>
<pubDate>2026-04-29 06:40:52 UTC</pubDate>
</item>

</channel>
</rss>
