<?xml version="1.0" encoding="UTF-8"?>
<rss version="2.0">
<channel>
<title>METAR LFOT</title>
<lastBuildDate>2026-07-06 18:05:34 UTC</lastBuildDate>

<item>
<title>LFOT METAR/TAF</title>
<description>🟢 METAR LFOT 061800Z AUTO VRB02KT CAVOK 35/08 Q1019 NOSIG

🟡 TAF LFOT 061700Z 0618/0718 VRB03KT CAVOK BECMG 0708/0710 27010KT</description>
<pubDate>2026-07-06 18:05:34 UTC</pubDate>
</item>

</channel>
</rss>
