<?xml version="1.0" encoding="UTF-8"?>
<rss version="2.0">
<channel>
<title>METAR LFOT</title>
<lastBuildDate>2026-06-09 01:29:55 UTC</lastBuildDate>

<item>
<title>LFOT METAR/TAF</title>
<description>🟢 METAR LFOT 090100Z AUTO 29006KT CAVOK 12/09 Q1020 NOSIG

🟡 TAF LFOT 082300Z 0900/0924 30006KT 9999 SCT045 PROB40 TEMPO 0915/0919 4000 -SHRA SCT045TCU</description>
<pubDate>2026-06-09 01:29:55 UTC</pubDate>
</item>

</channel>
</rss>
