<?xml version="1.0" encoding="UTF-8"?>
<rss version="2.0">
<channel>
<title>METAR LFOT</title>
<lastBuildDate>2026-07-09 12:46:17 UTC</lastBuildDate>

<item>
<title>LFOT METAR/TAF</title>
<description>🟢 METAR LFOT 091230Z AUTO 06010KT 030V090 CAVOK 33/14 Q1015 NOSIG

🟡 TAF LFOT 091100Z 0912/1012 07010KT CAVOK</description>
<pubDate>2026-07-09 12:46:17 UTC</pubDate>
</item>

</channel>
</rss>
