<?xml version="1.0" encoding="UTF-8"?>
<rss version="2.0">
<channel>
<title>METAR LFOT</title>
<lastBuildDate>2026-07-10 08:35:45 UTC</lastBuildDate>

<item>
<title>LFOT METAR/TAF</title>
<description>🟢 METAR LFOT 100830Z AUTO 07009KT CAVOK 29/13 Q1013 NOSIG

🟡 TAF LFOT 100500Z 1006/1106 06010KT CAVOK BECMG 1021/1023 19008KT PROB30 TEMPO 1022/1024 VRB12G22KT FEW120TCU</description>
<pubDate>2026-07-10 08:35:45 UTC</pubDate>
</item>

</channel>
</rss>
