<?xml version="1.0" encoding="UTF-8"?>
<rss version="2.0">
<channel>
<title>METAR LFOT</title>
<lastBuildDate>2026-07-11 07:05:33 UTC</lastBuildDate>

<item>
<title>LFOT METAR/TAF</title>
<description>🟢 METAR LFOT 110700Z AUTO 11005KT CAVOK 24/15 Q1014 NOSIG

🟡 TAF LFOT 110500Z 1106/1206 05003KT CAVOK PROB30 TEMPO 1116/1120 VRB15G30KT 4000 -TSRA SCT100CB BECMG 1110/1112 11005KT BECMG 1120/1122 04008KT</description>
<pubDate>2026-07-11 07:05:33 UTC</pubDate>
</item>

</channel>
</rss>
