<?xml version="1.0" encoding="UTF-8"?>
<rss version="2.0">
<channel>
<title>METAR LFOT</title>

<item>
<title>LFOT METAR/TAF</title>
<description>🟢 METAR LFOT 181700Z AUTO 33010KT CAVOK 17/11 Q1021 NOSIG

🟡 TAF LFOT 181700Z 1818/1918 34008KT CAVOK BECMG 1907/1909 05008KT
</description>
</item>

</channel>
</rss>