<?xml version="1.0" encoding="UTF-8"?>
<rss version="2.0">
<channel>
<title>METAR LFOT</title>
<lastBuildDate>2026-04-22 20:15:31 UTC</lastBuildDate>

<item>
<title>LFOT METAR/TAF</title>
<description>🟢 METAR LFOT 222000Z AUTO 06008KT CAVOK 12/04 Q1019 NOSIG

🟡 TAF LFOT 221700Z 2218/2318 06011KT CAVOK TEMPO 2312/2316 08013G23KT</description>
<pubDate>2026-04-22 20:15:31 UTC</pubDate>
</item>

</channel>
</rss>
