<?xml version="1.0" encoding="UTF-8"?>
<rss version="2.0">
<channel>
<title>METAR LFOT</title>
<lastBuildDate>2026-04-27 05:05:21 UTC</lastBuildDate>

<item>
<title>LFOT METAR/TAF</title>
<description>🟢 METAR LFOT 270500Z AUTO 03004KT CAVOK 09/04 Q1020 NOSIG

🟡 TAF LFOT 262300Z 2700/2724 05008KT CAVOK</description>
<pubDate>2026-04-27 05:05:21 UTC</pubDate>
</item>

</channel>
</rss>
