<?xml version="1.0" encoding="UTF-8"?>
<rss version="2.0">
<channel>
<title>METAR LFOT</title>
<lastBuildDate>2026-05-01 11:05:19 UTC</lastBuildDate>

<item>
<title>LFOT METAR/TAF</title>
<description>🟢 METAR LFOT 011100Z AUTO 19006KT 130V240 9999 SCT030 BKN043 OVC060 21/13 Q1022 TEMPO BKN040TCU

🟡 TAF LFOT 010500Z 0106/0206 20005KT 9999 SCT050 PROB30 TEMPO 0106/0107 3000 BR BKN004 TEMPO 0112/0119 -SHRA BKN040TCU PROB30 TEMPO 0115/0119 VRB10G20KT 4000 -TSRA SCT050CB PROB40 TEMPO 0200/0203 -SHRA SCT050TCU PROB30 TEMPO 0200/0203 4000 -TSRA FEW050CB</description>
<pubDate>2026-05-01 11:05:19 UTC</pubDate>
</item>

</channel>
</rss>
